{"type":"FeatureCollection","name":"meratus-sulawesi-concession-inventory-forestry-ha","metadata":{"coverageId":"sulawesi","parentCoverageId":"indonesia","generatedAt":"2026-08-28T07:51:21Z","pipelineVersion":"2","count":9,"sectors":["PBPH"],"qualities":["OFFICIAL"],"geometryNote":"Web-display geometry is simplified; consult source records for authoritative geometry.","evidenceNote":"A public concession record does not imply fire causation, illegality, or wrongdoing."},"features":[{"type":"Feature","properties":{"inventoryId":"big-forestry-ha:217","sector":"PBPH","subtype":"IUPHHK-HA","quality":"OFFICIAL","sourceDataset":"big-forestry-ha","sourceRecordId":"217","source":"BIG Kebijakan Satu Peta","sourceUrl":"https://kspservices.big.go.id/satupeta/rest/services/PUBLIK/PERIZINAN_DAN_PERTANAHAN/MapServer/1","retrievedAt":"2026-08-28T07:51:21Z","geometryProcessing":"web display simplification tolerance 0.00035 degrees","name":"PT BINA BALANTAK RAYA","permitNumber":"SK.334/Menhut-II/2004","permitDate":"2004-08-31","areaHa":95270.0,"provinceCode":"72","region":"sulawesi"},"geometry":{"type":"MultiPolygon","coordinates":[[[[122.48203,-1.05908,0.0,null],[122.47704,-1.06119,0.0,null],[122.47067,-1.06508,0.0,null],[122.46642,-1.06801,0.0,null],[122.45675,-1.07634,0.0,null],[122.43889,-1.08558,0.0,null],[122.4276,-1.08709,0.0,null],[122.41992,-1.0889,0.0,null],[122.41452,-1.09205,0.0,null],[122.40834,-1.09578,0.0,null],[122.39969,-1.10265,0.0,null],[122.39433,-1.10813,0.0,null],[122.39066,-1.11069,0.0,null],[122.38383,-1.11229,0.0,null],[122.36012,-1.13229,0.0,null],[122.34346,-1.13804,0.0,null],[122.33124,-1.14063,0.0,null],[122.3223,-1.14125,0.0,null],[122.31141,-1.14049,0.0,null],[122.30479,-1.14127,0.0,null],[122.29932,-1.14068,0.0,null],[122.29678,-1.14183,0.0,null],[122.2887,-1.14156,0.0,null],[122.28592,-1.14248,0.0,null],[122.28353,-1.14245,0.0,null],[122.28221,-1.13947,0.0,null],[122.27611,-1.13211,0.0,null],[122.27369,-1.13332,0.0,null],[122.27044,-1.13179,0.0,null],[122.26381,-1.13079,0.0,null],[122.26109,-1.13197,0.0,null],[122.25654,-1.13118,0.0,null],[122.25471,-1.13222,0.0,null],[122.25126,-1.13307,0.0,null],[122.24718,-1.13054,0.0,null],[122.245,-1.13107,0.0,null],[122.24419,-1.13054,0.0,null],[122.24155,-1.131,0.0,null],[122.23827,-1.12929,0.0,null],[122.23597,-1.13087,0.0,null],[122.23402,-1.13078,0.0,null],[122.23325,-1.13028,0.0,null],[122.23292,-1.12897,0.0,null],[122.23157,-1.12846,0.0,null],[122.22905,-1.12934,0.0,null],[122.22527,-1.1291,0.0,null],[122.2235,-1.12808,0.0,null],[122.22139,-1.12889,0.0,null],[122.21893,-1.12884,0.0,null],[122.217,-1.12783,0.0,null],[122.21201,-1.12986,0.0,null],[122.20755,-1.13007,0.0,null],[122.19938,-1.12694,0.0,null],[122.19812,-1.12699,0.0,null],[122.1933,-1.12859,0.0,null],[122.19193,-1.12973,0.0,null],[122.18834,-1.13066,0.0,null],[122.18771,-1.12998,0.0,null],[122.18712,-1.1272,0.0,null],[122.18661,-1.12711,0.0,null],[122.18581,-1.12813,0.0,null],[122.18243,-1.12765,0.0,null],[122.1802,-1.12669,0.0,null],[122.17587,-1.12728,0.0,null],[122.17503,-1.12614,0.0,null],[122.17326,-1.12597,0.0,null],[122.17174,-1.12382,0.0,null],[122.17022,-1.12298,0.0,null],[122.16553,-1.12593,0.0,null],[122.16376,-1.12644,0.0,null],[122.16228,-1.125,0.0,null],[122.16137,-1.1231,0.0,null],[122.16013,-1.12357,0.0,null],[122.15674,-1.12222,0.0,null],[122.15623,-1.12361,0.0,null],[122.1545,-1.12268,0.0,null],[122.15265,-1.12302,0.0,null],[122.15197,-1.12399,0.0,null],[122.15096,-1.12399,0.0,null],[122.14995,-1.12382,0.0,null],[122.14792,-1.12146,0.0,null],[122.14626,-1.12065,0.0,null],[122.1409,-1.12247,0.0,null],[122.13702,-1.12024,0.0,null],[122.13267,-1.12256,0.0,null],[122.13161,-1.12226,0.0,null],[122.13026,-1.12057,0.0,null],[122.13031,-1.11796,0.0,null],[122.12929,-1.11716,0.0,null],[122.12752,-1.11673,0.0,null],[122.12605,-1.11779,0.0,null],[122.12444,-1.11678,0.0,null],[122.12173,-1.11707,0.0,null],[122.11292,-1.11378,0.0,null],[122.11056,-1.11205,0.0,null],[122.10835,-1.11315,0.0,null],[122.10596,-1.11272,0.0,null],[122.10026,-1.11045,0.0,null],[122.09784,-1.10817,0.0,null],[122.09695,-1.10795,0.0,null],[122.09361,-1.10825,0.0,null],[122.09121,-1.11019,0.0,null],[122.08878,-1.11024,0.0,null],[122.08545,-1.1092,0.0,null],[122.08038,-1.10558,0.0,null],[122.07293,-1.11579,0.0,null],[122.07491,-1.11928,0.0,null],[122.08038,-1.12312,0.0,null],[122.08815,-1.12575,0.0,null],[122.09493,-1.12603,0.0,null],[122.0994,-1.12732,0.0,null],[122.09984,-1.13162,0.0,null],[122.09727,-1.14315,0.0,null],[122.09887,-1.14723,0.0,null],[122.1012,-1.14857,0.0,null],[122.10528,-1.14928,0.0,null],[122.10758,-1.14768,0.0,null],[122.11026,-1.14469,0.0,null],[122.1132,-1.14641,0.0,null],[122.11459,-1.14873,0.0,null],[122.11462,-1.15285,0.0,null],[122.11543,-1.15479,0.0,null],[122.11836,-1.15728,0.0,null],[122.12266,-1.15839,0.0,null],[122.12636,-1.15697,0.0,null],[122.13085,-1.15749,0.0,null],[122.13262,-1.15962,0.0,null],[122.13519,-1.16544,0.0,null],[122.13931,-1.16929,0.0,null],[122.1444,-1.17215,0.0,null],[122.15751,-1.17549,0.0,null],[122.1665,-1.18027,0.0,null],[122.1802,-1.19067,0.0,null],[122.18744,-1.19879,0.0,null],[122.18725,-1.20191,0.0,null],[122.17846,-1.20413,0.0,null],[122.1683,-1.2046,0.0,null],[122.16107,-1.20117,0.0,null],[122.15403,-1.1954,0.0,null],[122.14308,-1.18832,0.0,null],[122.13605,-1.18625,0.0,null],[122.12903,-1.18516,0.0,null],[122.11211,-1.1867,0.0,null],[122.09583,-1.18396,0.0,null],[122.08699,-1.18078,0.0,null],[122.08283,-1.17623,0.0,null],[122.07953,-1.17133,0.0,null],[122.07493,-1.16739,0.0,null],[122.06565,-1.16363,0.0,null],[122.05897,-1.16162,0.0,null],[122.05496,-1.16119,0.0,null],[122.0513,-1.16212,0.0,null],[122.04673,-1.16229,0.0,null],[122.05281,-1.17868,0.0,null],[122.05204,-1.18253,0.0,null],[122.04755,-1.18405,0.0,null],[122.04111,-1.18056,0.0,null],[122.03876,-1.17863,0.0,null],[122.03623,-1.17843,0.0,null],[122.03547,-1.17976,0.0,null],[122.03571,-1.18396,0.0,null],[122.03419,-1.18584,0.0,null],[122.02827,-1.18533,0.0,null],[122.02352,-1.18385,0.0,null],[122.02164,-1.1855,0.0,null],[122.02078,-1.18812,0.0,null],[122.02666,-1.19701,0.0,null],[122.0281,-1.20258,0.0,null],[122.0284,-1.2085,0.0,null],[122.02661,-1.21011,0.0,null],[122.02227,-1.21116,0.0,null],[122.01834,-1.20985,0.0,null],[122.01363,-1.20719,0.0,null],[122.00698,-1.20104,0.0,null],[122.00306,-1.20052,0.0,null],[121.99544,-1.19458,0.0,null],[121.97979,-1.18914,0.0,null],[121.96908,-1.1805,0.0,null],[121.96787,-1.18871,0.0,null],[121.96746,-1.19825,0.0,null],[121.96804,-1.20407,0.0,null],[121.96454,-1.21538,0.0,null],[121.95927,-1.22723,0.0,null],[121.95694,-1.23075,0.0,null],[121.94588,-1.24273,0.0,null],[121.91528,-1.26029,0.0,null],[121.92374,-1.27937,0.0,null],[122.00888,-1.27823,0.0,null],[122.01302,-1.27081,0.0,null],[122.02209,-1.26153,0.0,null],[122.02737,-1.25975,0.0,null],[122.05283,-1.25367,0.0,null],[122.05595,-1.2545,0.0,null],[122.05889,-1.25561,0.0,null],[122.06174,-1.26133,0.0,null],[122.06554,-1.26718,0.0,null],[122.07728,-1.27385,0.0,null],[122.07961,-1.27658,0.0,null],[122.08136,-1.28085,0.0,null],[122.0833,-1.28299,0.0,null],[122.08389,-1.29175,0.0,null],[122.08217,-1.30051,0.0,null],[122.0785,-1.31105,0.0,null],[122.09151,-1.31353,0.0,null],[122.09792,-1.31273,0.0,null],[122.1012,-1.3096,0.0,null],[122.10933,-1.29086,0.0,null],[122.11518,-1.28746,0.0,null],[122.12621,-1.28615,0.0,null],[122.13132,-1.28462,0.0,null],[122.13766,-1.28046,0.0,null],[122.1427,-1.27853,0.0,null],[122.14911,-1.27736,0.0,null],[122.15955,-1.27692,0.0,null],[122.19267,-1.26292,0.0,null],[122.21091,-1.26705,0.0,null],[122.21475,-1.28162,0.0,null],[122.20949,-1.29371,0.0,null],[122.2199,-1.29716,0.0,null],[122.26055,-1.28171,0.0,null],[122.29327,-1.26822,0.0,null],[122.29749,-1.26485,0.0,null],[122.31931,-1.24453,0.0,null],[122.34512,-1.21925,0.0,null],[122.36366,-1.16932,0.0,null],[122.38209,-1.14727,0.0,null],[122.39206,-1.13658,0.0,null],[122.40012,-1.13209,0.0,null],[122.43218,-1.11184,0.0,null],[122.44013,-1.10577,0.0,null],[122.45387,-1.09313,0.0,null],[122.4712,-1.07881,0.0,null],[122.47856,-1.07531,0.0,null],[122.47953,-1.07694,0.0,null],[122.48203,-1.05908,0.0,null]]],[[[121.78645,-1.32221,0.0,null],[121.78149,-1.31651,0.0,null],[121.78004,-1.31205,0.0,null],[121.7832,-1.30763,0.0,null],[121.7925,-1.30227,0.0,null],[121.79434,-1.2998,0.0,null],[121.79342,-1.29658,0.0,null],[121.78726,-1.29283,0.0,null],[121.77343,-1.28757,0.0,null],[121.76784,-1.28431,0.0,null],[121.73811,-1.29528,0.0,null],[121.68765,-1.32323,0.0,null],[121.64458,-1.34785,0.0,null],[121.64311,-1.35286,0.0,null],[121.64336,-1.35685,0.0,null],[121.64556,-1.36107,0.0,null],[121.64629,-1.36481,0.0,null],[121.64581,-1.3748,0.0,null],[121.64629,-1.38353,0.0,null],[121.64532,-1.38728,0.0,null],[121.64606,-1.39376,0.0,null],[121.69009,-1.39825,0.0,null],[121.72248,-1.38385,0.0,null],[121.7807,-1.39001,0.0,null],[121.79073,-1.39957,0.0,null],[121.80424,-1.42266,0.0,null],[121.808,-1.42699,0.0,null],[121.81792,-1.43159,0.0,null],[121.82908,-1.43526,0.0,null],[121.83555,-1.43919,0.0,null],[121.83904,-1.44388,0.0,null],[121.84206,-1.45105,0.0,null],[121.84409,-1.45773,0.0,null],[121.84437,-1.46194,0.0,null],[121.83828,-1.47685,0.0,null],[121.83688,-1.48654,0.0,null],[121.83765,-1.48927,0.0,null],[121.83943,-1.49374,0.0,null],[121.84345,-1.49845,0.0,null],[121.84669,-1.49993,0.0,null],[121.85019,-1.50316,0.0,null],[121.85566,-1.50489,0.0,null],[121.86111,-1.50514,0.0,null],[121.86729,-1.50214,0.0,null],[121.87222,-1.49815,0.0,null],[121.87589,-1.49216,0.0,null],[121.87804,-1.48319,0.0,null],[121.88319,-1.47672,0.0,null],[121.88515,-1.47323,0.0,null],[121.88512,-1.47,0.0,null],[121.88386,-1.46628,0.0,null],[121.8811,-1.46381,0.0,null],[121.87935,-1.46109,0.0,null],[121.8776,-1.46035,0.0,null],[121.87631,-1.45415,0.0,null],[121.88002,-1.45117,0.0,null],[121.88721,-1.45115,0.0,null],[121.85598,-1.40174,0.0,null],[121.8525,-1.38225,0.0,null],[121.85209,-1.36061,0.0,null],[121.85254,-1.35291,0.0,null],[121.85551,-1.34276,0.0,null],[121.85844,-1.33619,0.0,null],[121.85491,-1.33616,0.0,null],[121.85091,-1.33981,0.0,null],[121.84524,-1.34377,0.0,null],[121.84072,-1.34575,0.0,null],[121.83455,-1.34427,0.0,null],[121.83256,-1.34501,0.0,null],[121.82536,-1.35147,0.0,null],[121.8204,-1.35221,0.0,null],[121.81008,-1.34379,0.0,null],[121.80619,-1.33884,0.0,null],[121.7992,-1.32794,0.0,null],[121.79568,-1.32744,0.0,null],[121.79144,-1.32569,0.0,null],[121.78645,-1.32221,0.0,null]],[[121.70219,-1.37729,0.0,null],[121.69939,-1.37548,0.0,null],[121.69739,-1.36681,0.0,null],[121.69838,-1.36136,0.0,null],[121.71171,-1.34922,0.0,null],[121.71947,-1.3367,0.0,null],[121.72166,-1.33146,0.0,null],[121.72803,-1.3232,0.0,null],[121.73301,-1.32281,0.0,null],[121.7366,-1.32323,0.0,null],[121.7394,-1.32445,0.0,null],[121.744,-1.32769,0.0,null],[121.75201,-1.33636,0.0,null],[121.75882,-1.3394,0.0,null],[121.76805,-1.34224,0.0,null],[121.77267,-1.34446,0.0,null],[121.77707,-1.35049,0.0,null],[121.77686,-1.35913,0.0,null],[121.77347,-1.36415,0.0,null],[121.76967,-1.36736,0.0,null],[121.76188,-1.37098,0.0,null],[121.75288,-1.37198,0.0,null],[121.73708,-1.37238,0.0,null],[121.71474,-1.37584,0.0,null],[121.70956,-1.37767,0.0,null],[121.70398,-1.37809,0.0,null],[121.70219,-1.37729,0.0,null]]],[[[121.83753,-1.53337,0.0,null],[121.83456,-1.53262,0.0,null],[121.82862,-1.52911,0.0,null],[121.82878,-1.52136,0.0,null],[121.82767,-1.51213,0.0,null],[121.81042,-1.52746,0.0,null],[121.80668,-1.536,0.0,null],[121.79767,-1.54523,0.0,null],[121.79189,-1.5461,0.0,null],[121.7838,-1.54448,0.0,null],[121.7851,-1.55154,0.0,null],[121.78859,-1.55571,0.0,null],[121.7886,-1.55793,0.0,null],[121.78613,-1.56113,0.0,null],[121.78216,-1.56238,0.0,null],[121.77843,-1.5624,0.0,null],[121.77348,-1.56834,0.0,null],[121.7628,-1.56914,0.0,null],[121.76083,-1.57162,0.0,null],[121.75859,-1.57213,0.0,null],[121.75561,-1.56943,0.0,null],[121.75014,-1.56947,0.0,null],[121.74716,-1.56875,0.0,null],[121.74889,-1.56233,0.0,null],[121.74863,-1.55863,0.0,null],[121.7474,-1.55692,0.0,null],[121.74168,-1.55475,0.0,null],[121.7412,-1.5518,0.0,null],[121.74567,-1.54735,0.0,null],[121.74694,-1.54464,0.0,null],[121.74918,-1.54364,0.0,null],[121.76303,-1.5504,0.0,null],[121.768,-1.55111,0.0,null],[121.7737,-1.54616,0.0,null],[121.77715,-1.54444,0.0,null],[121.77862,-1.54225,0.0,null],[121.72894,-1.53305,0.0,null],[121.71492,-1.55395,0.0,null],[121.73801,-1.58238,0.0,null],[121.74424,-1.58925,0.0,null],[121.74721,-1.58578,0.0,null],[121.75068,-1.58502,0.0,null],[121.75416,-1.58697,0.0,null],[121.75491,-1.58944,0.0,null],[121.75665,-1.59042,0.0,null],[121.76882,-1.5911,0.0,null],[121.77057,-1.59405,0.0,null],[121.77208,-1.6022,0.0,null],[121.77556,-1.60169,0.0,null],[121.78995,-1.59793,0.0,null],[121.79243,-1.59569,0.0,null],[121.79814,-1.59592,0.0,null],[121.80434,-1.59467,0.0,null],[121.81078,-1.5912,0.0,null],[121.81647,-1.58675,0.0,null],[121.8276,-1.58183,0.0,null],[121.83578,-1.58104,0.0,null],[121.84122,-1.57777,0.0,null],[121.85233,-1.56575,0.0,null],[121.86266,-1.55179,0.0,null],[121.86933,-1.54823,0.0,null],[121.87352,-1.54521,0.0,null],[121.87671,-1.53759,0.0,null],[121.86927,-1.53549,0.0,null],[121.86725,-1.53144,0.0,null],[121.8645,-1.53083,0.0,null],[121.85954,-1.53227,0.0,null],[121.85014,-1.53367,0.0,null],[121.83753,-1.53337,0.0,null]]]]}},{"type":"Feature","properties":{"inventoryId":"big-forestry-ha:253","sector":"PBPH","subtype":"IUPHHK-HA","quality":"OFFICIAL","sourceDataset":"big-forestry-ha","sourceRecordId":"253","source":"BIG Kebijakan Satu Peta","sourceUrl":"https://kspservices.big.go.id/satupeta/rest/services/PUBLIK/PERIZINAN_DAN_PERTANAHAN/MapServer/1","retrievedAt":"2026-08-28T07:51:21Z","geometryProcessing":"web display simplification tolerance 0.00035 degrees","name":"PT DAHATAMA ADI KARYA","permitNumber":"3/1/IUPHHK-HA/PMDN/2017","permitDate":"2017-03-10","areaHa":49970.0,"provinceCode":"72","region":"sulawesi"},"geometry":{"type":"Polygon","coordinates":[[[122.07332,-1.07011,0.0,null],[122.09101,-1.06542,0.0,null],[122.16591,-1.04267,0.0,null],[122.20957,-1.0283,0.0,null],[122.24317,-1.01826,0.0,null],[122.24435,-1.01315,0.0,null],[122.24067,-1.01227,0.0,null],[122.23929,-1.01124,0.0,null],[122.23919,-1.00656,0.0,null],[122.23988,-1.00327,0.0,null],[122.23841,-1.00149,0.0,null],[122.23634,-1.00016,0.0,null],[122.23498,-1.0002,0.0,null],[122.23379,-1.00163,0.0,null],[122.23377,-1.00306,0.0,null],[122.23055,-1.00394,0.0,null],[122.22839,-1.0038,0.0,null],[122.22534,-1.00249,0.0,null],[122.21644,-1.00223,0.0,null],[122.21411,-1.00042,0.0,null],[122.21188,-0.99475,0.0,null],[122.21589,-0.9924,0.0,null],[122.22333,-0.98578,0.0,null],[122.22852,-0.98213,0.0,null],[122.23457,-0.97979,0.0,null],[122.24561,-0.97817,0.0,null],[122.25568,-0.97767,0.0,null],[122.25829,-0.98289,0.0,null],[122.25943,-0.98392,0.0,null],[122.2742,-0.99074,0.0,null],[122.28637,-0.98892,0.0,null],[122.28766,-0.98931,0.0,null],[122.28859,-0.99038,0.0,null],[122.28898,-0.99571,0.0,null],[122.28961,-0.99626,0.0,null],[122.30518,-0.98884,0.0,null],[122.30623,-0.98903,0.0,null],[122.30703,-0.98368,0.0,null],[122.30487,-0.98188,0.0,null],[122.30504,-0.98051,0.0,null],[122.30313,-0.97913,0.0,null],[122.30317,-0.97575,0.0,null],[122.30524,-0.97592,0.0,null],[122.3076,-0.97727,0.0,null],[122.30863,-0.9756,0.0,null],[122.30947,-0.97521,0.0,null],[122.30918,-0.97627,0.0,null],[122.31071,-0.97598,0.0,null],[122.31044,-0.97676,0.0,null],[122.3117,-0.97657,0.0,null],[122.31183,-0.97765,0.0,null],[122.31301,-0.97632,0.0,null],[122.31364,-0.97659,0.0,null],[122.31417,-0.97594,0.0,null],[122.3148,-0.97667,0.0,null],[122.31508,-0.97535,0.0,null],[122.31638,-0.97487,0.0,null],[122.3163,-0.97604,0.0,null],[122.31681,-0.97663,0.0,null],[122.31877,-0.97636,0.0,null],[122.31926,-0.97766,0.0,null],[122.31954,-0.97673,0.0,null],[122.32228,-0.97444,0.0,null],[122.32391,-0.97123,0.0,null],[122.32701,-0.97032,0.0,null],[122.33232,-0.96612,0.0,null],[122.33584,-0.96133,0.0,null],[122.34059,-0.95762,0.0,null],[122.34154,-0.9545,0.0,null],[122.34293,-0.95322,0.0,null],[122.34539,-0.94847,0.0,null],[122.34758,-0.94614,0.0,null],[122.35002,-0.94111,0.0,null],[122.344,-0.93566,0.0,null],[122.33905,-0.929,0.0,null],[122.33194,-0.93585,0.0,null],[122.3201,-0.93991,0.0,null],[122.31782,-0.93461,0.0,null],[122.32621,-0.92289,0.0,null],[122.32011,-0.91111,0.0,null],[122.32425,-0.90632,0.0,null],[122.32393,-0.90417,0.0,null],[122.32482,-0.90333,0.0,null],[122.32399,-0.90185,0.0,null],[122.32393,-0.89994,0.0,null],[122.3231,-0.89959,0.0,null],[122.32304,-0.89887,0.0,null],[122.32381,-0.89822,0.0,null],[122.32197,-0.89685,0.0,null],[122.32197,-0.89614,0.0,null],[122.32286,-0.89578,0.0,null],[122.32358,-0.89423,0.0,null],[122.32596,-0.89364,0.0,null],[122.32631,-0.89173,0.0,null],[122.32742,-0.89066,0.0,null],[122.32967,-0.88989,0.0,null],[122.33134,-0.88787,0.0,null],[122.33443,-0.88692,0.0,null],[122.3358,-0.88543,0.0,null],[122.33925,-0.88502,0.0,null],[122.34025,-0.88432,0.0,null],[122.338,-0.88309,0.0,null],[122.33581,-0.88058,0.0,null],[122.33534,-0.87975,0.0,null],[122.33544,-0.87787,0.0,null],[122.33621,-0.87768,0.0,null],[122.3374,-0.87853,0.0,null],[122.33893,-0.87865,0.0,null],[122.35054,-0.8775,0.0,null],[122.34838,-0.8696,0.0,null],[122.35489,-0.86362,0.0,null],[122.36235,-0.86568,0.0,null],[122.40571,-0.89812,0.0,null],[122.41323,-0.89706,0.0,null],[122.41118,-0.89,0.0,null],[122.41782,-0.88493,0.0,null],[122.43129,-0.88655,0.0,null],[122.43477,-0.88329,0.0,null],[122.44655,-0.87779,0.0,null],[122.45237,-0.88271,0.0,null],[122.45988,-0.88411,0.0,null],[122.46864,-0.88075,0.0,null],[122.47292,-0.89306,0.0,null],[122.47439,-0.89322,0.0,null],[122.47666,-0.89482,0.0,null],[122.48111,-0.89257,0.0,null],[122.51652,-0.88908,0.0,null],[122.52279,-0.88493,0.0,null],[122.52502,-0.88513,0.0,null],[122.5271,-0.88296,0.0,null],[122.52872,-0.8825,0.0,null],[122.52423,-0.87615,0.0,null],[122.5227,-0.87063,0.0,null],[122.52377,-0.86503,0.0,null],[122.52727,-0.86143,0.0,null],[122.5269,-0.86027,0.0,null],[122.52494,-0.85925,0.0,null],[122.5241,-0.85807,0.0,null],[122.5222,-0.85758,0.0,null],[122.52172,-0.85287,0.0,null],[122.51991,-0.85176,0.0,null],[122.5196,-0.8506,0.0,null],[122.5038,-0.84006,0.0,null],[122.48707,-0.82799,0.0,null],[122.48391,-0.82758,0.0,null],[122.48138,-0.82907,0.0,null],[122.4785,-0.82839,0.0,null],[122.47542,-0.82936,0.0,null],[122.4758,-0.82675,0.0,null],[122.47484,-0.82694,0.0,null],[122.47455,-0.82607,0.0,null],[122.47368,-0.82665,0.0,null],[122.47267,-0.82512,0.0,null],[122.4688,-0.82603,0.0,null],[122.45931,-0.82681,0.0,null],[122.45883,-0.83063,0.0,null],[122.45716,-0.832,0.0,null],[122.45562,-0.83451,0.0,null],[122.45309,-0.83506,0.0,null],[122.45074,-0.83859,0.0,null],[122.44631,-0.83148,0.0,null],[122.44931,-0.8216,0.0,null],[122.44143,-0.81935,0.0,null],[122.42887,-0.82327,0.0,null],[122.42265,-0.81656,0.0,null],[122.42092,-0.8168,0.0,null],[122.41938,-0.81599,0.0,null],[122.41506,-0.81585,0.0,null],[122.41329,-0.81656,0.0,null],[122.39975,-0.82958,0.0,null],[122.40175,-0.83355,0.0,null],[122.40185,-0.83701,0.0,null],[122.40022,-0.83857,0.0,null],[122.39586,-0.83988,0.0,null],[122.38904,-0.83976,0.0,null],[122.38384,-0.83538,0.0,null],[122.38187,-0.83629,0.0,null],[122.38203,-0.83789,0.0,null],[122.37808,-0.84018,0.0,null],[122.36382,-0.83183,0.0,null],[122.36154,-0.8319,0.0,null],[122.35849,-0.83033,0.0,null],[122.35513,-0.82718,0.0,null],[122.35441,-0.82821,0.0,null],[122.34983,-0.82792,0.0,null],[122.34778,-0.827,0.0,null],[122.33876,-0.83058,0.0,null],[122.3227,-0.83191,0.0,null],[122.3229,-0.83638,0.0,null],[122.32404,-0.8401,0.0,null],[122.3246,-0.84572,0.0,null],[122.32294,-0.8549,0.0,null],[122.31978,-0.86163,0.0,null],[122.31536,-0.86794,0.0,null],[122.3046,-0.87903,0.0,null],[122.29961,-0.88508,0.0,null],[122.29801,-0.89011,0.0,null],[122.29842,-0.8922,0.0,null],[122.30322,-0.89878,0.0,null],[122.30353,-0.90187,0.0,null],[122.30307,-0.90374,0.0,null],[122.30359,-0.90674,0.0,null],[122.30244,-0.90699,0.0,null],[122.29992,-0.90906,0.0,null],[122.29852,-0.91118,0.0,null],[122.29625,-0.91305,0.0,null],[122.29475,-0.91354,0.0,null],[122.29476,-0.92393,0.0,null],[122.28708,-0.92918,0.0,null],[122.28571,-0.93606,0.0,null],[122.28262,-0.94065,0.0,null],[122.27593,-0.94745,0.0,null],[122.26379,-0.95602,0.0,null],[122.25486,-0.95932,0.0,null],[122.24605,-0.96128,0.0,null],[122.24226,-0.96302,0.0,null],[122.23601,-0.96711,0.0,null],[122.23029,-0.97224,0.0,null],[122.22714,-0.97387,0.0,null],[122.21256,-0.97703,0.0,null],[122.20203,-0.98129,0.0,null],[122.19626,-0.98179,0.0,null],[122.19248,-0.98284,0.0,null],[122.18731,-0.99052,0.0,null],[122.1861,-0.99184,0.0,null],[122.1842,-0.99268,0.0,null],[122.17106,-0.9914,0.0,null],[122.1674,-0.99155,0.0,null],[122.16018,-0.9905,0.0,null],[122.14723,-0.99067,0.0,null],[122.14284,-0.99122,0.0,null],[122.14279,-0.99034,0.0,null],[122.13329,-0.99048,0.0,null],[122.12456,-0.98666,0.0,null],[122.1235,-0.98636,0.0,null],[122.12271,-0.9869,0.0,null],[122.12133,-0.98606,0.0,null],[122.11762,-0.98541,0.0,null],[122.11615,-0.9844,0.0,null],[122.11454,-0.98096,0.0,null],[122.11359,-0.9758,0.0,null],[122.11309,-0.97542,0.0,null],[122.11228,-0.97705,0.0,null],[122.10929,-0.97746,0.0,null],[122.10856,-0.97583,0.0,null],[122.10613,-0.97892,0.0,null],[122.10346,-0.97811,0.0,null],[122.1033,-0.97721,0.0,null],[122.10071,-0.979,0.0,null],[122.09988,-0.97824,0.0,null],[122.09761,-0.97955,0.0,null],[122.04002,-0.97526,0.0,null],[122.03745,-0.9744,0.0,null],[122.03365,-0.97131,0.0,null],[122.02972,-0.96921,0.0,null],[122.02838,-0.96958,0.0,null],[122.0285,-0.97069,0.0,null],[122.02936,-0.97143,0.0,null],[122.02911,-0.97267,0.0,null],[122.02605,-0.97205,0.0,null],[122.02641,-0.97464,0.0,null],[122.02335,-0.97723,0.0,null],[122.0229,-0.97903,0.0,null],[122.02359,-0.98007,0.0,null],[122.02506,-0.98007,0.0,null],[122.02555,-0.98192,0.0,null],[122.02189,-0.98478,0.0,null],[122.02077,-0.98711,0.0,null],[122.02077,-0.98871,0.0,null],[122.01881,-0.98809,0.0,null],[122.01868,-0.98624,0.0,null],[122.0177,-0.98624,0.0,null],[122.01709,-0.98748,0.0,null],[122.0166,-0.98883,0.0,null],[122.01697,-0.9918,0.0,null],[122.01831,-0.99291,0.0,null],[122.01721,-0.995,0.0,null],[122.01709,-0.99772,0.0,null],[122.01635,-0.99883,0.0,null],[122.01562,-0.99871,0.0,null],[122.01476,-0.99747,0.0,null],[122.01174,-0.99711,0.0,null],[122.00303,-1.00681,0.0,null],[121.98325,-1.0076,0.0,null],[121.97358,-1.01223,0.0,null],[121.97368,-1.01622,0.0,null],[121.97159,-1.01819,0.0,null],[121.97,-1.01758,0.0,null],[121.97024,-1.01597,0.0,null],[121.96902,-1.01474,0.0,null],[121.96907,-1.01412,0.0,null],[121.95289,-1.02186,0.0,null],[121.93738,-1.01535,0.0,null],[121.91975,-1.01398,0.0,null],[121.88026,-1.00833,0.0,null],[121.87754,-1.02143,0.0,null],[121.87777,-1.02442,0.0,null],[121.87304,-1.02574,0.0,null],[121.87152,-1.02521,0.0,null],[121.86538,-1.02651,0.0,null],[121.86468,-1.02808,0.0,null],[121.86206,-1.02705,0.0,null],[121.86026,-1.03033,0.0,null],[121.85995,-1.03313,0.0,null],[121.86131,-1.03604,0.0,null],[121.86538,-1.04032,0.0,null],[121.8661,-1.04323,0.0,null],[121.86845,-1.04657,0.0,null],[121.86803,-1.04999,0.0,null],[121.86714,-1.05087,0.0,null],[121.86723,-1.05275,0.0,null],[121.86913,-1.05374,0.0,null],[121.87046,-1.05724,0.0,null],[121.86911,-1.06138,0.0,null],[121.87127,-1.0644,0.0,null],[121.87382,-1.06456,0.0,null],[121.87589,-1.0668,0.0,null],[121.87629,-1.06872,0.0,null],[121.87552,-1.07238,0.0,null],[121.87905,-1.07275,0.0,null],[121.88362,-1.07211,0.0,null],[121.88561,-1.07635,0.0,null],[121.88778,-1.07645,0.0,null],[121.88959,-1.0794,0.0,null],[121.89143,-1.08658,0.0,null],[121.89653,-1.08933,0.0,null],[121.90226,-1.08931,0.0,null],[121.90293,-1.08816,0.0,null],[121.90333,-1.08431,0.0,null],[121.98806,-1.08464,0.0,null],[122.03517,-1.08551,0.0,null],[122.02618,-1.07494,0.0,null],[122.02429,-1.07168,0.0,null],[122.0231,-1.06633,0.0,null],[122.02473,-1.05941,0.0,null],[122.02441,-1.0575,0.0,null],[122.02128,-1.05271,0.0,null],[122.02064,-1.0457,0.0,null],[122.02227,-1.04219,0.0,null],[122.02521,-1.04003,0.0,null],[122.02885,-1.04014,0.0,null],[122.03141,-1.03853,0.0,null],[122.03355,-1.03794,0.0,null],[122.04378,-1.03658,0.0,null],[122.04863,-1.0304,0.0,null],[122.0569,-1.03027,0.0,null],[122.06268,-1.03555,0.0,null],[122.0628,-1.05725,0.0,null],[122.06503,-1.05894,0.0,null],[122.06614,-1.06088,0.0,null],[122.06782,-1.06186,0.0,null],[122.06945,-1.06534,0.0,null],[122.07309,-1.0663,0.0,null],[122.07332,-1.07011,0.0,null]]]}},{"type":"Feature","properties":{"inventoryId":"big-forestry-ha:219","sector":"PBPH","subtype":"IUPHHK-HA","quality":"OFFICIAL","sourceDataset":"big-forestry-ha","sourceRecordId":"219","source":"BIG Kebijakan Satu Peta","sourceUrl":"https://kspservices.big.go.id/satupeta/rest/services/PUBLIK/PERIZINAN_DAN_PERTANAHAN/MapServer/1","retrievedAt":"2026-08-28T07:51:21Z","geometryProcessing":"web display simplification tolerance 0.00035 degrees","name":"PT HUMA SULUT LESTARI","permitNumber":"SK.39/Kpts-II/2001","permitDate":"2001-02-15","areaHa":26800.0,"provinceCode":"71","region":"sulawesi"},"geometry":{"type":"Polygon","coordinates":[[[123.46056,0.73754,0.0,null],[123.4595,0.73404,0.0,null],[123.4481,0.71018,0.0,null],[123.43481,0.69771,0.0,null],[123.41954,0.69748,0.0,null],[123.41603,0.6954,0.0,null],[123.42524,0.69344,0.0,null],[123.42805,0.69203,0.0,null],[123.43156,0.68839,0.0,null],[123.4369,0.67674,0.0,null],[123.44362,0.67034,0.0,null],[123.46145,0.6648,0.0,null],[123.46515,0.6622,0.0,null],[123.47157,0.65469,0.0,null],[123.47316,0.65082,0.0,null],[123.47637,0.64574,0.0,null],[123.48454,0.63677,0.0,null],[123.48569,0.63454,0.0,null],[123.48695,0.62844,0.0,null],[123.49051,0.62359,0.0,null],[123.50487,0.62559,0.0,null],[123.50932,0.62485,0.0,null],[123.51179,0.62238,0.0,null],[123.51311,0.61653,0.0,null],[123.51592,0.61293,0.0,null],[123.51982,0.61001,0.0,null],[123.52612,0.60715,0.0,null],[123.53618,0.60351,0.0,null],[123.54068,0.60336,0.0,null],[123.54298,0.60454,0.0,null],[123.54555,0.61532,0.0,null],[123.54642,0.62251,0.0,null],[123.5456,0.62929,0.0,null],[123.54354,0.63743,0.0,null],[123.54419,0.64188,0.0,null],[123.54845,0.64923,0.0,null],[123.55329,0.65363,0.0,null],[123.55913,0.65793,0.0,null],[123.5731,0.66419,0.0,null],[123.58861,0.6687,0.0,null],[123.6058,0.66139,0.0,null],[123.61359,0.66088,0.0,null],[123.62283,0.66167,0.0,null],[123.62649,0.66422,0.0,null],[123.63116,0.66903,0.0,null],[123.63213,0.6715,0.0,null],[123.63364,0.68378,0.0,null],[123.63554,0.68617,0.0,null],[123.63982,0.68764,0.0,null],[123.64149,0.6876,0.0,null],[123.64602,0.68576,0.0,null],[123.64802,0.68405,0.0,null],[123.65102,0.67875,0.0,null],[123.65427,0.66854,0.0,null],[123.65571,0.65276,0.0,null],[123.65752,0.64626,0.0,null],[123.65998,0.64177,0.0,null],[123.66566,0.63483,0.0,null],[123.66684,0.62915,0.0,null],[123.66673,0.62616,0.0,null],[123.66576,0.62326,0.0,null],[123.66387,0.62178,0.0,null],[123.65681,0.62014,0.0,null],[123.65048,0.62029,0.0,null],[123.64646,0.61971,0.0,null],[123.64276,0.61768,0.0,null],[123.6414,0.61538,0.0,null],[123.64077,0.61272,0.0,null],[123.64244,0.60413,0.0,null],[123.64358,0.60189,0.0,null],[123.65649,0.60791,0.0,null],[123.6671,0.61053,0.0,null],[123.67333,0.61295,0.0,null],[123.68423,0.61552,0.0,null],[123.69709,0.61763,0.0,null],[123.70918,0.61811,0.0,null],[123.71317,0.6194,0.0,null],[123.71743,0.62157,0.0,null],[123.72456,0.62298,0.0,null],[123.73305,0.62285,0.0,null],[123.73997,0.6234,0.0,null],[123.69347,0.75667,0.0,null],[123.69061,0.75746,0.0,null],[123.68774,0.75693,0.0,null],[123.6842,0.75497,0.0,null],[123.67541,0.74859,0.0,null],[123.65556,0.73856,0.0,null],[123.64902,0.73687,0.0,null],[123.6426,0.73695,0.0,null],[123.51989,0.65605,0.0,null],[123.51041,0.65105,0.0,null],[123.50442,0.65232,0.0,null],[123.50038,0.65529,0.0,null],[123.49648,0.66192,0.0,null],[123.49492,0.66639,0.0,null],[123.48783,0.67479,0.0,null],[123.48734,0.6764,0.0,null],[123.48757,0.67863,0.0,null],[123.48959,0.68108,0.0,null],[123.49167,0.68251,0.0,null],[123.50923,0.68779,0.0,null],[123.51814,0.69242,0.0,null],[123.52477,0.69317,0.0,null],[123.52722,0.69428,0.0,null],[123.53536,0.70025,0.0,null],[123.54286,0.70728,0.0,null],[123.5478,0.71367,0.0,null],[123.54869,0.71735,0.0,null],[123.54842,0.72528,0.0,null],[123.54575,0.72814,0.0,null],[123.53867,0.72944,0.0,null],[123.52892,0.72774,0.0,null],[123.52118,0.72502,0.0,null],[123.51636,0.72388,0.0,null],[123.51562,0.72414,0.0,null],[123.50546,0.72136,0.0,null],[123.49834,0.72204,0.0,null],[123.4941,0.72467,0.0,null],[123.48274,0.7348,0.0,null],[123.47253,0.74792,0.0,null],[123.46674,0.75267,0.0,null],[123.46251,0.74395,0.0,null],[123.46056,0.73754,0.0,null]]]}},{"type":"Feature","properties":{"inventoryId":"big-forestry-ha:218","sector":"PBPH","subtype":"IUPHHK-HA","quality":"OFFICIAL","sourceDataset":"big-forestry-ha","sourceRecordId":"218","source":"BIG Kebijakan Satu Peta","sourceUrl":"https://kspservices.big.go.id/satupeta/rest/services/PUBLIK/PERIZINAN_DAN_PERTANAHAN/MapServer/1","retrievedAt":"2026-08-28T07:51:21Z","geometryProcessing":"web display simplification tolerance 0.00035 degrees","name":"PT PASURUAN FURNINDO INDS","permitNumber":"SK.34/Kpts-II/2001","permitDate":"2001-02-13","areaHa":47915.0,"provinceCode":"72","region":"sulawesi"},"geometry":{"type":"Polygon","coordinates":[[[120.47686,-1.63378,0.0,null],[120.47383,-1.62849,0.0,null],[120.47319,-1.62027,0.0,null],[120.47073,-1.61925,0.0,null],[120.46533,-1.62274,0.0,null],[120.4633,-1.62243,0.0,null],[120.46226,-1.62123,0.0,null],[120.46083,-1.6178,0.0,null],[120.46233,-1.61389,0.0,null],[120.46796,-1.60728,0.0,null],[120.47026,-1.60171,0.0,null],[120.47282,-1.60075,0.0,null],[120.47762,-1.60036,0.0,null],[120.48077,-1.59782,0.0,null],[120.48109,-1.59495,0.0,null],[120.48007,-1.58991,0.0,null],[120.48029,-1.58595,0.0,null],[120.48141,-1.58469,0.0,null],[120.4829,-1.58069,0.0,null],[120.48331,-1.57572,0.0,null],[120.4823,-1.57344,0.0,null],[120.48119,-1.56735,0.0,null],[120.47988,-1.56538,0.0,null],[120.47826,-1.56421,0.0,null],[120.47514,-1.56337,0.0,null],[120.47359,-1.56179,0.0,null],[120.47385,-1.54186,0.0,null],[120.47474,-1.54052,0.0,null],[120.47566,-1.5402,0.0,null],[120.48751,-1.54133,0.0,null],[120.48908,-1.53972,0.0,null],[120.48872,-1.53842,0.0,null],[120.48502,-1.53548,0.0,null],[120.48273,-1.53247,0.0,null],[120.48019,-1.52771,0.0,null],[120.47752,-1.52434,0.0,null],[120.47305,-1.51983,0.0,null],[120.47308,-1.51425,0.0,null],[120.47489,-1.51317,0.0,null],[120.47533,-1.51009,0.0,null],[120.46452,-1.50154,0.0,null],[120.46134,-1.49511,0.0,null],[120.4607,-1.4883,0.0,null],[120.46309,-1.47666,0.0,null],[120.46436,-1.47447,0.0,null],[120.46708,-1.47177,0.0,null],[120.46961,-1.47077,0.0,null],[120.47508,-1.46978,0.0,null],[120.47406,-1.44482,0.0,null],[120.46703,-1.42081,0.0,null],[120.45724,-1.42227,0.0,null],[120.4516,-1.41897,0.0,null],[120.4421,-1.41648,0.0,null],[120.43251,-1.42063,0.0,null],[120.43039,-1.43886,0.0,null],[120.43109,-1.44901,0.0,null],[120.43491,-1.46165,0.0,null],[120.43644,-1.47602,0.0,null],[120.43811,-1.48393,0.0,null],[120.43987,-1.49718,0.0,null],[120.44296,-1.50887,0.0,null],[120.44386,-1.51639,0.0,null],[120.44307,-1.52036,0.0,null],[120.44235,-1.53481,0.0,null],[120.44141,-1.53791,0.0,null],[120.44119,-1.54682,0.0,null],[120.44328,-1.55523,0.0,null],[120.44846,-1.563,0.0,null],[120.45039,-1.567,0.0,null],[120.45177,-1.57377,0.0,null],[120.45109,-1.57751,0.0,null],[120.44933,-1.58184,0.0,null],[120.4475,-1.58469,0.0,null],[120.44245,-1.58955,0.0,null],[120.4362,-1.59202,0.0,null],[120.42768,-1.59119,0.0,null],[120.42416,-1.59486,0.0,null],[120.42027,-1.60291,0.0,null],[120.41167,-1.6134,0.0,null],[120.40884,-1.61907,0.0,null],[120.40955,-1.61996,0.0,null],[120.4108,-1.62017,0.0,null],[120.41531,-1.61895,0.0,null],[120.41681,-1.61987,0.0,null],[120.41785,-1.6226,0.0,null],[120.41798,-1.62949,0.0,null],[120.42023,-1.63222,0.0,null],[120.42348,-1.63279,0.0,null],[120.43352,-1.62902,0.0,null],[120.43735,-1.63148,0.0,null],[120.43967,-1.63524,0.0,null],[120.44145,-1.64084,0.0,null],[120.44227,-1.64166,0.0,null],[120.44672,-1.64303,0.0,null],[120.45499,-1.64368,0.0,null],[120.47083,-1.64378,0.0,null],[120.49324,-1.64229,0.0,null],[120.51421,-1.64348,0.0,null],[120.5203,-1.6428,0.0,null],[120.53264,-1.63576,0.0,null],[120.53912,-1.62967,0.0,null],[120.54265,-1.62779,0.0,null],[120.54594,-1.62714,0.0,null],[120.55109,-1.62869,0.0,null],[120.55514,-1.6354,0.0,null],[120.5638,-1.64556,0.0,null],[120.56537,-1.64648,0.0,null],[120.56732,-1.64668,0.0,null],[120.56867,-1.64515,0.0,null],[120.56902,-1.64381,0.0,null],[120.56788,-1.63401,0.0,null],[120.56908,-1.62935,0.0,null],[120.57254,-1.62698,0.0,null],[120.5812,-1.62491,0.0,null],[120.58448,-1.62115,0.0,null],[120.58578,-1.61697,0.0,null],[120.58734,-1.61458,0.0,null],[120.59,-1.61326,0.0,null],[120.59254,-1.61382,0.0,null],[120.59409,-1.61956,0.0,null],[120.59332,-1.62536,0.0,null],[120.59153,-1.62793,0.0,null],[120.58317,-1.63403,0.0,null],[120.58223,-1.63544,0.0,null],[120.5809,-1.64127,0.0,null],[120.58364,-1.6554,0.0,null],[120.58385,-1.66031,0.0,null],[120.58308,-1.66495,0.0,null],[120.58071,-1.67139,0.0,null],[120.5802,-1.68383,0.0,null],[120.5783,-1.68784,0.0,null],[120.57695,-1.68934,0.0,null],[120.56609,-1.69612,0.0,null],[120.56004,-1.70059,0.0,null],[120.55591,-1.7063,0.0,null],[120.55226,-1.7143,0.0,null],[120.55074,-1.72444,0.0,null],[120.55059,-1.7268,0.0,null],[120.55141,-1.73122,0.0,null],[120.55378,-1.73586,0.0,null],[120.5652,-1.73094,0.0,null],[120.5704,-1.73032,0.0,null],[120.57568,-1.73033,0.0,null],[120.58109,-1.73283,0.0,null],[120.58312,-1.73332,0.0,null],[120.58516,-1.73293,0.0,null],[120.5925,-1.72664,0.0,null],[120.59856,-1.72581,0.0,null],[120.60143,-1.72439,0.0,null],[120.60468,-1.72084,0.0,null],[120.60822,-1.71434,0.0,null],[120.60931,-1.70807,0.0,null],[120.61037,-1.70515,0.0,null],[120.61513,-1.70041,0.0,null],[120.6172,-1.69186,0.0,null],[120.61722,-1.68182,0.0,null],[120.61942,-1.67105,0.0,null],[120.62229,-1.66112,0.0,null],[120.62209,-1.64479,0.0,null],[120.62896,-1.63127,0.0,null],[120.63195,-1.62177,0.0,null],[120.63348,-1.6193,0.0,null],[120.64017,-1.61343,0.0,null],[120.65675,-1.60316,0.0,null],[120.66437,-1.59922,0.0,null],[120.66824,-1.59811,0.0,null],[120.67108,-1.59738,0.0,null],[120.67406,-1.59905,0.0,null],[120.67451,-1.60716,0.0,null],[120.67707,-1.61163,0.0,null],[120.67892,-1.61202,0.0,null],[120.68969,-1.60572,0.0,null],[120.69164,-1.60361,0.0,null],[120.69808,-1.59316,0.0,null],[120.70543,-1.57275,0.0,null],[120.70344,-1.56551,0.0,null],[120.70087,-1.56127,0.0,null],[120.69603,-1.55633,0.0,null],[120.69467,-1.55315,0.0,null],[120.6946,-1.5512,0.0,null],[120.69575,-1.54986,0.0,null],[120.70371,-1.54857,0.0,null],[120.70919,-1.54677,0.0,null],[120.71069,-1.54471,0.0,null],[120.71183,-1.53959,0.0,null],[120.71022,-1.5365,0.0,null],[120.70667,-1.53413,0.0,null],[120.70143,-1.53176,0.0,null],[120.6966,-1.52586,0.0,null],[120.69601,-1.51724,0.0,null],[120.69675,-1.5133,0.0,null],[120.69763,-1.51132,0.0,null],[120.69933,-1.50941,0.0,null],[120.70912,-1.50244,0.0,null],[120.7136,-1.49528,0.0,null],[120.7147,-1.4927,0.0,null],[120.71483,-1.49041,0.0,null],[120.71416,-1.4866,0.0,null],[120.7045,-1.467,0.0,null],[120.70263,-1.46429,0.0,null],[120.69711,-1.46382,0.0,null],[120.6938,-1.46178,0.0,null],[120.68617,-1.45922,0.0,null],[120.68786,-1.4562,0.0,null],[120.69052,-1.45435,0.0,null],[120.69017,-1.45067,0.0,null],[120.6893,-1.4497,0.0,null],[120.67989,-1.44685,0.0,null],[120.6795,-1.44825,0.0,null],[120.68038,-1.44977,0.0,null],[120.67794,-1.45125,0.0,null],[120.67999,-1.4533,0.0,null],[120.68044,-1.45576,0.0,null],[120.67261,-1.4528,0.0,null],[120.66901,-1.4555,0.0,null],[120.66914,-1.45642,0.0,null],[120.67081,-1.45706,0.0,null],[120.67208,-1.45903,0.0,null],[120.67165,-1.46052,0.0,null],[120.66968,-1.46117,0.0,null],[120.67306,-1.46558,0.0,null],[120.67578,-1.46499,0.0,null],[120.67706,-1.46531,0.0,null],[120.67741,-1.46593,0.0,null],[120.67645,-1.46956,0.0,null],[120.67929,-1.47079,0.0,null],[120.67519,-1.48077,0.0,null],[120.67051,-1.48429,0.0,null],[120.6586,-1.48843,0.0,null],[120.65564,-1.49184,0.0,null],[120.65302,-1.49632,0.0,null],[120.65049,-1.50323,0.0,null],[120.63853,-1.51384,0.0,null],[120.63569,-1.52098,0.0,null],[120.62682,-1.5283,0.0,null],[120.6263,-1.53122,0.0,null],[120.63349,-1.54882,0.0,null],[120.63626,-1.55285,0.0,null],[120.64067,-1.55791,0.0,null],[120.65189,-1.5663,0.0,null],[120.65479,-1.57048,0.0,null],[120.64291,-1.57662,0.0,null],[120.63055,-1.57859,0.0,null],[120.62672,-1.58124,0.0,null],[120.62244,-1.587,0.0,null],[120.61835,-1.59438,0.0,null],[120.61536,-1.59651,0.0,null],[120.60732,-1.59892,0.0,null],[120.6021,-1.59282,0.0,null],[120.60211,-1.59102,0.0,null],[120.59984,-1.58245,0.0,null],[120.59779,-1.57712,0.0,null],[120.59474,-1.57195,0.0,null],[120.59415,-1.56853,0.0,null],[120.59824,-1.55721,0.0,null],[120.60065,-1.55298,0.0,null],[120.60159,-1.55235,0.0,null],[120.60998,-1.553,0.0,null],[120.61434,-1.55621,0.0,null],[120.61987,-1.55216,0.0,null],[120.62299,-1.54742,0.0,null],[120.62315,-1.54417,0.0,null],[120.62222,-1.54274,0.0,null],[120.61551,-1.53964,0.0,null],[120.61356,-1.53642,0.0,null],[120.61338,-1.53565,0.0,null],[120.6151,-1.53002,0.0,null],[120.61678,-1.52761,0.0,null],[120.6136,-1.50999,0.0,null],[120.61173,-1.50899,0.0,null],[120.61039,-1.50933,0.0,null],[120.60739,-1.51148,0.0,null],[120.60399,-1.51746,0.0,null],[120.60004,-1.52043,0.0,null],[120.59358,-1.52213,0.0,null],[120.59272,-1.51848,0.0,null],[120.59505,-1.51536,0.0,null],[120.60038,-1.51125,0.0,null],[120.60028,-1.50534,0.0,null],[120.60075,-1.50303,0.0,null],[120.59996,-1.5018,0.0,null],[120.59978,-1.49988,0.0,null],[120.60562,-1.49293,0.0,null],[120.60679,-1.48994,0.0,null],[120.60921,-1.48926,0.0,null],[120.60993,-1.48751,0.0,null],[120.60853,-1.48439,0.0,null],[120.60811,-1.48172,0.0,null],[120.60586,-1.47695,0.0,null],[120.60156,-1.47416,0.0,null],[120.5976,-1.4739,0.0,null],[120.5957,-1.47095,0.0,null],[120.59003,-1.47122,0.0,null],[120.58846,-1.47175,0.0,null],[120.58578,-1.46941,0.0,null],[120.58618,-1.45851,0.0,null],[120.58944,-1.45409,0.0,null],[120.58992,-1.45253,0.0,null],[120.58913,-1.4446,0.0,null],[120.59364,-1.43636,0.0,null],[120.59315,-1.43403,0.0,null],[120.59069,-1.42858,0.0,null],[120.58941,-1.42274,0.0,null],[120.59022,-1.4209,0.0,null],[120.59662,-1.41895,0.0,null],[120.59613,-1.4173,0.0,null],[120.58792,-1.4042,0.0,null],[120.58785,-1.3967,0.0,null],[120.5894,-1.38903,0.0,null],[120.58433,-1.38533,0.0,null],[120.5849,-1.3805,0.0,null],[120.58133,-1.37549,0.0,null],[120.57674,-1.37254,0.0,null],[120.56795,-1.37368,0.0,null],[120.5565,-1.35004,0.0,null],[120.55663,-1.33887,0.0,null],[120.55554,-1.32751,0.0,null],[120.53835,-1.29819,0.0,null],[120.53442,-1.28873,0.0,null],[120.52335,-1.27416,0.0,null],[120.51984,-1.26302,0.0,null],[120.51555,-1.25583,0.0,null],[120.50949,-1.24863,0.0,null],[120.50247,-1.24146,0.0,null],[120.49518,-1.23486,0.0,null],[120.48801,-1.22966,0.0,null],[120.48051,-1.22607,0.0,null],[120.4643,-1.21952,0.0,null],[120.4624,-1.21981,0.0,null],[120.45979,-1.219,0.0,null],[120.45688,-1.21943,0.0,null],[120.45596,-1.21889,0.0,null],[120.4553,-1.21906,0.0,null],[120.52894,-1.30055,0.0,null],[120.52744,-1.31918,0.0,null],[120.53096,-1.33903,0.0,null],[120.53954,-1.35654,0.0,null],[120.52795,-1.36583,0.0,null],[120.53283,-1.36646,0.0,null],[120.5375,-1.36859,0.0,null],[120.54164,-1.37212,0.0,null],[120.54674,-1.37868,0.0,null],[120.5494,-1.38395,0.0,null],[120.55027,-1.38704,0.0,null],[120.55106,-1.39397,0.0,null],[120.55151,-1.40169,0.0,null],[120.55118,-1.40632,0.0,null],[120.54942,-1.41704,0.0,null],[120.54419,-1.43629,0.0,null],[120.5764,-1.48255,0.0,null],[120.57209,-1.49529,0.0,null],[120.56604,-1.50601,0.0,null],[120.56397,-1.51139,0.0,null],[120.55608,-1.52433,0.0,null],[120.54829,-1.53596,0.0,null],[120.54271,-1.54087,0.0,null],[120.53433,-1.54592,0.0,null],[120.53262,-1.54878,0.0,null],[120.53352,-1.5509,0.0,null],[120.53597,-1.55255,0.0,null],[120.54377,-1.55383,0.0,null],[120.54858,-1.55385,0.0,null],[120.56339,-1.54042,0.0,null],[120.56474,-1.54044,0.0,null],[120.56671,-1.54217,0.0,null],[120.57012,-1.55192,0.0,null],[120.57551,-1.5619,0.0,null],[120.57584,-1.56787,0.0,null],[120.5752,-1.57273,0.0,null],[120.57191,-1.57724,0.0,null],[120.56387,-1.58256,0.0,null],[120.55998,-1.58308,0.0,null],[120.5545,-1.58515,0.0,null],[120.54711,-1.58518,0.0,null],[120.54544,-1.58635,0.0,null],[120.54411,-1.58794,0.0,null],[120.54348,-1.58983,0.0,null],[120.54253,-1.59335,0.0,null],[120.54233,-1.59905,0.0,null],[120.54129,-1.60156,0.0,null],[120.53426,-1.59883,0.0,null],[120.5309,-1.60172,0.0,null],[120.51687,-1.60726,0.0,null],[120.51548,-1.609,0.0,null],[120.51491,-1.61384,0.0,null],[120.51228,-1.61731,0.0,null],[120.50966,-1.62287,0.0,null],[120.50521,-1.62538,0.0,null],[120.50297,-1.62608,0.0,null],[120.49869,-1.62608,0.0,null],[120.49489,-1.62428,0.0,null],[120.49088,-1.61572,0.0,null],[120.48743,-1.6157,0.0,null],[120.48291,-1.61678,0.0,null],[120.48156,-1.61941,0.0,null],[120.48208,-1.62414,0.0,null],[120.48143,-1.62861,0.0,null],[120.4786,-1.6332,0.0,null],[120.47686,-1.63378,0.0,null]]]}},{"type":"Feature","properties":{"inventoryId":"big-forestry-ha:221","sector":"PBPH","subtype":"IUPHHK-HA","quality":"OFFICIAL","sourceDataset":"big-forestry-ha","sourceRecordId":"221","source":"BIG Kebijakan Satu Peta","sourceUrl":"https://kspservices.big.go.id/satupeta/rest/services/PUBLIK/PERIZINAN_DAN_PERTANAHAN/MapServer/1","retrievedAt":"2026-08-28T07:51:21Z","geometryProcessing":"web display simplification tolerance 0.00035 degrees","name":"PT RIU MAMBA KARAYA SENTOSA","permitNumber":"SK.40/Menhut-II/2006","permitDate":"2006-02-23","areaHa":34610.0,"provinceCode":"72","region":"sulawesi"},"geometry":{"type":"MultiPolygon","coordinates":[[[[120.81848,-1.72522,0.0,null],[120.77533,-1.71393,0.0,null],[120.77112,-1.71381,0.0,null],[120.7597,-1.70038,0.0,null],[120.7583,-1.70349,0.0,null],[120.75488,-1.70728,0.0,null],[120.74768,-1.71332,0.0,null],[120.74249,-1.72491,0.0,null],[120.73907,-1.72729,0.0,null],[120.73248,-1.72711,0.0,null],[120.73273,-1.73437,0.0,null],[120.74249,-1.74969,0.0,null],[120.78308,-1.80878,0.0,null],[120.79187,-1.8197,0.0,null],[120.82269,-1.86499,0.0,null],[120.90009,-1.86713,0.0,null],[120.90149,-1.85773,0.0,null],[120.9057,-1.84851,0.0,null],[120.91052,-1.84601,0.0,null],[120.91687,-1.84601,0.0,null],[120.92133,-1.84399,0.0,null],[120.9281,-1.8421,0.0,null],[120.9361,-1.83893,0.0,null],[120.94849,-1.8363,0.0,null],[120.96448,-1.83441,0.0,null],[120.97711,-1.83368,0.0,null],[120.98169,-1.83173,0.0,null],[120.98248,-1.82892,0.0,null],[120.97668,-1.82129,0.0,null],[120.96771,-1.81659,0.0,null],[120.96252,-1.81012,0.0,null],[120.9577,-1.80542,0.0,null],[120.94629,-1.80243,0.0,null],[120.93848,-1.8017,0.0,null],[120.92828,-1.7973,0.0,null],[120.92072,-1.78979,0.0,null],[120.90692,-1.77008,0.0,null],[120.90472,-1.76178,0.0,null],[120.90729,-1.75702,0.0,null],[120.91309,-1.75061,0.0,null],[120.81848,-1.72522,0.0,null]]],[[[120.75708,-1.82539,0.0,null],[120.75352,-1.82207,0.0,null],[120.74194,-1.80244,0.0,null],[120.69632,-1.82122,0.0,null],[120.69611,-1.82206,0.0,null],[120.69759,-1.8275,0.0,null],[120.70259,-1.82808,0.0,null],[120.70468,-1.82932,0.0,null],[120.70594,-1.83246,0.0,null],[120.70639,-1.83959,0.0,null],[120.70333,-1.85304,0.0,null],[120.70361,-1.86435,0.0,null],[120.70511,-1.86874,0.0,null],[120.70805,-1.87248,0.0,null],[120.7169,-1.8814,0.0,null],[120.71844,-1.89018,0.0,null],[120.71814,-1.90212,0.0,null],[120.71882,-1.90651,0.0,null],[120.7214,-1.91317,0.0,null],[120.72609,-1.92211,0.0,null],[120.7314,-1.92916,0.0,null],[120.73436,-1.93205,0.0,null],[120.73834,-1.93305,0.0,null],[120.74653,-1.93629,0.0,null],[120.75697,-1.9514,0.0,null],[120.76116,-1.9526,0.0,null],[120.76513,-1.95234,0.0,null],[120.76908,-1.95103,0.0,null],[120.7766,-1.95051,0.0,null],[120.78302,-1.94604,0.0,null],[120.77956,-1.93753,0.0,null],[120.77824,-1.93212,0.0,null],[120.77775,-1.92649,0.0,null],[120.7783,-1.92001,0.0,null],[120.77615,-1.91503,0.0,null],[120.77544,-1.90877,0.0,null],[120.77113,-1.89586,0.0,null],[120.77251,-1.88852,0.0,null],[120.77706,-1.88302,0.0,null],[120.77556,-1.87927,0.0,null],[120.77596,-1.87717,0.0,null],[120.77761,-1.87421,0.0,null],[120.77821,-1.87044,0.0,null],[120.77966,-1.86874,0.0,null],[120.78593,-1.86991,0.0,null],[120.78611,-1.86509,0.0,null],[120.78565,-1.85859,0.0,null],[120.78437,-1.8542,0.0,null],[120.78226,-1.84983,0.0,null],[120.77595,-1.84068,0.0,null],[120.76776,-1.83218,0.0,null],[120.76273,-1.82804,0.0,null],[120.75708,-1.82539,0.0,null]]]]}},{"type":"Feature","properties":{"inventoryId":"big-forestry-ha:216","sector":"PBPH","subtype":"IUPHHK-HA","quality":"OFFICIAL","sourceDataset":"big-forestry-ha","sourceRecordId":"216","source":"BIG Kebijakan Satu Peta","sourceUrl":"https://kspservices.big.go.id/satupeta/rest/services/PUBLIK/PERIZINAN_DAN_PERTANAHAN/MapServer/1","retrievedAt":"2026-08-28T07:51:21Z","geometryProcessing":"web display simplification tolerance 0.00035 degrees","name":"PT SATYAGUNA SULAJAYA","permitNumber":"SK.333/Menhut-II/2004","permitDate":"2004-08-31","areaHa":27740.0,"provinceCode":"72","region":"sulawesi"},"geometry":{"type":"MultiPolygon","coordinates":[[[[122.80503,-0.80574,0.0,null],[122.79231,-0.80441,0.0,null],[122.78958,-0.80464,0.0,null],[122.78551,-0.80715,0.0,null],[122.76985,-0.81355,0.0,null],[122.76395,-0.81356,0.0,null],[122.75849,-0.81244,0.0,null],[122.751,-0.81246,0.0,null],[122.74669,-0.81542,0.0,null],[122.74284,-0.81997,0.0,null],[122.73832,-0.82838,0.0,null],[122.73492,-0.82975,0.0,null],[122.73038,-0.83067,0.0,null],[122.7197,-0.8307,0.0,null],[122.70438,-0.83221,0.0,null],[122.69757,-0.83472,0.0,null],[122.69214,-0.83996,0.0,null],[122.68488,-0.84452,0.0,null],[122.67874,-0.8418,0.0,null],[122.67443,-0.8425,0.0,null],[122.67034,-0.84182,0.0,null],[122.66715,-0.83661,0.0,null],[122.66464,-0.83366,0.0,null],[122.65874,-0.83095,0.0,null],[122.65488,-0.83255,0.0,null],[122.65329,-0.8346,0.0,null],[122.6517,-0.83551,0.0,null],[122.64352,-0.83394,0.0,null],[122.6374,-0.83441,0.0,null],[122.63354,-0.83623,0.0,null],[122.63059,-0.83624,0.0,null],[122.62763,-0.8342,0.0,null],[122.62626,-0.83103,0.0,null],[122.62875,-0.82852,0.0,null],[122.63512,-0.82874,0.0,null],[122.63557,-0.82715,0.0,null],[122.63351,-0.82284,0.0,null],[122.62782,-0.81808,0.0,null],[122.62509,-0.8165,0.0,null],[122.62078,-0.81628,0.0,null],[122.61828,-0.81674,0.0,null],[122.61556,-0.81856,0.0,null],[122.61534,-0.82356,0.0,null],[122.61717,-0.82742,0.0,null],[122.61922,-0.82945,0.0,null],[122.61968,-0.83218,0.0,null],[122.61674,-0.83741,0.0,null],[122.6147,-0.83968,0.0,null],[122.61403,-0.84355,0.0,null],[122.61472,-0.84672,0.0,null],[122.61677,-0.84854,0.0,null],[122.61745,-0.85035,0.0,null],[122.61678,-0.85557,0.0,null],[122.62248,-0.86419,0.0,null],[122.62271,-0.86691,0.0,null],[122.62113,-0.86987,0.0,null],[122.61614,-0.87329,0.0,null],[122.61229,-0.87511,0.0,null],[122.60706,-0.87581,0.0,null],[122.60548,-0.87695,0.0,null],[122.60311,-0.88569,0.0,null],[122.6004,-0.88979,0.0,null],[122.59677,-0.89252,0.0,null],[122.58951,-0.89481,0.0,null],[122.58724,-0.89618,0.0,null],[122.58498,-0.89845,0.0,null],[122.5775,-0.90369,0.0,null],[122.57684,-0.91346,0.0,null],[122.57821,-0.91595,0.0,null],[122.58116,-0.91867,0.0,null],[122.59252,-0.92092,0.0,null],[122.60115,-0.92112,0.0,null],[122.60501,-0.92066,0.0,null],[122.61611,-0.90996,0.0,null],[122.62292,-0.90586,0.0,null],[122.64289,-0.90241,0.0,null],[122.65561,-0.90192,0.0,null],[122.66786,-0.89985,0.0,null],[122.68919,-0.89299,0.0,null],[122.69464,-0.89048,0.0,null],[122.70029,-0.88274,0.0,null],[122.70324,-0.87729,0.0,null],[122.70574,-0.87887,0.0,null],[122.71301,-0.87794,0.0,null],[122.72004,-0.87611,0.0,null],[122.73125,-0.8628,0.0,null],[122.73283,-0.85735,0.0,null],[122.74166,-0.84779,0.0,null],[122.74893,-0.84936,0.0,null],[122.75211,-0.84913,0.0,null],[122.75687,-0.84571,0.0,null],[122.76005,-0.84525,0.0,null],[122.76232,-0.84842,0.0,null],[122.76324,-0.85205,0.0,null],[122.77436,-0.84998,0.0,null],[122.77754,-0.84998,0.0,null],[122.77982,-0.85065,0.0,null],[122.78435,-0.84723,0.0,null],[122.7873,-0.84655,0.0,null],[122.78934,-0.84359,0.0,null],[122.79365,-0.8429,0.0,null],[122.80135,-0.8372,0.0,null],[122.80727,-0.83832,0.0,null],[122.81021,-0.83832,0.0,null],[122.81361,-0.83604,0.0,null],[122.81509,-0.83706,0.0,null],[122.81464,-0.84001,0.0,null],[122.81125,-0.84411,0.0,null],[122.81012,-0.84479,0.0,null],[122.8058,-0.8448,0.0,null],[122.80354,-0.84617,0.0,null],[122.8015,-0.84912,0.0,null],[122.79448,-0.85663,0.0,null],[122.79426,-0.86069,0.0,null],[122.80492,-0.85786,0.0,null],[122.81173,-0.85444,0.0,null],[122.81626,-0.85045,0.0,null],[122.82193,-0.84675,0.0,null],[122.8242,-0.84447,0.0,null],[122.83808,-0.83592,0.0,null],[122.84403,-0.83137,0.0,null],[122.8446,-0.82927,0.0,null],[122.84209,-0.82382,0.0,null],[122.83731,-0.82066,0.0,null],[122.83866,-0.81702,0.0,null],[122.84025,-0.81565,0.0,null],[122.84388,-0.81428,0.0,null],[122.84456,-0.81314,0.0,null],[122.84161,-0.81247,0.0,null],[122.83775,-0.81475,0.0,null],[122.83389,-0.81249,0.0,null],[122.82843,-0.81114,0.0,null],[122.82162,-0.81184,0.0,null],[122.82206,-0.80616,0.0,null],[122.81684,-0.8064,0.0,null],[122.80503,-0.80574,0.0,null]]],[[[122.89995,-0.6722,0.0,null],[122.898,-0.67123,0.0,null],[122.85282,-0.66671,0.0,null],[122.85168,-0.66817,0.0,null],[122.85137,-0.67223,0.0,null],[122.85023,-0.67142,0.0,null],[122.84747,-0.67094,0.0,null],[122.84521,-0.67354,0.0,null],[122.84521,-0.67565,0.0,null],[122.84328,-0.67809,0.0,null],[122.84264,-0.68117,0.0,null],[122.84085,-0.68215,0.0,null],[122.83614,-0.67972,0.0,null],[122.83338,-0.67892,0.0,null],[122.83273,-0.67714,0.0,null],[122.83029,-0.67471,0.0,null],[122.8277,-0.67439,0.0,null],[122.80857,-0.6793,0.0,null],[122.80063,-0.68257,0.0,null],[122.79657,-0.68209,0.0,null],[122.79478,-0.68031,0.0,null],[122.79477,-0.67463,0.0,null],[122.79006,-0.67318,0.0,null],[122.78536,-0.67465,0.0,null],[122.78326,-0.67644,0.0,null],[122.77923,-0.68829,0.0,null],[122.77988,-0.6904,0.0,null],[122.782,-0.69348,0.0,null],[122.78622,-0.69639,0.0,null],[122.78672,-0.69914,0.0,null],[122.7877,-0.70076,0.0,null],[122.79743,-0.70447,0.0,null],[122.80035,-0.70463,0.0,null],[122.80222,-0.70405,0.0,null],[122.80578,-0.69934,0.0,null],[122.81032,-0.70063,0.0,null],[122.81826,-0.69737,0.0,null],[122.82166,-0.69736,0.0,null],[122.82751,-0.70059,0.0,null],[122.83255,-0.70447,0.0,null],[122.83563,-0.7056,0.0,null],[122.83807,-0.70575,0.0,null],[122.84325,-0.70331,0.0,null],[122.84472,-0.70476,0.0,null],[122.85495,-0.70944,0.0,null],[122.85851,-0.7096,0.0,null],[122.86678,-0.70585,0.0,null],[122.87392,-0.71005,0.0,null],[122.88188,-0.71376,0.0,null],[122.88976,-0.71609,0.0,null],[122.8961,-0.72435,0.0,null],[122.89757,-0.72889,0.0,null],[122.89952,-0.73002,0.0,null],[122.90552,-0.73001,0.0,null],[122.91103,-0.73097,0.0,null],[122.91348,-0.73226,0.0,null],[122.91607,-0.73225,0.0,null],[122.91801,-0.73176,0.0,null],[122.92578,-0.72558,0.0,null],[122.92757,-0.72476,0.0,null],[122.93259,-0.72281,0.0,null],[122.93681,-0.7228,0.0,null],[122.94102,-0.72376,0.0,null],[122.9446,-0.72683,0.0,null],[122.94833,-0.72715,0.0,null],[122.95028,-0.72617,0.0,null],[122.95272,-0.7286,0.0,null],[122.95743,-0.73118,0.0,null],[122.96214,-0.73701,0.0,null],[122.96328,-0.73701,0.0,null],[122.9662,-0.73846,0.0,null],[122.96815,-0.737,0.0,null],[122.96846,-0.73343,0.0,null],[122.96975,-0.72937,0.0,null],[122.97169,-0.7258,0.0,null],[122.97427,-0.72255,0.0,null],[122.978,-0.71978,0.0,null],[122.98335,-0.71766,0.0,null],[122.98724,-0.71684,0.0,null],[122.99421,-0.71617,0.0,null],[122.99908,-0.71632,0.0,null],[123.00101,-0.66851,0.0,null],[122.99232,-0.67044,0.0,null],[122.98697,-0.67094,0.0,null],[122.97449,-0.67421,0.0,null],[122.96573,-0.67553,0.0,null],[122.96281,-0.67716,0.0,null],[122.95844,-0.68074,0.0,null],[122.94777,-0.69309,0.0,null],[122.94186,-0.69675,0.0,null],[122.93651,-0.69855,0.0,null],[122.93099,-0.69921,0.0,null],[122.92596,-0.69857,0.0,null],[122.9193,-0.69567,0.0,null],[122.91427,-0.69114,0.0,null],[122.91183,-0.6879,0.0,null],[122.90336,-0.67267,0.0,null],[122.89995,-0.6722,0.0,null]]],[[[122.95785,-0.76369,0.0,null],[122.95429,-0.76421,0.0,null],[122.95125,-0.76557,0.0,null],[122.94787,-0.76558,0.0,null],[122.94313,-0.76694,0.0,null],[122.93925,-0.7722,0.0,null],[122.93536,-0.77542,0.0,null],[122.93317,-0.77543,0.0,null],[122.9225,-0.77325,0.0,null],[122.91912,-0.77546,0.0,null],[122.91608,-0.77615,0.0,null],[122.91184,-0.77531,0.0,null],[122.90762,-0.77667,0.0,null],[122.90474,-0.77634,0.0,null],[122.90068,-0.77771,0.0,null],[122.8934,-0.77721,0.0,null],[122.88493,-0.77571,0.0,null],[122.87715,-0.77725,0.0,null],[122.87022,-0.77676,0.0,null],[122.86649,-0.77795,0.0,null],[122.86311,-0.78033,0.0,null],[122.86177,-0.78457,0.0,null],[122.86296,-0.78659,0.0,null],[122.8655,-0.78828,0.0,null],[122.86872,-0.78878,0.0,null],[122.87514,-0.78741,0.0,null],[122.88345,-0.78976,0.0,null],[122.90257,-0.78769,0.0,null],[122.92321,-0.78933,0.0,null],[122.92694,-0.79152,0.0,null],[122.92966,-0.79591,0.0,null],[122.93069,-0.80285,0.0,null],[122.93205,-0.80488,0.0,null],[122.94101,-0.80198,0.0,null],[122.9505,-0.80568,0.0,null],[122.95541,-0.80652,0.0,null],[122.95811,-0.80617,0.0,null],[122.96099,-0.80755,0.0,null],[122.96677,-0.79288,0.0,null],[122.97051,-0.78155,0.0,null],[122.97678,-0.76628,0.0,null],[122.96885,-0.76401,0.0,null],[122.95785,-0.76369,0.0,null]]]]}},{"type":"Feature","properties":{"inventoryId":"big-forestry-ha:215","sector":"PBPH","subtype":"IUPHHK-HA","quality":"OFFICIAL","sourceDataset":"big-forestry-ha","sourceRecordId":"215","source":"BIG Kebijakan Satu Peta","sourceUrl":"https://kspservices.big.go.id/satupeta/rest/services/PUBLIK/PERIZINAN_DAN_PERTANAHAN/MapServer/1","retrievedAt":"2026-08-28T07:51:21Z","geometryProcessing":"web display simplification tolerance 0.00035 degrees","name":"PT SENTRAL PITULEMPA","permitNumber":"SK.558/Menhut-II/2006","permitDate":"2006-12-29","areaHa":40540.0,"provinceCode":"72","region":"sulawesi"},"geometry":{"type":"MultiPolygon","coordinates":[[[[121.01541,0.93719,0.0,null],[121.00741,0.93895,0.0,null],[120.99867,0.9369,0.0,null],[120.99472,0.93683,0.0,null],[120.99842,0.885,0.0,null],[120.99397,0.88217,0.0,null],[120.99613,0.87587,0.0,null],[120.99564,0.87403,0.0,null],[120.98867,0.87234,0.0,null],[120.97987,0.8724,0.0,null],[120.97173,0.87381,0.0,null],[120.96684,0.87573,0.0,null],[120.95321,0.87164,0.0,null],[120.94537,0.87066,0.0,null],[120.94363,0.87125,0.0,null],[120.94038,0.87405,0.0,null],[120.93892,0.87245,0.0,null],[120.93822,0.87073,0.0,null],[120.93776,0.86777,0.0,null],[120.93837,0.86472,0.0,null],[120.94432,0.85743,0.0,null],[120.94469,0.85586,0.0,null],[120.94409,0.85073,0.0,null],[120.94122,0.84637,0.0,null],[120.9397,0.84672,0.0,null],[120.93846,0.84826,0.0,null],[120.93657,0.85284,0.0,null],[120.93406,0.85444,0.0,null],[120.92751,0.84833,0.0,null],[120.92213,0.84584,0.0,null],[120.91087,0.84713,0.0,null],[120.90574,0.84862,0.0,null],[120.87638,0.84738,0.0,null],[120.87268,0.84919,0.0,null],[120.86819,0.84961,0.0,null],[120.86032,0.85703,0.0,null],[120.85865,0.86216,0.0,null],[120.85645,0.86091,0.0,null],[120.85398,0.86091,0.0,null],[120.85177,0.86158,0.0,null],[120.85157,0.86232,0.0,null],[120.8523,0.86305,0.0,null],[120.85197,0.86352,0.0,null],[120.85043,0.86312,0.0,null],[120.84721,0.86359,0.0,null],[120.84735,0.86473,0.0,null],[120.84956,0.86473,0.0,null],[120.84943,0.86566,0.0,null],[120.84675,0.86566,0.0,null],[120.84668,0.8674,0.0,null],[120.84544,0.86788,0.0,null],[120.84354,0.86587,0.0,null],[120.84056,0.86429,0.0,null],[120.83904,0.86124,0.0,null],[120.83843,0.859,0.0,null],[120.83976,0.85328,0.0,null],[120.83864,0.84826,0.0,null],[120.83761,0.84611,0.0,null],[120.83514,0.84372,0.0,null],[120.82897,0.84395,0.0,null],[120.82254,0.84007,0.0,null],[120.81958,0.83188,0.0,null],[120.81855,0.83118,0.0,null],[120.81708,0.83041,0.0,null],[120.81295,0.82982,0.0,null],[120.79867,0.83358,0.0,null],[120.79543,0.83382,0.0,null],[120.79326,0.83326,0.0,null],[120.79104,0.83086,0.0,null],[120.79042,0.82822,0.0,null],[120.78671,0.82313,0.0,null],[120.7847,0.81874,0.0,null],[120.78496,0.81747,0.0,null],[120.78789,0.81467,0.0,null],[120.79819,0.81135,0.0,null],[120.80015,0.80833,0.0,null],[120.79907,0.80388,0.0,null],[120.79749,0.80022,0.0,null],[120.79672,0.79568,0.0,null],[120.79842,0.7865,0.0,null],[120.79575,0.78016,0.0,null],[120.81123,0.78588,0.0,null],[120.81281,0.78812,0.0,null],[120.81625,0.78944,0.0,null],[120.81838,0.79207,0.0,null],[120.82266,0.79506,0.0,null],[120.82349,0.79674,0.0,null],[120.82528,0.79757,0.0,null],[120.83163,0.80263,0.0,null],[120.84236,0.80593,0.0,null],[120.85763,0.8199,0.0,null],[120.83007,0.81583,0.0,null],[120.8548,0.84081,0.0,null],[120.88256,0.8399,0.0,null],[120.91442,0.83721,0.0,null],[120.91324,0.82769,0.0,null],[120.89518,0.82236,0.0,null],[120.90106,0.82036,0.0,null],[120.92007,0.81792,0.0,null],[120.92601,0.81449,0.0,null],[120.93467,0.79707,0.0,null],[120.93861,0.77591,0.0,null],[120.95332,0.7905,0.0,null],[120.9659,0.80169,0.0,null],[120.96863,0.80511,0.0,null],[120.97703,0.81178,0.0,null],[120.9836,0.81994,0.0,null],[120.99754,0.8354,0.0,null],[121.02943,0.83344,0.0,null],[121.03049,0.84469,0.0,null],[121.05074,0.85476,0.0,null],[121.05646,0.8633,0.0,null],[121.05618,0.87187,0.0,null],[121.0593,0.88333,0.0,null],[121.05529,0.88166,0.0,null],[121.04955,0.88162,0.0,null],[121.04137,0.88442,0.0,null],[121.03392,0.88957,0.0,null],[121.03089,0.89741,0.0,null],[121.03005,0.9046,0.0,null],[121.03039,0.91696,0.0,null],[121.03486,0.9338,0.0,null],[121.03411,0.93713,0.0,null],[121.02775,0.93639,0.0,null],[121.02274,0.93681,0.0,null],[121.01963,0.93645,0.0,null],[121.01541,0.93719,0.0,null]]],[[[120.38973,0.79791,0.0,null],[120.38828,0.79984,0.0,null],[120.38729,0.80016,0.0,null],[120.38045,0.79688,0.0,null],[120.3774,0.79666,0.0,null],[120.37496,0.79771,0.0,null],[120.36923,0.79766,0.0,null],[120.3663,0.79708,0.0,null],[120.35764,0.79416,0.0,null],[120.34969,0.78855,0.0,null],[120.34761,0.78682,0.0,null],[120.3448,0.78268,0.0,null],[120.34177,0.77443,0.0,null],[120.34337,0.76807,0.0,null],[120.34479,0.76492,0.0,null],[120.34605,0.76347,0.0,null],[120.33979,0.76304,0.0,null],[120.33112,0.75102,0.0,null],[120.31324,0.74848,0.0,null],[120.30153,0.75001,0.0,null],[120.29987,0.73659,0.0,null],[120.29378,0.72492,0.0,null],[120.29333,0.70893,0.0,null],[120.26097,0.70074,0.0,null],[120.23601,0.69082,0.0,null],[120.18991,0.67403,0.0,null],[120.17311,0.66581,0.0,null],[120.17675,0.66346,0.0,null],[120.19116,0.65703,0.0,null],[120.19864,0.6514,0.0,null],[120.20487,0.64907,0.0,null],[120.21405,0.64784,0.0,null],[120.22989,0.64941,0.0,null],[120.23412,0.64903,0.0,null],[120.24752,0.64297,0.0,null],[120.25996,0.63619,0.0,null],[120.26946,0.63029,0.0,null],[120.27487,0.62914,0.0,null],[120.27922,0.63004,0.0,null],[120.28349,0.63,0.0,null],[120.29173,0.62853,0.0,null],[120.29689,0.62864,0.0,null],[120.30553,0.63163,0.0,null],[120.31307,0.6371,0.0,null],[120.31571,0.64006,0.0,null],[120.31981,0.64723,0.0,null],[120.32108,0.65219,0.0,null],[120.32181,0.66672,0.0,null],[120.31982,0.67413,0.0,null],[120.31779,0.67726,0.0,null],[120.30497,0.68987,0.0,null],[120.30376,0.69185,0.0,null],[120.30293,0.69836,0.0,null],[120.3042,0.70127,0.0,null],[120.31023,0.70707,0.0,null],[120.32387,0.71357,0.0,null],[120.32803,0.71674,0.0,null],[120.33604,0.72473,0.0,null],[120.34258,0.72864,0.0,null],[120.34413,0.73044,0.0,null],[120.34937,0.74043,0.0,null],[120.3501,0.7439,0.0,null],[120.35036,0.74965,0.0,null],[120.3528,0.75941,0.0,null],[120.35732,0.77104,0.0,null],[120.36015,0.77306,0.0,null],[120.37082,0.77463,0.0,null],[120.3883,0.77009,0.0,null],[120.39069,0.78359,0.0,null],[120.40194,0.77707,0.0,null],[120.40393,0.77952,0.0,null],[120.40432,0.78461,0.0,null],[120.4034,0.78892,0.0,null],[120.39933,0.79013,0.0,null],[120.39464,0.79285,0.0,null],[120.39127,0.79546,0.0,null],[120.38973,0.79791,0.0,null]]],[[[120.75258,0.82458,0.0,null],[120.75263,0.82626,0.0,null],[120.75078,0.82544,0.0,null],[120.75107,0.82423,0.0,null],[120.7491,0.82406,0.0,null],[120.74928,0.82301,0.0,null],[120.74754,0.82099,0.0,null],[120.74957,0.81937,0.0,null],[120.74957,0.81827,0.0,null],[120.74824,0.81722,0.0,null],[120.746,0.8176,0.0,null],[120.74496,0.81627,0.0,null],[120.74358,0.81714,0.0,null],[120.74247,0.81569,0.0,null],[120.74103,0.81615,0.0,null],[120.74079,0.81436,0.0,null],[120.73987,0.81447,0.0,null],[120.73935,0.81569,0.0,null],[120.73732,0.81245,0.0,null],[120.73576,0.8132,0.0,null],[120.73466,0.81303,0.0,null],[120.73385,0.81175,0.0,null],[120.73257,0.81175,0.0,null],[120.73251,0.81048,0.0,null],[120.73141,0.81049,0.0,null],[120.73089,0.80941,0.0,null],[120.73047,0.80687,0.0,null],[120.73067,0.79842,0.0,null],[120.73266,0.79419,0.0,null],[120.73484,0.78355,0.0,null],[120.73257,0.77999,0.0,null],[120.73135,0.77953,0.0,null],[120.72517,0.78507,0.0,null],[120.71916,0.78863,0.0,null],[120.7149,0.7903,0.0,null],[120.7119,0.79079,0.0,null],[120.70985,0.79035,0.0,null],[120.70621,0.78689,0.0,null],[120.70537,0.7851,0.0,null],[120.70619,0.77853,0.0,null],[120.70559,0.77748,0.0,null],[120.70394,0.77757,0.0,null],[120.7006,0.78148,0.0,null],[120.69867,0.78155,0.0,null],[120.69636,0.78061,0.0,null],[120.69563,0.77883,0.0,null],[120.69644,0.77427,0.0,null],[120.69637,0.77143,0.0,null],[120.69566,0.77132,0.0,null],[120.69434,0.77246,0.0,null],[120.69363,0.77596,0.0,null],[120.69176,0.77812,0.0,null],[120.6839,0.77996,0.0,null],[120.68185,0.77967,0.0,null],[120.68089,0.77846,0.0,null],[120.68064,0.77766,0.0,null],[120.68293,0.77148,0.0,null],[120.68262,0.76967,0.0,null],[120.67972,0.76508,0.0,null],[120.68079,0.76094,0.0,null],[120.68427,0.75823,0.0,null],[120.69353,0.75501,0.0,null],[120.69497,0.75372,0.0,null],[120.69556,0.74979,0.0,null],[120.69763,0.74581,0.0,null],[120.70591,0.73877,0.0,null],[120.70908,0.73369,0.0,null],[120.71436,0.72364,0.0,null],[120.71583,0.71851,0.0,null],[120.71299,0.71859,0.0,null],[120.70921,0.72219,0.0,null],[120.70773,0.72286,0.0,null],[120.70602,0.72228,0.0,null],[120.70177,0.71714,0.0,null],[120.69823,0.71113,0.0,null],[120.69356,0.7006,0.0,null],[120.6897,0.69696,0.0,null],[120.68616,0.69687,0.0,null],[120.68353,0.6977,0.0,null],[120.68217,0.70018,0.0,null],[120.68207,0.70436,0.0,null],[120.68562,0.7188,0.0,null],[120.68529,0.72386,0.0,null],[120.68344,0.72672,0.0,null],[120.6825,0.72802,0.0,null],[120.67932,0.72997,0.0,null],[120.67385,0.73106,0.0,null],[120.66849,0.73073,0.0,null],[120.66502,0.72774,0.0,null],[120.66334,0.72377,0.0,null],[120.66347,0.72176,0.0,null],[120.66938,0.71672,0.0,null],[120.67107,0.71407,0.0,null],[120.67213,0.71051,0.0,null],[120.67212,0.70536,0.0,null],[120.67072,0.69779,0.0,null],[120.66991,0.69575,0.0,null],[120.6689,0.69481,0.0,null],[120.66492,0.69548,0.0,null],[120.66043,0.69734,0.0,null],[120.65843,0.69762,0.0,null],[120.65721,0.69758,0.0,null],[120.65459,0.69562,0.0,null],[120.67499,0.67933,0.0,null],[120.67165,0.67297,0.0,null],[120.665,0.65126,0.0,null],[120.66366,0.6462,0.0,null],[120.66269,0.63586,0.0,null],[120.66086,0.63082,0.0,null],[120.65981,0.62289,0.0,null],[120.66243,0.62359,0.0,null],[120.67307,0.63151,0.0,null],[120.69825,0.64875,0.0,null],[120.70914,0.65813,0.0,null],[120.71883,0.66849,0.0,null],[120.73103,0.68686,0.0,null],[120.73767,0.70548,0.0,null],[120.75014,0.73343,0.0,null],[120.75613,0.74162,0.0,null],[120.76909,0.7571,0.0,null],[120.78355,0.77111,0.0,null],[120.78156,0.77198,0.0,null],[120.77993,0.77173,0.0,null],[120.77676,0.76964,0.0,null],[120.76916,0.76288,0.0,null],[120.7669,0.75984,0.0,null],[120.76301,0.75612,0.0,null],[120.76047,0.75441,0.0,null],[120.75816,0.75337,0.0,null],[120.75663,0.7537,0.0,null],[120.75414,0.75635,0.0,null],[120.75577,0.76417,0.0,null],[120.75765,0.76855,0.0,null],[120.76391,0.77984,0.0,null],[120.76922,0.79418,0.0,null],[120.76768,0.80163,0.0,null],[120.76458,0.80746,0.0,null],[120.75959,0.81577,0.0,null],[120.7552,0.82058,0.0,null],[120.75354,0.82475,0.0,null],[120.75304,0.82417,0.0,null],[120.75258,0.82458,0.0,null]]]]}},{"type":"Feature","properties":{"inventoryId":"big-forestry-ha:222","sector":"PBPH","subtype":"IUPHHK-HA","quality":"OFFICIAL","sourceDataset":"big-forestry-ha","sourceRecordId":"222","source":"BIG Kebijakan Satu Peta","sourceUrl":"https://kspservices.big.go.id/satupeta/rest/services/PUBLIK/PERIZINAN_DAN_PERTANAHAN/MapServer/1","retrievedAt":"2026-08-28T07:51:21Z","geometryProcessing":"web display simplification tolerance 0.00035 degrees","name":"PT TAMAN HUTAN ASRI","permitNumber":"SK.360/Menhut-II/2013","permitDate":"2013-05-20","areaHa":40380.0,"provinceCode":"72","region":"sulawesi"},"geometry":{"type":"MultiPolygon","coordinates":[[[[120.0649,0.41972,0.0,null],[120.0483,0.41908,0.0,null],[120.04557,0.41742,0.0,null],[120.04451,0.41018,0.0,null],[120.04255,0.40397,0.0,null],[120.03748,0.39835,0.0,null],[120.01985,0.38787,0.0,null],[120.0187,0.38625,0.0,null],[120.00171,0.37101,0.0,null],[119.99384,0.3659,0.0,null],[119.97642,0.34891,0.0,null],[119.9748,0.3464,0.0,null],[119.97497,0.34163,0.0,null],[119.97442,0.33967,0.0,null],[119.97016,0.33298,0.0,null],[119.96935,0.32766,0.0,null],[119.96807,0.31386,0.0,null],[119.96795,0.29913,0.0,null],[119.96671,0.293,0.0,null],[119.96641,0.27354,0.0,null],[119.96365,0.26451,0.0,null],[119.96744,0.2583,0.0,null],[119.96927,0.24948,0.0,null],[119.97076,0.21861,0.0,null],[119.96705,0.20848,0.0,null],[119.9602,0.19681,0.0,null],[119.95726,0.18804,0.0,null],[119.95568,0.17462,0.0,null],[119.95734,0.16572,0.0,null],[119.95743,0.1613,0.0,null],[119.95564,0.15231,0.0,null],[119.95832,0.14993,0.0,null],[119.96565,0.14643,0.0,null],[119.97391,0.13813,0.0,null],[119.97561,0.13711,0.0,null],[119.97842,0.13651,0.0,null],[119.9823,0.13851,0.0,null],[119.98319,0.14009,0.0,null],[119.98553,0.14179,0.0,null],[119.99137,0.14167,0.0,null],[119.99439,0.14307,0.0,null],[119.99631,0.14652,0.0,null],[119.99976,0.14925,0.0,null],[120.00708,0.14916,0.0,null],[120.00925,0.14818,0.0,null],[120.01423,0.14052,0.0,null],[120.01589,0.13881,0.0,null],[120.01934,0.13294,0.0,null],[120.02168,0.13089,0.0,null],[120.02432,0.12957,0.0,null],[120.02909,0.12795,0.0,null],[120.03322,0.12727,0.0,null],[120.03629,0.12446,0.0,null],[120.03676,0.12114,0.0,null],[120.03391,0.11395,0.0,null],[120.03586,0.11429,0.0,null],[120.03795,0.11825,0.0,null],[120.04238,0.12374,0.0,null],[120.05456,0.13626,0.0,null],[120.05733,0.14047,0.0,null],[120.05962,0.14571,0.0,null],[120.0629,0.16304,0.0,null],[120.06388,0.17539,0.0,null],[120.06533,0.18501,0.0,null],[120.06767,0.19251,0.0,null],[120.06827,0.20022,0.0,null],[120.06921,0.20188,0.0,null],[120.07176,0.21661,0.0,null],[120.07308,0.21997,0.0,null],[120.07581,0.22334,0.0,null],[120.07955,0.22572,0.0,null],[120.09441,0.22747,0.0,null],[120.09007,0.23773,0.0,null],[120.08266,0.24722,0.0,null],[120.08019,0.25574,0.0,null],[120.07853,0.25864,0.0,null],[120.07512,0.25808,0.0,null],[120.07261,0.25893,0.0,null],[120.06963,0.25859,0.0,null],[120.06554,0.26255,0.0,null],[120.06546,0.26524,0.0,null],[120.06354,0.26715,0.0,null],[120.0632,0.26971,0.0,null],[120.06456,0.27512,0.0,null],[120.06431,0.27648,0.0,null],[120.06525,0.27895,0.0,null],[120.0681,0.28193,0.0,null],[120.06959,0.28644,0.0,null],[120.06827,0.29168,0.0,null],[120.06588,0.29321,0.0,null],[120.06516,0.2973,0.0,null],[120.0641,0.29807,0.0,null],[120.06222,0.30169,0.0,null],[120.05933,0.30347,0.0,null],[120.05503,0.3082,0.0,null],[120.05251,0.31284,0.0,null],[120.05115,0.31702,0.0,null],[120.05162,0.3234,0.0,null],[120.05537,0.33022,0.0,null],[120.05417,0.3366,0.0,null],[120.05583,0.34124,0.0,null],[120.05733,0.34853,0.0,null],[120.05835,0.35065,0.0,null],[120.05784,0.35304,0.0,null],[120.05596,0.35436,0.0,null],[120.05588,0.355,0.0,null],[120.05724,0.35849,0.0,null],[120.05715,0.36236,0.0,null],[120.05583,0.36556,0.0,null],[120.05554,0.36794,0.0,null],[120.05707,0.3719,0.0,null],[120.05681,0.37859,0.0,null],[120.05796,0.38178,0.0,null],[120.06235,0.38706,0.0,null],[120.06295,0.39077,0.0,null],[120.06703,0.39422,0.0,null],[120.06882,0.39766,0.0,null],[120.07223,0.40082,0.0,null],[120.07376,0.40329,0.0,null],[120.07457,0.40682,0.0,null],[120.07453,0.40835,0.0,null],[120.07014,0.41674,0.0,null],[120.06874,0.41832,0.0,null],[120.0649,0.41972,0.0,null]]],[[[120.06672,0.08469,0.0,null],[120.06537,0.08491,0.0,null],[120.06306,0.08408,0.0,null],[120.06067,0.08395,0.0,null],[120.06001,0.08325,0.0,null],[120.0591,0.07929,0.0,null],[120.05736,0.07768,0.0,null],[120.05766,0.07363,0.0,null],[120.05439,0.07328,0.0,null],[120.053,0.07136,0.0,null],[120.05409,0.06844,0.0,null],[120.05391,0.06552,0.0,null],[120.05635,0.06016,0.0,null],[120.05648,0.05868,0.0,null],[120.05583,0.05768,0.0,null],[120.05317,0.05555,0.0,null],[120.04921,0.05433,0.0,null],[120.0466,0.05154,0.0,null],[120.04411,0.05211,0.0,null],[120.04307,0.05154,0.0,null],[120.04202,0.04971,0.0,null],[120.04128,0.04557,0.0,null],[120.03923,0.04261,0.0,null],[120.0378,0.03886,0.0,null],[120.0354,0.03625,0.0,null],[120.03222,0.03394,0.0,null],[120.03113,0.03102,0.0,null],[120.02956,0.03076,0.0,null],[120.02834,0.02849,0.0,null],[120.02664,0.02815,0.0,null],[120.02691,0.02601,0.0,null],[120.02569,0.02566,0.0,null],[120.0246,0.02649,0.0,null],[120.02377,0.02889,0.0,null],[120.02198,0.03085,0.0,null],[120.01815,0.03093,0.0,null],[120.01732,0.02998,0.0,null],[120.01327,0.03059,0.0,null],[120.01223,0.03015,0.0,null],[120.01148,0.02945,0.0,null],[120.01118,0.02601,0.0,null],[120.0104,0.02553,0.0,null],[120.00451,0.02836,0.0,null],[120.00003,0.02736,0.0,null],[119.99772,0.02579,0.0,null],[119.99489,0.02545,0.0,null],[119.9938,0.02414,0.0,null],[119.99271,0.02392,0.0,null],[119.99227,0.02484,0.0,null],[119.99036,0.02571,0.0,null],[119.9897,0.02518,0.0,null],[119.99062,0.02405,0.0,null],[119.99023,0.02274,0.0,null],[119.98844,0.0227,0.0,null],[119.98805,0.02192,0.0,null],[119.9857,0.0217,0.0,null],[119.98543,0.02096,0.0,null],[119.98225,0.02035,0.0,null],[119.98051,0.01743,0.0,null],[119.97698,0.01416,0.0,null],[119.97494,0.01482,0.0,null],[119.97219,0.01425,0.0,null],[119.97062,0.01556,0.0,null],[119.96984,0.02074,0.0,null],[119.9691,0.02244,0.0,null],[119.96666,0.02152,0.0,null],[119.96527,0.022,0.0,null],[119.96396,0.02453,0.0,null],[119.96204,0.02453,0.0,null],[119.95973,0.0278,0.0,null],[119.95764,0.0278,0.0,null],[119.95712,0.02836,0.0,null],[119.95394,0.02815,0.0,null],[119.95333,0.02841,0.0,null],[119.95285,0.03015,0.0,null],[119.9471,0.03059,0.0,null],[119.94314,0.03407,0.0,null],[119.94026,0.03377,0.0,null],[119.93739,0.03655,0.0,null],[119.9359,0.03721,0.0,null],[119.93425,0.04156,0.0,null],[119.93211,0.04418,0.0,null],[119.93157,0.0471,0.0,null],[119.92988,0.04842,0.0,null],[119.93006,0.05209,0.0,null],[119.92903,0.05322,0.0,null],[119.91961,0.05285,0.0,null],[119.92279,0.04666,0.0,null],[119.92013,0.03686,0.0,null],[119.91565,0.0122,0.0,null],[119.91613,-0.00078,0.0,null],[119.9146,-0.01746,0.0,null],[119.92118,-0.01834,0.0,null],[119.93085,-0.02212,0.0,null],[119.93608,-0.02212,0.0,null],[119.94109,-0.02025,0.0,null],[119.94675,-0.01995,0.0,null],[119.95263,-0.0226,0.0,null],[119.95481,-0.02273,0.0,null],[119.99245,-0.02056,0.0,null],[120.01933,-0.02034,0.0,null],[120.02233,-0.01847,0.0,null],[120.02264,-0.01633,0.0,null],[120.02373,-0.01542,0.0,null],[120.02747,-0.01585,0.0,null],[120.02647,-0.01459,0.0,null],[120.02673,-0.01385,0.0,null],[120.03057,-0.01184,0.0,null],[120.03305,-0.0118,0.0,null],[120.03361,-0.0074,0.0,null],[120.03618,-0.00418,0.0,null],[120.03823,-0.00265,0.0,null],[120.04307,-0.00217,0.0,null],[120.04912,-0.00034,0.0,null],[120.05213,0.00109,0.0,null],[120.05527,0.00462,0.0,null],[120.05592,0.00824,0.0,null],[120.05596,0.01377,0.0,null],[120.05744,0.01795,0.0,null],[120.05849,0.01952,0.0,null],[120.06102,0.02118,0.0,null],[120.06202,0.02379,0.0,null],[120.06189,0.02514,0.0,null],[120.06402,0.02575,0.0,null],[120.06424,0.02719,0.0,null],[120.07069,0.03969,0.0,null],[120.07256,0.04527,0.0,null],[120.07796,0.05289,0.0,null],[120.07909,0.05533,0.0,null],[120.07936,0.05964,0.0,null],[120.07844,0.06243,0.0,null],[120.07448,0.06487,0.0,null],[120.07618,0.06827,0.0,null],[120.07613,0.07336,0.0,null],[120.06833,0.08391,0.0,null],[120.06672,0.08469,0.0,null]]]]}},{"type":"Feature","properties":{"inventoryId":"big-forestry-ha:220","sector":"PBPH","subtype":"IUPHHK-HA","quality":"OFFICIAL","sourceDataset":"big-forestry-ha","sourceRecordId":"220","source":"BIG Kebijakan Satu Peta","sourceUrl":"https://kspservices.big.go.id/satupeta/rest/services/PUBLIK/PERIZINAN_DAN_PERTANAHAN/MapServer/1","retrievedAt":"2026-08-28T07:51:21Z","geometryProcessing":"web display simplification tolerance 0.00035 degrees","name":"PT ZEDSKO PERMAI","permitNumber":"SK.264/Menhut-II/2004","permitDate":"2004-07-21","areaHa":30525.0,"provinceCode":"76","region":"sulawesi"},"geometry":{"type":"MultiPolygon","coordinates":[[[[119.65925,-1.76123,0.0,null],[119.64628,-1.76075,0.0,null],[119.64179,-1.75975,0.0,null],[119.62981,-1.74772,0.0,null],[119.60037,-1.73171,0.0,null],[119.61245,-1.78789,0.0,null],[119.63973,-1.78868,0.0,null],[119.64513,-1.81452,0.0,null],[119.60438,-1.82148,0.0,null],[119.57422,-1.8241,0.0,null],[119.54775,-1.83035,0.0,null],[119.52679,-1.83919,0.0,null],[119.50468,-1.85181,0.0,null],[119.50653,-1.86374,0.0,null],[119.50815,-1.89615,0.0,null],[119.5144,-1.92741,0.0,null],[119.51996,-1.93853,0.0,null],[119.52575,-1.94397,0.0,null],[119.53848,-1.94686,0.0,null],[119.54925,-1.94738,0.0,null],[119.57611,-1.94295,0.0,null],[119.61542,-1.94208,0.0,null],[119.61418,-1.93583,0.0,null],[119.61475,-1.93577,0.0,null],[119.6138,-1.93225,0.0,null],[119.6097,-1.92312,0.0,null],[119.6091,-1.91996,0.0,null],[119.6112,-1.91618,0.0,null],[119.618,-1.91636,0.0,null],[119.6212,-1.91408,0.0,null],[119.6241,-1.91031,0.0,null],[119.62627,-1.90953,0.0,null],[119.6267,-1.90886,0.0,null],[119.62955,-1.91029,0.0,null],[119.63015,-1.9079,0.0,null],[119.6311,-1.90778,0.0,null],[119.63122,-1.90849,0.0,null],[119.63252,-1.90885,0.0,null],[119.63395,-1.90777,0.0,null],[119.63514,-1.90789,0.0,null],[119.63567,-1.90628,0.0,null],[119.63698,-1.90627,0.0,null],[119.63757,-1.90711,0.0,null],[119.64007,-1.90675,0.0,null],[119.6491,-1.90829,0.0,null],[119.65148,-1.9084,0.0,null],[119.65195,-1.90781,0.0,null],[119.6535,-1.90481,0.0,null],[119.65218,-1.90362,0.0,null],[119.65325,-1.90075,0.0,null],[119.65408,-1.89525,0.0,null],[119.65549,-1.89393,0.0,null],[119.65537,-1.89154,0.0,null],[119.65608,-1.88927,0.0,null],[119.65727,-1.88747,0.0,null],[119.66296,-1.88256,0.0,null],[119.66451,-1.87897,0.0,null],[119.66699,-1.8767,0.0,null],[119.66965,-1.86874,0.0,null],[119.66859,-1.86803,0.0,null],[119.66846,-1.86719,0.0,null],[119.66953,-1.86516,0.0,null],[119.66834,-1.8642,0.0,null],[119.66631,-1.85811,0.0,null],[119.66144,-1.85764,0.0,null],[119.66026,-1.85656,0.0,null],[119.65752,-1.85573,0.0,null],[119.65704,-1.85621,0.0,null],[119.65443,-1.8549,0.0,null],[119.65348,-1.85562,0.0,null],[119.65258,-1.85489,0.0,null],[119.6494,-1.85407,0.0,null],[119.64587,-1.85144,0.0,null],[119.64574,-1.85061,0.0,null],[119.64681,-1.84989,0.0,null],[119.64693,-1.84917,0.0,null],[119.64253,-1.84475,0.0,null],[119.64241,-1.84248,0.0,null],[119.65148,-1.83033,0.0,null],[119.65393,-1.8253,0.0,null],[119.65407,-1.82007,0.0,null],[119.65516,-1.81652,0.0,null],[119.65618,-1.8155,0.0,null],[119.65763,-1.81477,0.0,null],[119.66198,-1.81434,0.0,null],[119.66271,-1.81288,0.0,null],[119.66271,-1.81129,0.0,null],[119.66402,-1.8094,0.0,null],[119.66779,-1.80896,0.0,null],[119.66924,-1.8078,0.0,null],[119.67099,-1.80809,0.0,null],[119.67099,-1.81114,0.0,null],[119.67273,-1.81288,0.0,null],[119.6765,-1.81303,0.0,null],[119.67738,-1.81259,0.0,null],[119.67854,-1.81012,0.0,null],[119.68188,-1.80576,0.0,null],[119.68187,-1.79821,0.0,null],[119.68318,-1.78819,0.0,null],[119.68448,-1.78543,0.0,null],[119.68506,-1.77992,0.0,null],[119.68652,-1.77556,0.0,null],[119.68666,-1.7728,0.0,null],[119.6835,-1.76906,0.0,null],[119.67343,-1.7635,0.0,null],[119.65925,-1.76123,0.0,null]]],[[[119.5434,-1.55363,0.0,null],[119.54067,-1.55339,0.0,null],[119.5402,-1.5571,0.0,null],[119.539,-1.55749,0.0,null],[119.53852,-1.55894,0.0,null],[119.533,-1.56549,0.0,null],[119.53246,-1.56885,0.0,null],[119.53432,-1.57748,0.0,null],[119.53347,-1.57816,0.0,null],[119.53079,-1.57586,0.0,null],[119.5283,-1.57598,0.0,null],[119.5264,-1.57527,0.0,null],[119.52431,-1.57354,0.0,null],[119.52146,-1.57462,0.0,null],[119.52028,-1.57581,0.0,null],[119.51755,-1.57606,0.0,null],[119.51553,-1.57761,0.0,null],[119.51315,-1.57965,0.0,null],[119.51304,-1.58192,0.0,null],[119.50806,-1.58886,0.0,null],[119.50758,-1.59078,0.0,null],[119.50628,-1.59066,0.0,null],[119.50568,-1.59114,0.0,null],[119.50568,-1.59209,0.0,null],[119.50747,-1.59257,0.0,null],[119.50699,-1.59329,0.0,null],[119.50509,-1.59329,0.0,null],[119.50497,-1.59497,0.0,null],[119.50569,-1.59604,0.0,null],[119.50628,-1.5952,0.0,null],[119.50806,-1.59723,0.0,null],[119.50795,-1.59783,0.0,null],[119.50616,-1.59843,0.0,null],[119.50623,-1.59957,0.0,null],[119.50516,-1.60064,0.0,null],[119.50433,-1.60387,0.0,null],[119.50362,-1.60411,0.0,null],[119.50278,-1.60316,0.0,null],[119.49969,-1.60328,0.0,null],[119.49542,-1.60664,0.0,null],[119.49542,-1.60723,0.0,null],[119.49448,-1.60723,0.0,null],[119.49316,-1.60855,0.0,null],[119.49197,-1.60712,0.0,null],[119.4915,-1.60736,0.0,null],[119.49245,-1.60975,0.0,null],[119.49127,-1.61405,0.0,null],[119.48795,-1.61633,0.0,null],[119.48569,-1.61573,0.0,null],[119.48474,-1.61633,0.0,null],[119.48474,-1.61765,0.0,null],[119.48557,-1.61837,0.0,null],[119.487,-1.61848,0.0,null],[119.48819,-1.61968,0.0,null],[119.48522,-1.62028,0.0,null],[119.48486,-1.62255,0.0,null],[119.48287,-1.62512,0.0,null],[119.48292,-1.62726,0.0,null],[119.48593,-1.63481,0.0,null],[119.48621,-1.64017,0.0,null],[119.48747,-1.64147,0.0,null],[119.48739,-1.64263,0.0,null],[119.48819,-1.64398,0.0,null],[119.48668,-1.64676,0.0,null],[119.48958,-1.64832,0.0,null],[119.48909,-1.65111,0.0,null],[119.48613,-1.65125,0.0,null],[119.48314,-1.65251,0.0,null],[119.48141,-1.65578,0.0,null],[119.48096,-1.65848,0.0,null],[119.47927,-1.65843,0.0,null],[119.4782,-1.65713,0.0,null],[119.47762,-1.65718,0.0,null],[119.47665,-1.65857,0.0,null],[119.47328,-1.65911,0.0,null],[119.47385,-1.66247,0.0,null],[119.47351,-1.66292,0.0,null],[119.47163,-1.66288,0.0,null],[119.4715,-1.66444,0.0,null],[119.46986,-1.66532,0.0,null],[119.46968,-1.66637,0.0,null],[119.4704,-1.66689,0.0,null],[119.47385,-1.66665,0.0,null],[119.47398,-1.6682,0.0,null],[119.47564,-1.66832,0.0,null],[119.4773,-1.6676,0.0,null],[119.47837,-1.66868,0.0,null],[119.47992,-1.66784,0.0,null],[119.48028,-1.66855,0.0,null],[119.47992,-1.67059,0.0,null],[119.48135,-1.67106,0.0,null],[119.48263,-1.67044,0.0,null],[119.48393,-1.66871,0.0,null],[119.48473,-1.66877,0.0,null],[119.48522,-1.6697,0.0,null],[119.48769,-1.66994,0.0,null],[119.48868,-1.67087,0.0,null],[119.49238,-1.67087,0.0,null],[119.50155,-1.68229,0.0,null],[119.51307,-1.67827,0.0,null],[119.51828,-1.67923,0.0,null],[119.52561,-1.68251,0.0,null],[119.53332,-1.68173,0.0,null],[119.53717,-1.67923,0.0,null],[119.53963,-1.67185,0.0,null],[119.54165,-1.6679,0.0,null],[119.55225,-1.65614,0.0,null],[119.55341,-1.65016,0.0,null],[119.55292,-1.64746,0.0,null],[119.54897,-1.64091,0.0,null],[119.54483,-1.63686,0.0,null],[119.54376,-1.63503,0.0,null],[119.54275,-1.63074,0.0,null],[119.54285,-1.62881,0.0,null],[119.5442,-1.62698,0.0,null],[119.54477,-1.62409,0.0,null],[119.54487,-1.61667,0.0,null],[119.54284,-1.60838,0.0,null],[119.54708,-1.6024,0.0,null],[119.54718,-1.59989,0.0,null],[119.5465,-1.59797,0.0,null],[119.54814,-1.59478,0.0,null],[119.54814,-1.57724,0.0,null],[119.5491,-1.57078,0.0,null],[119.55276,-1.56587,0.0,null],[119.5596,-1.55969,0.0,null],[119.56074,-1.55611,0.0,null],[119.55887,-1.55713,0.0,null],[119.55768,-1.55714,0.0,null],[119.55733,-1.55618,0.0,null],[119.55661,-1.55606,0.0,null],[119.55578,-1.55738,0.0,null],[119.55459,-1.5563,0.0,null],[119.55376,-1.5575,0.0,null],[119.55293,-1.55774,0.0,null],[119.55209,-1.55726,0.0,null],[119.5515,-1.55559,0.0,null],[119.54869,-1.55559,0.0,null],[119.54673,-1.55506,0.0,null],[119.54578,-1.55362,0.0,null],[119.54424,-1.55398,0.0,null],[119.5434,-1.55363,0.0,null]]]]}}]}
