{"type":"FeatureCollection","name":"meratus-sulawesi-concession-inventory-oil-palm-official","metadata":{"coverageId":"sulawesi","parentCoverageId":"indonesia","generatedAt":"2026-08-24T04:22:31Z","pipelineVersion":"2","count":4,"sectors":["Sawit"],"qualities":["OFFICIAL"],"geometryNote":"Web-display geometry is simplified; consult source records for authoritative geometry.","evidenceNote":"A public concession record does not imply fire causation, illegality, or wrongdoing."},"features":[{"type":"Feature","properties":{"inventoryId":"big-oil-palm-kutai-timur:125","sector":"Sawit","subtype":"Izin Lokasi Sawit","quality":"OFFICIAL","sourceDataset":"big-oil-palm-kutai-timur","sourceRecordId":"125","source":"BIG Kebijakan Satu Peta","sourceUrl":"https://kspservices.big.go.id/satupeta/rest/services/PUBLIK/PERIZINAN_DAN_PERTANAHAN/MapServer/38","retrievedAt":"2026-08-24T04:22:31Z","geometryProcessing":"web display simplification tolerance 0.00035 degrees","name":"Hanucipta Pratama Karya, PT","issuer":"Bupati Kutai Timur","permitNumber":"525.26/K.106/HK/II/2018","permitDate":"2018-02-15","areaHa":500.0,"village":"-","subdistrict":"Sandaran","district":"Kutai Timur","status":"Aktif","coverageCaveat":"BIG public plantation location layer covers selected districts only; it is not complete Indonesia-wide plantation coverage.","region":"sulawesi"},"geometry":{"type":"Polygon","coordinates":[[[118.9159,1.04117],[118.90939,1.04096],[118.8979,1.03706],[118.89308,1.03653],[118.9078,1.03383],[118.92499,1.03163],[118.93341,1.02988],[118.94205,1.02912],[118.9433,1.03048],[118.94615,1.03124],[118.94728,1.03245],[118.94905,1.03271],[118.95012,1.03414],[118.94997,1.03528],[118.95104,1.03622],[118.94998,1.03931],[118.94807,1.03837],[118.944,1.03823],[118.93547,1.03923],[118.93188,1.04023],[118.93072,1.03949],[118.92847,1.04072],[118.92579,1.04105],[118.9159,1.04117]]]}},{"type":"Feature","properties":{"inventoryId":"big-oil-palm-kutai-timur:124","sector":"Sawit","subtype":"Izin Lokasi Sawit","quality":"OFFICIAL","sourceDataset":"big-oil-palm-kutai-timur","sourceRecordId":"124","source":"BIG Kebijakan Satu Peta","sourceUrl":"https://kspservices.big.go.id/satupeta/rest/services/PUBLIK/PERIZINAN_DAN_PERTANAHAN/MapServer/38","retrievedAt":"2026-08-24T04:22:31Z","geometryProcessing":"web display simplification tolerance 0.00035 degrees","name":"Maryam Decorindo Persada, PT","issuer":"Bupati Kutai Timur","permitNumber":"525.26/K.81/HK/I/2018","permitDate":"2018-01-23","areaHa":2500.0,"village":"-","subdistrict":"Sandaran","district":"Kutai Timur","status":"Aktif","coverageCaveat":"BIG public plantation location layer covers selected districts only; it is not complete Indonesia-wide plantation coverage.","region":"sulawesi"},"geometry":{"type":"MultiPolygon","coordinates":[[[[118.89308,1.03653],[118.88234,1.03634],[118.8807,1.03554],[118.87911,1.03364],[118.8763,1.02818],[118.87492,1.02283],[118.87482,1.01879],[118.86906,1.01518],[118.86563,1.01415],[118.86554,1.01129],[118.87948,1.01495],[118.90689,1.01347],[118.91009,1.01604],[118.91682,1.01942],[118.92527,1.02994],[118.92501,1.03159],[118.9078,1.03383],[118.89308,1.03653]]],[[[118.9365,1.01816],[118.93605,1.02023],[118.93718,1.02178],[118.93691,1.02304],[118.93782,1.02433],[118.93782,1.02536],[118.93845,1.02617],[118.94105,1.02709],[118.94205,1.02912],[118.92726,1.0309],[118.92671,1.02886],[118.91808,1.01813],[118.90959,1.01332],[118.92899,1.01227],[118.9351,1.01072],[118.93511,1.01191],[118.93586,1.01276],[118.93459,1.0161],[118.93551,1.01728],[118.93677,1.0177],[118.9365,1.01816]]],[[[118.98097,1.02779],[118.97927,1.03134],[118.97076,1.02748],[118.96609,1.028],[118.96443,1.02926],[118.9587,1.02796],[118.95582,1.02402],[118.95431,1.01864],[118.95442,1.01733],[118.9537,1.01688],[118.95349,1.01589],[118.95439,1.01489],[118.95316,1.01408],[118.95355,1.01092],[118.9533,1.00966],[118.95236,1.00861],[118.95347,1.00607],[118.95519,1.00563],[118.96933,1.0054],[118.97613,0.99721],[118.98012,0.99718],[118.98015,0.99849],[118.97801,0.99921],[118.97521,1.00189],[118.97317,1.00577],[118.97286,1.00779],[118.97396,1.01589],[118.9764,1.02128],[118.98097,1.02779]]],[[[118.95103,1.03156],[118.95101,1.03251],[118.94936,1.03081],[118.94804,1.03074],[118.94693,1.02957],[118.94425,1.02893],[118.94224,1.02572],[118.93959,1.02467],[118.9396,1.02375],[118.93877,1.02267],[118.93896,1.0211],[118.93781,1.01983],[118.93872,1.01665],[118.93639,1.01566],[118.93759,1.01356],[118.93696,1.01025],[118.9515,1.00656],[118.95051,1.00895],[118.95175,1.01105],[118.95118,1.01285],[118.95153,1.01543],[118.95414,1.02475],[118.95572,1.02652],[118.95416,1.02698],[118.95384,1.02851],[118.95103,1.03156]]]]}},{"type":"Feature","properties":{"inventoryId":"big-oil-palm-kutai-timur:47:sulawesi","sector":"Sawit","subtype":"Izin Lokasi Sawit","quality":"OFFICIAL","sourceDataset":"big-oil-palm-kutai-timur","sourceRecordId":"47","source":"BIG Kebijakan Satu Peta","sourceUrl":"https://kspservices.big.go.id/satupeta/rest/services/PUBLIK/PERIZINAN_DAN_PERTANAHAN/MapServer/38","retrievedAt":"2026-08-24T04:22:31Z","geometryProcessing":"web display simplification tolerance 0.00035 degrees","name":"Setara Kilau Mas Adicita, PT (I)","issuer":"Bupati Kutai Timur","permitNumber":"525.26/K.82/HK/I/2018","permitDate":"2018-01-23","areaHa":2836.0,"village":"-","subdistrict":"Sandaran","district":"Kutai Timur","status":"Aktif","coverageCaveat":"BIG public plantation location layer covers selected districts only; it is not complete Indonesia-wide plantation coverage.","region":"sulawesi","sourceInventoryId":"big-oil-palm-kutai-timur:47"},"geometry":{"type":"Polygon","coordinates":[[[118.65029,0.8602],[118.65034,0.84777],[118.65625,0.85052],[118.65773,0.85322],[118.6628,0.85591],[118.66594,0.85841],[118.66886,0.85967],[118.66889,0.86019],[118.65029,0.8602]]]}},{"type":"Feature","properties":{"inventoryId":"big-oil-palm-kutai-timur:142:sulawesi","sector":"Sawit","subtype":"Izin Lokasi Sawit","quality":"OFFICIAL","sourceDataset":"big-oil-palm-kutai-timur","sourceRecordId":"142","source":"BIG Kebijakan Satu Peta","sourceUrl":"https://kspservices.big.go.id/satupeta/rest/services/PUBLIK/PERIZINAN_DAN_PERTANAHAN/MapServer/38","retrievedAt":"2026-08-24T04:22:31Z","geometryProcessing":"web display simplification tolerance 0.00035 degrees","name":"Sima Agung Prima Sawit, PT (II)","issuer":"Bupati Kutai Timur","permitNumber":"525.26/K.404/HK/VI/2015","permitDate":"2015-06-30","areaHa":600.0,"village":"-","subdistrict":"Sandaran","district":"Kutai Timur","status":"Aktif","coverageCaveat":"BIG public plantation location layer covers selected districts only; it is not complete Indonesia-wide plantation coverage.","region":"sulawesi","sourceInventoryId":"big-oil-palm-kutai-timur:142"},"geometry":{"type":"Polygon","coordinates":[[[118.73626,0.83214],[118.74042,0.83353],[118.73389,0.83357],[118.7339,0.83211],[118.73626,0.83214]]]}}]}
