{"type":"FeatureCollection","name":"meratus-papua-concession-inventory-forestry-hti","metadata":{"coverageId":"papua","parentCoverageId":"indonesia","generatedAt":"2026-08-28T06:57:32Z","pipelineVersion":"2","count":8,"sectors":["PBPH"],"qualities":["OFFICIAL"],"geometryNote":"Web-display geometry is simplified; consult source records for authoritative geometry.","evidenceNote":"A public concession record does not imply fire causation, illegality, or wrongdoing."},"features":[{"type":"Feature","properties":{"inventoryId":"big-forestry-hti:289","sector":"PBPH","subtype":"IUPHHK-HTI","quality":"OFFICIAL","sourceDataset":"big-forestry-hti","sourceRecordId":"289","source":"BIG Kebijakan Satu Peta","sourceUrl":"https://kspservices.big.go.id/satupeta/rest/services/PUBLIK/PERIZINAN_DAN_PERTANAHAN/MapServer/2","retrievedAt":"2026-08-28T06:57:32Z","geometryProcessing":"web display simplification tolerance 0.00035 degrees","name":"PT BADE MAKMUR ORISSA","permitNumber":"16/1/IUPHHK-HTI/PMDN/2017","permitDate":"2017-11-09","areaHa":99750.0,"provinceCode":"92","region":"papua"},"geometry":{"type":"Polygon","coordinates":[[[140.71642,-6.15183,0.0,null],[140.71826,-6.14493,0.0,null],[140.7174,-6.13389,0.0,null],[140.71544,-6.13318,0.0,null],[140.71103,-6.13406,0.0,null],[140.70802,-6.13354,0.0,null],[140.70391,-6.13041,0.0,null],[140.70079,-6.12631,0.0,null],[140.69977,-6.12716,0.0,null],[140.69974,-6.13034,0.0,null],[140.6952,-6.13278,0.0,null],[140.69318,-6.13687,0.0,null],[140.69133,-6.13746,0.0,null],[140.68973,-6.13715,0.0,null],[140.68829,-6.13582,0.0,null],[140.68612,-6.13228,0.0,null],[140.68247,-6.12925,0.0,null],[140.68193,-6.12793,0.0,null],[140.68233,-6.12527,0.0,null],[140.68597,-6.12099,0.0,null],[140.68694,-6.11851,0.0,null],[140.68721,-6.114,0.0,null],[140.68666,-6.11268,0.0,null],[140.68413,-6.11059,0.0,null],[140.68197,-6.10787,0.0,null],[140.67988,-6.10738,0.0,null],[140.67714,-6.10946,0.0,null],[140.67263,-6.11547,0.0,null],[140.66982,-6.11634,0.0,null],[140.66764,-6.11485,0.0,null],[140.66391,-6.10876,0.0,null],[140.66433,-6.10559,0.0,null],[140.66697,-6.10318,0.0,null],[140.66878,-6.10301,0.0,null],[140.67267,-6.10453,0.0,null],[140.67553,-6.10339,0.0,null],[140.6765,-6.10215,0.0,null],[140.67924,-6.09489,0.0,null],[140.6788,-6.09172,0.0,null],[140.67508,-6.08799,0.0,null],[140.67387,-6.08582,0.0,null],[140.67097,-6.07581,0.0,null],[140.67116,-6.07369,0.0,null],[140.67256,-6.07323,0.0,null],[140.67434,-6.07391,0.0,null],[140.67744,-6.07816,0.0,null],[140.67922,-6.07924,0.0,null],[140.68519,-6.07966,0.0,null],[140.68822,-6.07877,0.0,null],[140.69099,-6.07605,0.0,null],[140.69053,-6.06692,0.0,null],[140.6937,-6.05939,0.0,null],[140.69313,-6.0583,0.0,null],[140.6908,-6.05822,0.0,null],[140.68164,-6.06048,0.0,null],[140.67231,-6.06408,0.0,null],[140.6711,-6.06397,0.0,null],[140.66879,-6.06237,0.0,null],[140.66878,-6.06117,0.0,null],[140.66992,-6.05966,0.0,null],[140.66989,-6.05748,0.0,null],[140.66648,-6.05374,0.0,null],[140.66466,-6.04839,0.0,null],[140.66662,-6.04185,0.0,null],[140.66865,-6.04151,0.0,null],[140.67487,-6.0444,0.0,null],[140.67683,-6.04425,0.0,null],[140.67785,-6.04312,0.0,null],[140.67801,-6.04217,0.0,null],[140.6775,-6.04146,0.0,null],[140.675,-6.04012,0.0,null],[140.67398,-6.03887,0.0,null],[140.67466,-6.03415,0.0,null],[140.67446,-6.02889,0.0,null],[140.6802,-6.02457,0.0,null],[140.68283,-6.0192,0.0,null],[140.68495,-6.01621,0.0,null],[140.68492,-6.01503,0.0,null],[140.6844,-6.01479,0.0,null],[140.67962,-6.01638,0.0,null],[140.67772,-6.0158,0.0,null],[140.67631,-6.01472,0.0,null],[140.67547,-6.01145,0.0,null],[140.67435,-6.00979,0.0,null],[140.66911,-6.00814,0.0,null],[140.66714,-6.00548,0.0,null],[140.66728,-6.00198,0.0,null],[140.66997,-5.99982,0.0,null],[140.67104,-5.99991,0.0,null],[140.6761,-6.00427,0.0,null],[140.67875,-6.00458,0.0,null],[140.68201,-6.00404,0.0,null],[140.68391,-6.00154,0.0,null],[140.68422,-5.99517,0.0,null],[140.6839,-5.99103,0.0,null],[140.68304,-5.98921,0.0,null],[140.67942,-5.98898,0.0,null],[140.67602,-5.99101,0.0,null],[140.67373,-5.991,0.0,null],[140.67184,-5.9901,0.0,null],[140.66903,-5.98593,0.0,null],[140.66914,-5.98462,0.0,null],[140.67149,-5.98274,0.0,null],[140.67266,-5.98093,0.0,null],[140.67379,-5.97675,0.0,null],[140.67587,-5.97319,0.0,null],[140.67569,-5.97239,0.0,null],[140.67056,-5.96941,0.0,null],[140.66841,-5.96587,0.0,null],[140.66821,-5.96336,0.0,null],[140.67033,-5.9621,0.0,null],[140.67867,-5.96088,0.0,null],[140.67998,-5.96004,0.0,null],[140.68065,-5.95832,0.0,null],[140.67955,-5.95646,0.0,null],[140.67396,-5.95264,0.0,null],[140.66536,-5.94485,0.0,null],[140.66416,-5.94255,0.0,null],[140.66581,-5.93945,0.0,null],[140.66771,-5.93847,0.0,null],[140.66946,-5.93866,0.0,null],[140.67418,-5.94085,0.0,null],[140.67342,-5.93649,0.0,null],[140.67505,-5.93355,0.0,null],[140.6788,-5.93111,0.0,null],[140.68232,-5.93091,0.0,null],[140.68428,-5.93019,0.0,null],[140.68464,-5.92775,0.0,null],[140.68119,-5.9248,0.0,null],[140.67915,-5.92078,0.0,null],[140.67944,-5.91905,0.0,null],[140.68203,-5.91604,0.0,null],[140.66291,-5.92397,0.0,null],[140.63979,-5.93189,0.0,null],[140.61614,-5.94126,0.0,null],[140.58421,-5.9557,0.0,null],[140.54584,-5.96894,0.0,null],[140.52757,-5.9778,0.0,null],[140.50551,-5.98992,0.0,null],[140.50298,-5.99214,0.0,null],[140.50127,-5.99558,0.0,null],[140.49747,-5.99927,0.0,null],[140.49425,-6.00213,0.0,null],[140.49152,-6.00248,0.0,null],[140.48961,-6.0045,0.0,null],[140.48581,-6.01069,0.0,null],[140.48018,-6.0163,0.0,null],[140.47819,-6.02604,0.0,null],[140.47356,-6.03573,0.0,null],[140.47262,-6.0424,0.0,null],[140.47367,-6.04942,0.0,null],[140.47981,-6.05774,0.0,null],[140.4816,-6.06523,0.0,null],[140.48164,-6.07404,0.0,null],[140.48231,-6.07844,0.0,null],[140.48224,-6.08297,0.0,null],[140.48069,-6.08808,0.0,null],[140.47914,-6.09165,0.0,null],[140.47903,-6.0932,0.0,null],[140.47617,-6.09829,0.0,null],[140.47461,-6.10298,0.0,null],[140.47446,-6.11118,0.0,null],[140.47569,-6.11771,0.0,null],[140.4766,-6.12734,0.0,null],[140.4766,-6.13357,0.0,null],[140.47922,-6.1395,0.0,null],[140.48231,-6.14376,0.0,null],[140.48797,-6.1454,0.0,null],[140.49445,-6.1459,0.0,null],[140.50372,-6.14411,0.0,null],[140.51836,-6.13662,0.0,null],[140.52407,-6.13698,0.0,null],[140.52907,-6.1384,0.0,null],[140.52871,-6.14911,0.0,null],[140.52735,-6.15487,0.0,null],[140.53014,-6.15875,0.0,null],[140.53264,-6.16017,0.0,null],[140.53406,-6.16339,0.0,null],[140.53316,-6.16684,0.0,null],[140.5334,-6.17053,0.0,null],[140.53173,-6.17125,0.0,null],[140.52926,-6.17015,0.0,null],[140.52666,-6.17148,0.0,null],[140.52566,-6.17303,0.0,null],[140.52388,-6.17351,0.0,null],[140.52186,-6.17327,0.0,null],[140.5183,-6.17113,0.0,null],[140.51591,-6.17374,0.0,null],[140.51645,-6.17742,0.0,null],[140.52193,-6.1833,0.0,null],[140.52129,-6.18843,0.0,null],[140.52174,-6.19049,0.0,null],[140.51757,-6.19718,0.0,null],[140.51317,-6.20099,0.0,null],[140.50734,-6.20337,0.0,null],[140.50599,-6.20308,0.0,null],[140.5023,-6.204,0.0,null],[140.49437,-6.20254,0.0,null],[140.4932,-6.20191,0.0,null],[140.49361,-6.20147,0.0,null],[140.48854,-6.19944,0.0,null],[140.48545,-6.1992,0.0,null],[140.4809,-6.19975,0.0,null],[140.47817,-6.20176,0.0,null],[140.46652,-6.20113,0.0,null],[140.46391,-6.2035,0.0,null],[140.46356,-6.20468,0.0,null],[140.46314,-6.20449,0.0,null],[140.46019,-6.20858,0.0,null],[140.46225,-6.21015,0.0,null],[140.46273,-6.21146,0.0,null],[140.4623,-6.21232,0.0,null],[140.45727,-6.2132,0.0,null],[140.45585,-6.21561,0.0,null],[140.45616,-6.21726,0.0,null],[140.45911,-6.22256,0.0,null],[140.46233,-6.22494,0.0,null],[140.46489,-6.22534,0.0,null],[140.4657,-6.2265,0.0,null],[140.46591,-6.22945,0.0,null],[140.46344,-6.23275,0.0,null],[140.46118,-6.23466,0.0,null],[140.45654,-6.23478,0.0,null],[140.44857,-6.23192,0.0,null],[140.4431,-6.23133,0.0,null],[140.43988,-6.23216,0.0,null],[140.43842,-6.23366,0.0,null],[140.45847,-6.25623,0.0,null],[140.47625,-6.28086,0.0,null],[140.49334,-6.31468,0.0,null],[140.50477,-6.35007,0.0,null],[140.50915,-6.40832,0.0,null],[140.51046,-6.4055,0.0,null],[140.51025,-6.40452,0.0,null],[140.5116,-6.40464,0.0,null],[140.51309,-6.40592,0.0,null],[140.51216,-6.40765,0.0,null],[140.50937,-6.41023,0.0,null],[140.50966,-6.41272,0.0,null],[140.5155,-6.41316,0.0,null],[140.52228,-6.4128,0.0,null],[140.52942,-6.41137,0.0,null],[140.53419,-6.42108,0.0,null],[140.5368,-6.42262,0.0,null],[140.53761,-6.42424,0.0,null],[140.53751,-6.42586,0.0,null],[140.53478,-6.42851,0.0,null],[140.54049,-6.4335,0.0,null],[140.54178,-6.4356,0.0,null],[140.53785,-6.44877,0.0,null],[140.53783,-6.45123,0.0,null],[140.53621,-6.45667,0.0,null],[140.53493,-6.45829,0.0,null],[140.5328,-6.45956,0.0,null],[140.53067,-6.4633,0.0,null],[140.53283,-6.46546,0.0,null],[140.53445,-6.46559,0.0,null],[140.53561,-6.46675,0.0,null],[140.53541,-6.46788,0.0,null],[140.54013,-6.47134,0.0,null],[140.54406,-6.46991,0.0,null],[140.54834,-6.46741,0.0,null],[140.55191,-6.45777,0.0,null],[140.55619,-6.45528,0.0,null],[140.56083,-6.45385,0.0,null],[140.56348,-6.45067,0.0,null],[140.56367,-6.4478,0.0,null],[140.56273,-6.44505,0.0,null],[140.55615,-6.43559,0.0,null],[140.556,-6.4325,0.0,null],[140.55441,-6.42886,0.0,null],[140.55152,-6.42598,0.0,null],[140.54539,-6.42445,0.0,null],[140.54246,-6.42205,0.0,null],[140.5412,-6.42173,0.0,null],[140.5362,-6.41494,0.0,null],[140.53299,-6.3946,0.0,null],[140.53335,-6.38782,0.0,null],[140.53534,-6.38736,0.0,null],[140.53906,-6.38996,0.0,null],[140.5462,-6.39032,0.0,null],[140.54798,-6.38389,0.0,null],[140.55298,-6.37818,0.0,null],[140.56083,-6.38068,0.0,null],[140.56833,-6.38068,0.0,null],[140.57439,-6.3789,0.0,null],[140.57939,-6.38461,0.0,null],[140.58296,-6.39032,0.0,null],[140.58867,-6.39353,0.0,null],[140.59188,-6.38925,0.0,null],[140.59188,-6.38496,0.0,null],[140.59474,-6.38032,0.0,null],[140.60652,-6.3896,0.0,null],[140.61508,-6.3896,0.0,null],[140.61972,-6.38817,0.0,null],[140.61791,-6.38351,0.0,null],[140.61584,-6.38133,0.0,null],[140.61576,-6.37992,0.0,null],[140.61437,-6.37818,0.0,null],[140.61473,-6.37283,0.0,null],[140.61437,-6.36105,0.0,null],[140.62187,-6.35891,0.0,null],[140.62615,-6.35641,0.0,null],[140.63222,-6.34927,0.0,null],[140.63721,-6.34713,0.0,null],[140.63815,-6.3483,0.0,null],[140.6391,-6.34758,0.0,null],[140.64142,-6.35099,0.0,null],[140.64506,-6.35177,0.0,null],[140.64935,-6.34749,0.0,null],[140.65271,-6.3426,0.0,null],[140.64883,-6.3412,0.0,null],[140.64627,-6.33946,0.0,null],[140.64897,-6.3375,0.0,null],[140.64776,-6.33629,0.0,null],[140.65176,-6.33276,0.0,null],[140.65327,-6.32821,0.0,null],[140.65399,-6.32286,0.0,null],[140.65207,-6.32166,0.0,null],[140.64775,-6.32146,0.0,null],[140.64603,-6.32018,0.0,null],[140.64546,-6.3144,0.0,null],[140.64221,-6.3093,0.0,null],[140.64042,-6.3043,0.0,null],[140.64042,-6.29787,0.0,null],[140.63728,-6.29656,0.0,null],[140.62722,-6.29656,0.0,null],[140.62258,-6.29716,0.0,null],[140.61865,-6.29359,0.0,null],[140.62058,-6.29061,0.0,null],[140.62312,-6.2888,0.0,null],[140.63364,-6.28967,0.0,null],[140.64292,-6.28931,0.0,null],[140.64614,-6.29002,0.0,null],[140.65113,-6.30287,0.0,null],[140.65649,-6.30715,0.0,null],[140.66862,-6.30751,0.0,null],[140.67505,-6.30287,0.0,null],[140.67433,-6.29787,0.0,null],[140.66791,-6.28467,0.0,null],[140.67208,-6.28293,0.0,null],[140.67612,-6.28288,0.0,null],[140.68045,-6.28751,0.0,null],[140.68116,-6.28764,0.0,null],[140.68433,-6.28574,0.0,null],[140.68718,-6.29181,0.0,null],[140.6857,-6.29476,0.0,null],[140.68498,-6.29483,0.0,null],[140.68433,-6.29573,0.0,null],[140.68833,-6.29856,0.0,null],[140.69061,-6.30446,0.0,null],[140.69539,-6.30287,0.0,null],[140.69706,-6.29994,0.0,null],[140.69506,-6.29707,0.0,null],[140.69421,-6.29455,0.0,null],[140.69327,-6.29024,0.0,null],[140.69379,-6.28908,0.0,null],[140.69803,-6.28612,0.0,null],[140.7032,-6.28397,0.0,null],[140.70289,-6.28039,0.0,null],[140.70443,-6.27703,0.0,null],[140.70683,-6.27455,0.0,null],[140.69915,-6.27185,0.0,null],[140.69421,-6.27196,0.0,null],[140.69288,-6.27067,0.0,null],[140.69158,-6.27044,0.0,null],[140.69111,-6.26397,0.0,null],[140.69517,-6.25937,0.0,null],[140.69887,-6.25858,0.0,null],[140.69915,-6.2569,0.0,null],[140.70707,-6.26446,0.0,null],[140.70894,-6.2669,0.0,null],[140.71022,-6.26728,0.0,null],[140.71058,-6.2682,0.0,null],[140.71591,-6.26884,0.0,null],[140.71788,-6.26575,0.0,null],[140.72145,-6.26254,0.0,null],[140.71752,-6.25897,0.0,null],[140.71497,-6.25927,0.0,null],[140.71492,-6.26039,0.0,null],[140.71367,-6.26078,0.0,null],[140.70975,-6.26039,0.0,null],[140.7067,-6.25924,0.0,null],[140.70571,-6.25738,0.0,null],[140.70074,-6.25183,0.0,null],[140.70272,-6.24148,0.0,null],[140.70439,-6.23777,0.0,null],[140.70717,-6.23684,0.0,null],[140.70788,-6.23149,0.0,null],[140.70763,-6.22808,0.0,null],[140.70839,-6.22775,0.0,null],[140.70841,-6.22619,0.0,null],[140.71029,-6.22573,0.0,null],[140.71083,-6.22671,0.0,null],[140.71235,-6.22605,0.0,null],[140.71477,-6.22308,0.0,null],[140.71465,-6.22147,0.0,null],[140.71397,-6.22195,0.0,null],[140.71281,-6.22016,0.0,null],[140.71443,-6.21871,0.0,null],[140.71427,-6.2166,0.0,null],[140.71859,-6.21506,0.0,null],[140.71859,-6.21148,0.0,null],[140.71743,-6.21123,0.0,null],[140.71628,-6.20986,0.0,null],[140.71839,-6.20794,0.0,null],[140.71527,-6.2081,0.0,null],[140.7147,-6.20871,0.0,null],[140.7086,-6.20579,0.0,null],[140.70753,-6.20293,0.0,null],[140.70717,-6.19401,0.0,null],[140.7054,-6.19198,0.0,null],[140.70192,-6.19081,0.0,null],[140.70104,-6.18917,0.0,null],[140.69967,-6.18223,0.0,null],[140.70003,-6.18131,0.0,null],[140.69912,-6.18063,0.0,null],[140.7006,-6.17982,0.0,null],[140.70146,-6.17759,0.0,null],[140.70146,-6.17367,0.0,null],[140.69932,-6.16938,0.0,null],[140.69967,-6.1651,0.0,null],[140.7036,-6.16474,0.0,null],[140.71074,-6.16617,0.0,null],[140.71359,-6.16938,0.0,null],[140.71538,-6.17509,0.0,null],[140.71859,-6.17831,0.0,null],[140.7216,-6.17905,0.0,null],[140.72246,-6.17982,0.0,null],[140.72479,-6.19174,0.0,null],[140.73083,-6.19178,0.0,null],[140.73076,-6.18925,0.0,null],[140.73177,-6.18338,0.0,null],[140.73083,-6.17752,0.0,null],[140.73167,-6.17272,0.0,null],[140.73346,-6.16838,0.0,null],[140.72802,-6.1607,0.0,null],[140.7262,-6.16117,0.0,null],[140.72338,-6.16357,0.0,null],[140.72173,-6.16425,0.0,null],[140.71782,-6.16416,0.0,null],[140.71519,-6.16235,0.0,null],[140.71433,-6.16102,0.0,null],[140.71416,-6.15848,0.0,null],[140.71642,-6.15183,0.0,null]],[[140.53925,-6.34808,0.0,null],[140.54152,-6.34665,0.0,null],[140.54211,-6.34533,0.0,null],[140.54105,-6.34234,0.0,null],[140.5414,-6.3409,0.0,null],[140.54308,-6.33935,0.0,null],[140.54285,-6.33672,0.0,null],[140.54164,-6.33516,0.0,null],[140.53998,-6.33085,0.0,null],[140.54045,-6.32965,0.0,null],[140.54225,-6.32882,0.0,null],[140.54178,-6.3275,0.0,null],[140.53545,-6.32103,0.0,null],[140.53496,-6.32007,0.0,null],[140.53568,-6.31948,0.0,null],[140.53903,-6.32008,0.0,null],[140.54202,-6.3214,0.0,null],[140.54321,-6.32391,0.0,null],[140.54633,-6.32726,0.0,null],[140.54739,-6.33552,0.0,null],[140.5517,-6.33361,0.0,null],[140.55397,-6.32967,0.0,null],[140.55936,-6.32875,0.0,null],[140.56023,-6.32981,0.0,null],[140.55969,-6.33227,0.0,null],[140.55364,-6.33205,0.0,null],[140.55248,-6.33741,0.0,null],[140.54902,-6.33878,0.0,null],[140.54817,-6.33993,0.0,null],[140.54807,-6.34372,0.0,null],[140.54733,-6.34582,0.0,null],[140.54397,-6.34792,0.0,null],[140.54313,-6.34939,0.0,null],[140.54271,-6.35233,0.0,null],[140.5431,-6.35331,0.0,null],[140.5424,-6.35323,0.0,null],[140.54074,-6.35443,0.0,null],[140.53912,-6.35674,0.0,null],[140.53882,-6.35969,0.0,null],[140.53929,-6.36209,0.0,null],[140.54169,-6.36484,0.0,null],[140.54304,-6.36825,0.0,null],[140.54061,-6.3724,0.0,null],[140.53546,-6.37387,0.0,null],[140.53351,-6.37379,0.0,null],[140.53436,-6.37279,0.0,null],[140.53452,-6.36899,0.0,null],[140.53229,-6.3628,0.0,null],[140.5323,-6.36088,0.0,null],[140.53362,-6.35957,0.0,null],[140.53362,-6.35669,0.0,null],[140.53564,-6.35394,0.0,null],[140.53386,-6.35131,0.0,null],[140.53398,-6.34975,0.0,null],[140.53445,-6.34892,0.0,null],[140.53925,-6.34808,0.0,null]]]}},{"type":"Feature","properties":{"inventoryId":"big-forestry-hti:285","sector":"PBPH","subtype":"IUPHHK-HTI","quality":"OFFICIAL","sourceDataset":"big-forestry-hti","sourceRecordId":"285","source":"BIG Kebijakan Satu Peta","sourceUrl":"https://kspservices.big.go.id/satupeta/rest/services/PUBLIK/PERIZINAN_DAN_PERTANAHAN/MapServer/2","retrievedAt":"2026-08-28T06:57:32Z","geometryProcessing":"web display simplification tolerance 0.00035 degrees","name":"PT KESATUAN MAS ABADI","permitNumber":"SK.818/Menhut-II/2014","permitDate":"2014-09-25","areaHa":99980.0,"provinceCode":"91","region":"papua"},"geometry":{"type":"Polygon","coordinates":[[[133.05137,-2.60952,0.0,null],[133.08417,-2.58612,0.0,null],[133.09587,-2.57632,0.0,null],[133.10647,-2.56842,0.0,null],[133.11377,-2.56192,0.0,null],[133.13217,-2.54312,0.0,null],[133.14087,-2.53632,0.0,null],[133.15247,-2.52632,0.0,null],[133.15197,-2.52572,0.0,null],[133.15987,-2.51952,0.0,null],[133.16197,-2.51812,0.0,null],[133.18807,-2.50662,0.0,null],[133.19757,-2.50922,0.0,null],[133.19917,-2.51062,0.0,null],[133.19947,-2.51162,0.0,null],[133.21907,-2.52192,0.0,null],[133.24307,-2.53782,0.0,null],[133.27277,-2.54832,0.0,null],[133.27367,-2.54952,0.0,null],[133.27697,-2.55122,0.0,null],[133.28127,-2.55692,0.0,null],[133.30487,-2.61782,0.0,null],[133.30417,-2.62992,0.0,null],[133.30697,-2.64242,0.0,null],[133.31427,-2.65582,0.0,null],[133.32767,-2.67142,0.0,null],[133.33687,-2.68122,0.0,null],[133.33987,-2.69882,0.0,null],[133.33727,-2.69982,0.0,null],[133.33407,-2.70562,0.0,null],[133.33197,-2.70862,0.0,null],[133.32957,-2.71082,0.0,null],[133.32397,-2.71212,0.0,null],[133.32137,-2.71362,0.0,null],[133.32187,-2.71682,0.0,null],[133.32487,-2.72072,0.0,null],[133.32387,-2.72222,0.0,null],[133.30187,-2.72252,0.0,null],[133.29447,-2.77582,0.0,null],[133.21577,-2.77462,0.0,null],[133.20117,-2.75442,0.0,null],[133.18327,-2.74112,0.0,null],[133.18167,-2.73382,0.0,null],[133.18047,-2.73282,0.0,null],[133.17187,-2.71472,0.0,null],[133.14374,-2.75308,0.0,null],[133.15104,-2.76166,0.0,null],[133.15354,-2.76732,0.0,null],[133.15541,-2.77444,0.0,null],[133.16067,-2.77908,0.0,null],[133.16166,-2.78241,0.0,null],[133.16147,-2.78745,0.0,null],[133.16065,-2.79192,0.0,null],[133.15897,-2.79628,0.0,null],[133.15479,-2.80353,0.0,null],[133.15122,-2.8073,0.0,null],[133.14257,-2.81889,0.0,null],[133.13179,-2.83137,0.0,null],[133.11806,-2.84029,0.0,null],[133.11365,-2.84417,0.0,null],[133.11317,-2.84614,0.0,null],[133.11334,-2.85003,0.0,null],[133.11369,-2.85362,0.0,null],[133.11671,-2.86086,0.0,null],[133.11867,-2.86391,0.0,null],[133.12402,-2.86877,0.0,null],[133.12698,-2.87261,0.0,null],[133.12787,-2.87865,0.0,null],[133.12671,-2.90654,0.0,null],[133.13108,-2.90708,0.0,null],[133.13216,-2.90675,0.0,null],[133.1328,-2.90759,0.0,null],[133.13244,-2.90818,0.0,null],[133.13255,-2.90731,0.0,null],[133.13201,-2.90697,0.0,null],[133.13022,-2.90804,0.0,null],[133.12916,-2.90782,0.0,null],[133.12916,-2.90995,0.0,null],[133.13106,-2.90861,0.0,null],[133.13215,-2.91057,0.0,null],[133.13227,-2.90917,0.0,null],[133.13435,-2.90941,0.0,null],[133.13519,-2.91169,0.0,null],[133.13708,-2.91064,0.0,null],[133.13602,-2.90985,0.0,null],[133.13621,-2.90898,0.0,null],[133.1372,-2.90917,0.0,null],[133.13793,-2.91003,0.0,null],[133.14068,-2.90931,0.0,null],[133.1408,-2.91015,0.0,null],[133.1398,-2.91036,0.0,null],[133.13969,-2.91204,0.0,null],[133.14097,-2.91374,0.0,null],[133.14077,-2.91564,0.0,null],[133.14235,-2.91508,0.0,null],[133.14145,-2.9143,0.0,null],[133.14242,-2.91305,0.0,null],[133.1423,-2.91128,0.0,null],[133.14322,-2.91243,0.0,null],[133.1447,-2.91211,0.0,null],[133.1452,-2.91321,0.0,null],[133.14601,-2.91219,0.0,null],[133.14694,-2.9121,0.0,null],[133.14752,-2.91359,0.0,null],[133.14959,-2.9143,0.0,null],[133.14983,-2.91542,0.0,null],[133.15078,-2.91504,0.0,null],[133.15017,-2.91385,0.0,null],[133.15109,-2.91355,0.0,null],[133.15197,-2.91568,0.0,null],[133.15349,-2.91698,0.0,null],[133.15282,-2.91737,0.0,null],[133.15187,-2.91663,0.0,null],[133.15135,-2.91878,0.0,null],[133.15358,-2.91788,0.0,null],[133.15475,-2.91907,0.0,null],[133.15421,-2.91986,0.0,null],[133.15443,-2.91884,0.0,null],[133.15375,-2.91808,0.0,null],[133.15303,-2.91833,0.0,null],[133.15275,-2.92084,0.0,null],[133.15338,-2.92135,0.0,null],[133.15456,-2.92037,0.0,null],[133.15505,-2.92059,0.0,null],[133.15434,-2.92226,0.0,null],[133.15595,-2.92173,0.0,null],[133.15576,-2.92431,0.0,null],[133.15634,-2.92492,0.0,null],[133.15731,-2.92377,0.0,null],[133.15858,-2.9252,0.0,null],[133.15975,-2.92526,0.0,null],[133.1585,-2.92723,0.0,null],[133.15758,-2.9273,0.0,null],[133.1573,-2.92905,0.0,null],[133.15984,-2.9302,0.0,null],[133.15892,-2.92884,0.0,null],[133.161,-2.92791,0.0,null],[133.16145,-2.92837,0.0,null],[133.16075,-2.92936,0.0,null],[133.16213,-2.92905,0.0,null],[133.16304,-2.93159,0.0,null],[133.16378,-2.93132,0.0,null],[133.16297,-2.93028,0.0,null],[133.16398,-2.92879,0.0,null],[133.16458,-2.92953,0.0,null],[133.16414,-2.92979,0.0,null],[133.16442,-2.92917,0.0,null],[133.16392,-2.929,0.0,null],[133.16344,-2.92985,0.0,null],[133.16537,-2.9306,0.0,null],[133.1665,-2.93023,0.0,null],[133.16689,-2.92901,0.0,null],[133.16884,-2.92939,0.0,null],[133.16903,-2.93011,0.0,null],[133.1679,-2.92986,0.0,null],[133.16843,-2.93137,0.0,null],[133.16927,-2.93146,0.0,null],[133.17002,-2.93277,0.0,null],[133.17052,-2.93279,0.0,null],[133.17251,-2.931,0.0,null],[133.17241,-2.9321,0.0,null],[133.17433,-2.9346,0.0,null],[133.17384,-2.93311,0.0,null],[133.17484,-2.93353,0.0,null],[133.17469,-2.93225,0.0,null],[133.17627,-2.93199,0.0,null],[133.17634,-2.93034,0.0,null],[133.17695,-2.92972,0.0,null],[133.17892,-2.92907,0.0,null],[133.17913,-2.92965,0.0,null],[133.17862,-2.93017,0.0,null],[133.17971,-2.93078,0.0,null],[133.18073,-2.93239,0.0,null],[133.18175,-2.93033,0.0,null],[133.18259,-2.93014,0.0,null],[133.18333,-2.9324,0.0,null],[133.18373,-2.93082,0.0,null],[133.18474,-2.92972,0.0,null],[133.18495,-2.93213,0.0,null],[133.18542,-2.93214,0.0,null],[133.18585,-2.93091,0.0,null],[133.18691,-2.93051,0.0,null],[133.18699,-2.93217,0.0,null],[133.18867,-2.93221,0.0,null],[133.18931,-2.93371,0.0,null],[133.18864,-2.9345,0.0,null],[133.19007,-2.9351,0.0,null],[133.18966,-2.93704,0.0,null],[133.19133,-2.93744,0.0,null],[133.19205,-2.93857,0.0,null],[133.19244,-2.93779,0.0,null],[133.193,-2.93784,0.0,null],[133.19326,-2.93893,0.0,null],[133.19433,-2.93933,0.0,null],[133.19451,-2.94049,0.0,null],[133.19528,-2.93983,0.0,null],[133.19624,-2.93999,0.0,null],[133.19685,-2.93855,0.0,null],[133.19786,-2.93951,0.0,null],[133.19833,-2.93808,0.0,null],[133.19945,-2.93904,0.0,null],[133.20091,-2.93781,0.0,null],[133.20138,-2.93931,0.0,null],[133.20225,-2.93891,0.0,null],[133.20273,-2.93767,0.0,null],[133.20435,-2.93731,0.0,null],[133.20513,-2.93925,0.0,null],[133.20569,-2.93786,0.0,null],[133.20715,-2.93932,0.0,null],[133.20817,-2.93869,0.0,null],[133.20945,-2.9389,0.0,null],[133.20935,-2.93937,0.0,null],[133.20831,-2.93933,0.0,null],[133.20808,-2.9404,0.0,null],[133.20695,-2.94072,0.0,null],[133.20688,-2.94143,0.0,null],[133.20791,-2.94086,0.0,null],[133.20852,-2.94179,0.0,null],[133.20925,-2.94186,0.0,null],[133.21005,-2.94091,0.0,null],[133.21175,-2.94045,0.0,null],[133.21269,-2.94198,0.0,null],[133.21208,-2.94471,0.0,null],[133.21362,-2.94596,0.0,null],[133.21448,-2.94454,0.0,null],[133.21648,-2.94575,0.0,null],[133.21636,-2.94645,0.0,null],[133.21525,-2.94711,0.0,null],[133.21547,-2.94757,0.0,null],[133.21626,-2.94753,0.0,null],[133.21719,-2.94571,0.0,null],[133.21775,-2.94632,0.0,null],[133.21797,-2.94848,0.0,null],[133.21901,-2.9481,0.0,null],[133.22009,-2.94854,0.0,null],[133.22117,-2.94722,0.0,null],[133.22292,-2.94648,0.0,null],[133.22299,-2.94777,0.0,null],[133.2214,-2.9493,0.0,null],[133.2226,-2.94895,0.0,null],[133.22362,-2.94973,0.0,null],[133.22637,-2.95374,0.0,null],[133.22687,-2.95351,0.0,null],[133.22708,-2.95222,0.0,null],[133.22915,-2.95225,0.0,null],[133.22982,-2.95288,0.0,null],[133.23057,-2.95559,0.0,null],[133.23166,-2.95429,0.0,null],[133.23246,-2.95442,0.0,null],[133.23279,-2.95524,0.0,null],[133.23234,-2.957,0.0,null],[133.23411,-2.9586,0.0,null],[133.23608,-2.95674,0.0,null],[133.23691,-2.95687,0.0,null],[133.23723,-2.96066,0.0,null],[133.23859,-2.96128,0.0,null],[133.23973,-2.96027,0.0,null],[133.2415,-2.96086,0.0,null],[133.24305,-2.9604,0.0,null],[133.24358,-2.96145,0.0,null],[133.24288,-2.96278,0.0,null],[133.24388,-2.9629,0.0,null],[133.24522,-2.96146,0.0,null],[133.24692,-2.96233,0.0,null],[133.24754,-2.96365,0.0,null],[133.24629,-2.96524,0.0,null],[133.24598,-2.96673,0.0,null],[133.24667,-2.96753,0.0,null],[133.24589,-2.96901,0.0,null],[133.24676,-2.96976,0.0,null],[133.24738,-2.96831,0.0,null],[133.24871,-2.97059,0.0,null],[133.24826,-2.96912,0.0,null],[133.24871,-2.96887,0.0,null],[133.25036,-2.97257,0.0,null],[133.25108,-2.97281,0.0,null],[133.25108,-2.972,0.0,null],[133.25318,-2.97183,0.0,null],[133.25228,-2.97375,0.0,null],[133.25238,-2.97415,0.0,null],[133.25292,-2.97352,0.0,null],[133.25433,-2.97468,0.0,null],[133.25357,-2.97592,0.0,null],[133.25409,-2.97679,0.0,null],[133.25323,-2.97747,0.0,null],[133.25391,-2.97803,0.0,null],[133.2535,-2.97957,0.0,null],[133.25387,-2.98062,0.0,null],[133.25834,-2.97927,0.0,null],[133.26004,-2.97913,0.0,null],[133.26078,-2.97985,0.0,null],[133.26179,-2.97957,0.0,null],[133.26276,-2.98122,0.0,null],[133.26407,-2.98194,0.0,null],[133.26378,-2.98306,0.0,null],[133.2655,-2.98299,0.0,null],[133.26603,-2.98243,0.0,null],[133.26854,-2.98382,0.0,null],[133.2676,-2.98444,0.0,null],[133.26835,-2.98588,0.0,null],[133.2678,-2.9867,0.0,null],[133.26802,-2.98781,0.0,null],[133.26902,-2.98726,0.0,null],[133.2699,-2.98757,0.0,null],[133.27062,-2.98625,0.0,null],[133.27153,-2.98735,0.0,null],[133.2716,-2.98609,0.0,null],[133.27216,-2.9857,0.0,null],[133.27276,-2.98652,0.0,null],[133.27756,-2.98667,0.0,null],[133.27856,-2.98791,0.0,null],[133.27709,-2.98946,0.0,null],[133.27876,-2.98889,0.0,null],[133.27789,-2.9903,0.0,null],[133.27961,-2.98985,0.0,null],[133.27904,-2.99128,0.0,null],[133.27938,-2.99158,0.0,null],[133.28302,-2.98989,0.0,null],[133.28406,-2.99023,0.0,null],[133.28507,-2.98914,0.0,null],[133.28567,-2.98969,0.0,null],[133.28746,-2.98958,0.0,null],[133.28735,-2.98848,0.0,null],[133.2879,-2.98766,0.0,null],[133.28921,-2.98793,0.0,null],[133.28909,-2.98882,0.0,null],[133.29033,-2.98916,0.0,null],[133.29146,-2.98849,0.0,null],[133.29067,-2.98738,0.0,null],[133.2909,-2.98675,0.0,null],[133.29199,-2.98646,0.0,null],[133.29204,-2.98736,0.0,null],[133.29363,-2.98755,0.0,null],[133.29383,-2.98612,0.0,null],[133.29574,-2.98711,0.0,null],[133.29566,-2.98623,0.0,null],[133.29793,-2.98541,0.0,null],[133.29831,-2.98424,0.0,null],[133.30043,-2.98494,0.0,null],[133.30138,-2.98431,0.0,null],[133.30168,-2.98482,0.0,null],[133.30115,-2.9849,0.0,null],[133.30128,-2.98443,0.0,null],[133.30054,-2.98497,0.0,null],[133.30159,-2.98554,0.0,null],[133.30281,-2.98517,0.0,null],[133.30416,-2.98565,0.0,null],[133.30346,-2.98725,0.0,null],[133.30492,-2.98597,0.0,null],[133.30575,-2.98611,0.0,null],[133.30579,-2.987,0.0,null],[133.30532,-2.98612,0.0,null],[133.30472,-2.98655,0.0,null],[133.30626,-2.98993,0.0,null],[133.30623,-2.99191,0.0,null],[133.30685,-2.99062,0.0,null],[133.30758,-2.99044,0.0,null],[133.30819,-2.99238,0.0,null],[133.30972,-2.99276,0.0,null],[133.30946,-2.99199,0.0,null],[133.31013,-2.99172,0.0,null],[133.31201,-2.99262,0.0,null],[133.31303,-2.99208,0.0,null],[133.3143,-2.99361,0.0,null],[133.3154,-2.99364,0.0,null],[133.31538,-2.99463,0.0,null],[133.31771,-2.99277,0.0,null],[133.31987,-2.99334,0.0,null],[133.36847,-2.68262,0.0,null],[133.36837,-2.67202,0.0,null],[133.36427,-2.65912,0.0,null],[133.36087,-2.64322,0.0,null],[133.35957,-2.61532,0.0,null],[133.35327,-2.59642,0.0,null],[133.34347,-2.57442,0.0,null],[133.34247,-2.56802,0.0,null],[133.33517,-2.55022,0.0,null],[133.32897,-2.54312,0.0,null],[133.30497,-2.52612,0.0,null],[133.29407,-2.50792,0.0,null],[133.29287,-2.50392,0.0,null],[133.27597,-2.47752,0.0,null],[133.25897,-2.46082,0.0,null],[133.24347,-2.45432,0.0,null],[133.20527,-2.46172,0.0,null],[133.17668,-2.46998,0.0,null],[133.17856,-2.47251,0.0,null],[133.17679,-2.47394,0.0,null],[133.1772,-2.47492,0.0,null],[133.17707,-2.47869,0.0,null],[133.17448,-2.47982,0.0,null],[133.15037,-2.48006,0.0,null],[133.13687,-2.48512,0.0,null],[133.12807,-2.48712,0.0,null],[133.11257,-2.48262,0.0,null],[133.09827,-2.47052,0.0,null],[133.09827,-2.46097,0.0,null],[133.09174,-2.46193,0.0,null],[133.08713,-2.46197,0.0,null],[133.08291,-2.46346,0.0,null],[133.08108,-2.46487,0.0,null],[133.07713,-2.47068,0.0,null],[133.06802,-2.48023,0.0,null],[133.05961,-2.48422,0.0,null],[133.05662,-2.48622,0.0,null],[133.05409,-2.48683,0.0,null],[133.05403,-2.48805,0.0,null],[133.05273,-2.48742,0.0,null],[133.04756,-2.49203,0.0,null],[133.04596,-2.49281,0.0,null],[133.04086,-2.49761,0.0,null],[133.0386,-2.50215,0.0,null],[133.03876,-2.50408,0.0,null],[133.0368,-2.50649,0.0,null],[133.03395,-2.51223,0.0,null],[133.02876,-2.52064,0.0,null],[133.02439,-2.52663,0.0,null],[133.02344,-2.52684,0.0,null],[133.01748,-2.5348,0.0,null],[133.01409,-2.53799,0.0,null],[133.00447,-2.55377,0.0,null],[133.00236,-2.55538,0.0,null],[133.00405,-2.55708,0.0,null],[133.00226,-2.55698,0.0,null],[133.00122,-2.55765,0.0,null],[132.99458,-2.56435,0.0,null],[132.98468,-2.57765,0.0,null],[132.98447,-2.5781,0.0,null],[132.9853,-2.57897,0.0,null],[132.98309,-2.58002,0.0,null],[132.97806,-2.58599,0.0,null],[132.96803,-2.59971,0.0,null],[132.96791,-2.60056,0.0,null],[132.9668,-2.60097,0.0,null],[132.96336,-2.60466,0.0,null],[132.95903,-2.61045,0.0,null],[132.94728,-2.62174,0.0,null],[132.941,-2.62611,0.0,null],[132.93594,-2.63084,0.0,null],[132.9332,-2.63439,0.0,null],[132.932,-2.63713,0.0,null],[132.93134,-2.64172,0.0,null],[132.93276,-2.64203,0.0,null],[132.93585,-2.64115,0.0,null],[132.93624,-2.63641,0.0,null],[132.93753,-2.63507,0.0,null],[132.93986,-2.63452,0.0,null],[132.93989,-2.63123,0.0,null],[132.94121,-2.62999,0.0,null],[132.94252,-2.63015,0.0,null],[132.9433,-2.63149,0.0,null],[132.94153,-2.63548,0.0,null],[132.94224,-2.63596,0.0,null],[132.94435,-2.63585,0.0,null],[132.94505,-2.63663,0.0,null],[132.9446,-2.63788,0.0,null],[132.94216,-2.63899,0.0,null],[132.94198,-2.63975,0.0,null],[132.94485,-2.64088,0.0,null],[132.94577,-2.64027,0.0,null],[132.94703,-2.63802,0.0,null],[132.94853,-2.6379,0.0,null],[132.94978,-2.63938,0.0,null],[132.94777,-2.64076,0.0,null],[132.949,-2.64147,0.0,null],[132.95062,-2.64151,0.0,null],[132.95123,-2.64216,0.0,null],[132.95142,-2.6429,0.0,null],[132.95058,-2.64446,0.0,null],[132.95349,-2.64441,0.0,null],[132.95458,-2.64513,0.0,null],[132.95432,-2.646,0.0,null],[132.95218,-2.64587,0.0,null],[132.9497,-2.64785,0.0,null],[132.94915,-2.64883,0.0,null],[132.94959,-2.64952,0.0,null],[132.9515,-2.64849,0.0,null],[132.95325,-2.64848,0.0,null],[132.95653,-2.64573,0.0,null],[132.95728,-2.64588,0.0,null],[132.95871,-2.64789,0.0,null],[132.95934,-2.64787,0.0,null],[132.95943,-2.64564,0.0,null],[132.96027,-2.64336,0.0,null],[132.96166,-2.64405,0.0,null],[132.96275,-2.64624,0.0,null],[132.96342,-2.64633,0.0,null],[132.96407,-2.64462,0.0,null],[132.96705,-2.64302,0.0,null],[132.96731,-2.64025,0.0,null],[132.96908,-2.63936,0.0,null],[132.96969,-2.63758,0.0,null],[132.97114,-2.63731,0.0,null],[132.97151,-2.6389,0.0,null],[132.97387,-2.64076,0.0,null],[132.97527,-2.64087,0.0,null],[132.97687,-2.64379,0.0,null],[132.97665,-2.6445,0.0,null],[132.97514,-2.64547,0.0,null],[132.97209,-2.64563,0.0,null],[132.97241,-2.64993,0.0,null],[132.97109,-2.65276,0.0,null],[132.97184,-2.65436,0.0,null],[132.97425,-2.65522,0.0,null],[132.97543,-2.65643,0.0,null],[132.97589,-2.65926,0.0,null],[132.97966,-2.65863,0.0,null],[132.98321,-2.6552,0.0,null],[132.98716,-2.65726,0.0,null],[132.98882,-2.65608,0.0,null],[132.9893,-2.65728,0.0,null],[132.98887,-2.66314,0.0,null],[132.99022,-2.66427,0.0,null],[132.98889,-2.66557,0.0,null],[132.98746,-2.66613,0.0,null],[132.98564,-2.66555,0.0,null],[132.98239,-2.6655,0.0,null],[132.98064,-2.66479,0.0,null],[132.97797,-2.66615,0.0,null],[132.9769,-2.66742,0.0,null],[132.97509,-2.66747,0.0,null],[132.97513,-2.67266,0.0,null],[132.97567,-2.67449,0.0,null],[132.97724,-2.67582,0.0,null],[132.979,-2.67588,0.0,null],[132.98128,-2.67853,0.0,null],[132.98683,-2.67225,0.0,null],[132.99649,-2.66286,0.0,null],[133.00268,-2.65499,0.0,null],[133.01416,-2.63834,0.0,null],[133.10924,-2.73254,0.0,null],[133.11867,-2.73722,0.0,null],[133.11905,-2.71762,0.0,null],[133.03326,-2.62317,0.0,null],[133.05137,-2.60952,0.0,null]]]}},{"type":"Feature","properties":{"inventoryId":"big-forestry-hti:292","sector":"PBPH","subtype":"IUPHHK-HTI","quality":"OFFICIAL","sourceDataset":"big-forestry-hti","sourceRecordId":"292","source":"BIG Kebijakan Satu Peta","sourceUrl":"https://kspservices.big.go.id/satupeta/rest/services/PUBLIK/PERIZINAN_DAN_PERTANAHAN/MapServer/2","retrievedAt":"2026-08-28T06:57:32Z","geometryProcessing":"web display simplification tolerance 0.00035 degrees","name":"PT MEDCOPAPUA ALAM LESTARI","permitNumber":"SK.2/1/IUPHHK-HTI/PMA/2017","permitDate":"2017-05-02","areaHa":68300.0,"provinceCode":"92","region":"papua"},"geometry":{"type":"Polygon","coordinates":[[[139.86354,-7.43906,0.0,null],[139.85847,-7.43977,0.0,null],[139.85583,-7.44148,0.0,null],[139.85483,-7.44127,0.0,null],[139.85419,-7.43941,0.0,null],[139.85605,-7.43577,0.0,null],[139.65414,-7.42972,0.0,null],[139.65548,-7.49945,0.0,null],[139.76186,-7.49904,0.0,null],[139.7642,-7.87937,0.0,null],[140.02262,-7.87885,0.0,null],[140.02259,-7.82706,0.0,null],[139.93929,-7.82685,0.0,null],[139.92728,-7.76396,0.0,null],[139.96216,-7.74924,0.0,null],[139.9623,-7.72063,0.0,null],[139.80964,-7.72224,0.0,null],[139.80682,-7.52638,0.0,null],[139.84435,-7.52565,0.0,null],[139.84443,-7.45087,0.0,null],[139.85641,-7.45078,0.0,null],[139.86083,-7.44491,0.0,null],[139.86354,-7.43906,0.0,null]],[[139.80204,-7.83424,0.0,null],[139.79631,-7.83246,0.0,null],[139.78688,-7.82724,0.0,null],[139.78606,-7.82257,0.0,null],[139.78671,-7.81911,0.0,null],[139.78864,-7.81616,0.0,null],[139.7909,-7.81435,0.0,null],[139.79211,-7.81527,0.0,null],[139.80999,-7.8224,0.0,null],[139.80928,-7.828,0.0,null],[139.80763,-7.83185,0.0,null],[139.80459,-7.83502,0.0,null],[139.80204,-7.83424,0.0,null]]]}},{"type":"Feature","properties":{"inventoryId":"big-forestry-hti:288","sector":"PBPH","subtype":"IUPHHK-HTI","quality":"OFFICIAL","sourceDataset":"big-forestry-hti","sourceRecordId":"288","source":"BIG Kebijakan Satu Peta","sourceUrl":"https://kspservices.big.go.id/satupeta/rest/services/PUBLIK/PERIZINAN_DAN_PERTANAHAN/MapServer/2","retrievedAt":"2026-08-28T06:57:32Z","geometryProcessing":"web display simplification tolerance 0.00035 degrees","name":"PT PLASMA NUFTAH MARIND PAPUA","permitNumber":"SK.624/Menhut-VI/2009","permitDate":"2011-11-14","areaHa":64050.0,"provinceCode":"92","region":"papua"},"geometry":{"type":"Polygon","coordinates":[[[140.02262,-7.87885,0.0,null],[139.7642,-7.87937,0.0,null],[139.76671,-7.97933,0.0,null],[139.50018,-7.98254,0.0,null],[139.50013,-8.00106,0.0,null],[139.50167,-8.02445,0.0,null],[139.50755,-8.02856,0.0,null],[139.50887,-8.03007,0.0,null],[139.50997,-8.02913,0.0,null],[139.5211,-8.03372,0.0,null],[139.53054,-8.03609,0.0,null],[139.54902,-8.03798,0.0,null],[139.56583,-8.03891,0.0,null],[139.58903,-8.03855,0.0,null],[139.60323,-8.04035,0.0,null],[139.61098,-8.04076,0.0,null],[139.62395,-8.03883,0.0,null],[139.63069,-8.03667,0.0,null],[139.64066,-8.03504,0.0,null],[139.64668,-8.03336,0.0,null],[139.66471,-8.02987,0.0,null],[139.67271,-8.02723,0.0,null],[139.69336,-8.02219,0.0,null],[139.70653,-8.02165,0.0,null],[139.72232,-8.02302,0.0,null],[139.73373,-8.02241,0.0,null],[139.74504,-8.02114,0.0,null],[139.75435,-8.01892,0.0,null],[139.76584,-8.01735,0.0,null],[139.77919,-8.01688,0.0,null],[139.79281,-8.01424,0.0,null],[139.80075,-8.01387,0.0,null],[139.80828,-8.01524,0.0,null],[139.82045,-8.01879,0.0,null],[139.83703,-8.02142,0.0,null],[139.84258,-8.02165,0.0,null],[139.86967,-8.02022,0.0,null],[139.87715,-8.02105,0.0,null],[139.8859,-8.02434,0.0,null],[139.90499,-8.03337,0.0,null],[139.91674,-8.03672,0.0,null],[139.92197,-8.03773,0.0,null],[139.93539,-8.03768,0.0,null],[139.97197,-8.04367,0.0,null],[139.98472,-8.04512,0.0,null],[139.98655,-8.04092,0.0,null],[140.02976,-8.02615,0.0,null],[140.03966,-7.9633,0.0,null],[140.0448,-7.94413,0.0,null],[140.02383,-7.94399,0.0,null],[140.02262,-7.87885,0.0,null]]]}},{"type":"Feature","properties":{"inventoryId":"big-forestry-hti:283","sector":"PBPH","subtype":"IUPHHK-HTI","quality":"OFFICIAL","sourceDataset":"big-forestry-hti","sourceRecordId":"283","source":"BIG Kebijakan Satu Peta","sourceUrl":"https://kspservices.big.go.id/satupeta/rest/services/PUBLIK/PERIZINAN_DAN_PERTANAHAN/MapServer/2","retrievedAt":"2026-08-28T06:57:32Z","geometryProcessing":"web display simplification tolerance 0.00035 degrees","name":"PT SELARAS INTI SEMESTA","permitNumber":"SK.18/MENHUT-II/2009","permitDate":"2009-01-22","areaHa":169400.0,"provinceCode":"92","region":"papua"},"geometry":{"type":"MultiPolygon","coordinates":[[[[140.32995,-7.47347,0.0,null],[140.32696,-7.47086,0.0,null],[140.32324,-7.46892,0.0,null],[140.32169,-7.46748,0.0,null],[140.32121,-7.46588,0.0,null],[140.32296,-7.46296,0.0,null],[140.32264,-7.46124,0.0,null],[140.31954,-7.45639,0.0,null],[140.31699,-7.45364,0.0,null],[140.31381,-7.45227,0.0,null],[140.30907,-7.45409,0.0,null],[140.30399,-7.45821,0.0,null],[140.29813,-7.45996,0.0,null],[140.29655,-7.46118,0.0,null],[140.29581,-7.46228,0.0,null],[140.29577,-7.46378,0.0,null],[140.29792,-7.46789,0.0,null],[140.29777,-7.47145,0.0,null],[140.29654,-7.47307,0.0,null],[140.29525,-7.47356,0.0,null],[140.29376,-7.47362,0.0,null],[140.29121,-7.4727,0.0,null],[140.28912,-7.47373,0.0,null],[140.28794,-7.47939,0.0,null],[140.28803,-7.48359,0.0,null],[140.28698,-7.4865,0.0,null],[140.28546,-7.4879,0.0,null],[140.28208,-7.48878,0.0,null],[140.27984,-7.48754,0.0,null],[140.27941,-7.48567,0.0,null],[140.2806,-7.48302,0.0,null],[140.28071,-7.48123,0.0,null],[140.27975,-7.47997,0.0,null],[140.27794,-7.48019,0.0,null],[140.27715,-7.48108,0.0,null],[140.27704,-7.48541,0.0,null],[140.27767,-7.48775,0.0,null],[140.27676,-7.49031,0.0,null],[140.27434,-7.49142,0.0,null],[140.2689,-7.49002,0.0,null],[140.26699,-7.49082,0.0,null],[140.26469,-7.49275,0.0,null],[140.26267,-7.49501,0.0,null],[140.26331,-7.49832,0.0,null],[140.26305,-7.50065,0.0,null],[140.25695,-7.50747,0.0,null],[140.25485,-7.50844,0.0,null],[140.25278,-7.50813,0.0,null],[140.25187,-7.50719,0.0,null],[140.2514,-7.50546,0.0,null],[140.25326,-7.50163,0.0,null],[140.25623,-7.49987,0.0,null],[140.25771,-7.49823,0.0,null],[140.25812,-7.49656,0.0,null],[140.25701,-7.49564,0.0,null],[140.25542,-7.49601,0.0,null],[140.24851,-7.50104,0.0,null],[140.24254,-7.50363,0.0,null],[140.24117,-7.50545,0.0,null],[140.24161,-7.50778,0.0,null],[140.24308,-7.51038,0.0,null],[140.24408,-7.51506,0.0,null],[140.24513,-7.51697,0.0,null],[140.2466,-7.51735,0.0,null],[140.24886,-7.51369,0.0,null],[140.25158,-7.51316,0.0,null],[140.25411,-7.51457,0.0,null],[140.25653,-7.51861,0.0,null],[140.25657,-7.5208,0.0,null],[140.2541,-7.52254,0.0,null],[140.25184,-7.52236,0.0,null],[140.24939,-7.52016,0.0,null],[140.24782,-7.51949,0.0,null],[140.24592,-7.52004,0.0,null],[140.24454,-7.52203,0.0,null],[140.24453,-7.52384,0.0,null],[140.24647,-7.52601,0.0,null],[140.24718,-7.528,0.0,null],[140.24787,-7.53435,0.0,null],[140.25046,-7.53877,0.0,null],[140.25254,-7.54063,0.0,null],[140.2543,-7.54089,0.0,null],[140.25539,-7.54003,0.0,null],[140.25567,-7.5375,0.0,null],[140.2566,-7.53637,0.0,null],[140.25826,-7.53564,0.0,null],[140.25969,-7.53581,0.0,null],[140.26119,-7.53706,0.0,null],[140.26255,-7.54031,0.0,null],[140.26775,-7.54224,0.0,null],[140.26953,-7.54465,0.0,null],[140.26969,-7.54595,0.0,null],[140.26908,-7.54766,0.0,null],[140.26751,-7.54979,0.0,null],[140.26551,-7.55101,0.0,null],[140.26343,-7.55083,0.0,null],[140.26247,-7.55011,0.0,null],[140.26094,-7.54644,0.0,null],[140.25926,-7.54521,0.0,null],[140.25214,-7.54442,0.0,null],[140.25143,-7.54552,0.0,null],[140.25197,-7.5472,0.0,null],[140.25448,-7.54993,0.0,null],[140.25784,-7.55498,0.0,null],[140.2593,-7.55515,0.0,null],[140.26106,-7.55354,0.0,null],[140.26248,-7.55348,0.0,null],[140.26472,-7.55427,0.0,null],[140.26809,-7.5566,0.0,null],[140.26897,-7.55818,0.0,null],[140.26841,-7.5598,0.0,null],[140.26649,-7.56026,0.0,null],[140.26271,-7.55973,0.0,null],[140.26155,-7.5605,0.0,null],[140.26167,-7.56125,0.0,null],[140.26638,-7.56592,0.0,null],[140.27122,-7.56683,0.0,null],[140.27208,-7.56862,0.0,null],[140.27102,-7.57096,0.0,null],[140.27117,-7.57206,0.0,null],[140.27778,-7.57816,0.0,null],[140.28002,-7.57853,0.0,null],[140.28075,-7.57697,0.0,null],[140.28028,-7.57557,0.0,null],[140.27735,-7.57287,0.0,null],[140.27694,-7.56972,0.0,null],[140.27814,-7.56766,0.0,null],[140.28118,-7.56694,0.0,null],[140.28242,-7.568,0.0,null],[140.28251,-7.57225,0.0,null],[140.28402,-7.57455,0.0,null],[140.28595,-7.57506,0.0,null],[140.29173,-7.57386,0.0,null],[140.29489,-7.57387,0.0,null],[140.29638,-7.57497,0.0,null],[140.2981,-7.57777,0.0,null],[140.30485,-7.58479,0.0,null],[140.3064,-7.58605,0.0,null],[140.30813,-7.58631,0.0,null],[140.31014,-7.58495,0.0,null],[140.31118,-7.58268,0.0,null],[140.3105,-7.58155,0.0,null],[140.30734,-7.57932,0.0,null],[140.30563,-7.57666,0.0,null],[140.30536,-7.57504,0.0,null],[140.30626,-7.57394,0.0,null],[140.3099,-7.57397,0.0,null],[140.31381,-7.57252,0.0,null],[140.31694,-7.5722,0.0,null],[140.32279,-7.5727,0.0,null],[140.33106,-7.57156,0.0,null],[140.33334,-7.57257,0.0,null],[140.33294,-7.57503,0.0,null],[140.33089,-7.57792,0.0,null],[140.32917,-7.58789,0.0,null],[140.33458,-7.59845,0.0,null],[140.33735,-7.60225,0.0,null],[140.33797,-7.60463,0.0,null],[140.33673,-7.60654,0.0,null],[140.33297,-7.60881,0.0,null],[140.33189,-7.61373,0.0,null],[140.3305,-7.61679,0.0,null],[140.32578,-7.62032,0.0,null],[140.3246,-7.62181,0.0,null],[140.32433,-7.62309,0.0,null],[140.32484,-7.62396,0.0,null],[140.32818,-7.62418,0.0,null],[140.32872,-7.62575,0.0,null],[140.32616,-7.6262,0.0,null],[140.17569,-7.69625,0.0,null],[140.14868,-7.73348,0.0,null],[140.12565,-7.73117,0.0,null],[140.11677,-7.74084,0.0,null],[140.09822,-7.73324,0.0,null],[140.08707,-7.72317,0.0,null],[140.08776,-7.71203,0.0,null],[140.09464,-7.70855,0.0,null],[140.09941,-7.70378,0.0,null],[140.09437,-7.70028,0.0,null],[140.08482,-7.70495,0.0,null],[140.08175,-7.70537,0.0,null],[140.07676,-7.70505,0.0,null],[140.07347,-7.70224,0.0,null],[140.06488,-7.69179,0.0,null],[140.05066,-7.71062,0.0,null],[140.02522,-7.7106,0.0,null],[140.02501,-7.71172,0.0,null],[140.02264,-7.71173,0.0,null],[140.02262,-7.87885,0.0,null],[140.02383,-7.94399,0.0,null],[140.07099,-7.94429,0.0,null],[140.10474,-8.00418,0.0,null],[140.10365,-7.99086,0.0,null],[140.10444,-7.98662,0.0,null],[140.1073,-7.98208,0.0,null],[140.11342,-7.97626,0.0,null],[140.11579,-7.96471,0.0,null],[140.12743,-7.95169,0.0,null],[140.13216,-7.94439,0.0,null],[140.13394,-7.94084,0.0,null],[140.13434,-7.93689,0.0,null],[140.13592,-7.93086,0.0,null],[140.13996,-7.92337,0.0,null],[140.14351,-7.91834,0.0,null],[140.15121,-7.91321,0.0,null],[140.16453,-7.90709,0.0,null],[140.17055,-7.90482,0.0,null],[140.18614,-7.90038,0.0,null],[140.19255,-7.89782,0.0,null],[140.19541,-7.89594,0.0,null],[140.20123,-7.88963,0.0,null],[140.2038,-7.88548,0.0,null],[140.21317,-7.8771,0.0,null],[140.21662,-7.87226,0.0,null],[140.2186,-7.86841,0.0,null],[140.22291,-7.84829,0.0,null],[140.22116,-7.83273,0.0,null],[140.21672,-7.81702,0.0,null],[140.216,-7.81047,0.0,null],[140.21633,-7.80642,0.0,null],[140.21894,-7.79915,0.0,null],[140.22243,-7.79405,0.0,null],[140.22593,-7.79144,0.0,null],[140.2362,-7.7855,0.0,null],[140.23903,-7.78306,0.0,null],[140.24432,-7.77106,0.0,null],[140.24394,-7.76127,0.0,null],[140.24162,-7.75084,0.0,null],[140.24525,-7.74483,0.0,null],[140.24441,-7.74454,0.0,null],[140.24408,-7.74354,0.0,null],[140.24499,-7.74054,0.0,null],[140.24996,-7.7346,0.0,null],[140.2509,-7.73068,0.0,null],[140.25003,-7.72509,0.0,null],[140.24742,-7.71717,0.0,null],[140.24749,-7.70607,0.0,null],[140.24799,-7.70352,0.0,null],[140.25165,-7.70132,0.0,null],[140.25379,-7.70108,0.0,null],[140.25631,-7.70208,0.0,null],[140.26416,-7.70801,0.0,null],[140.2663,-7.71027,0.0,null],[140.29236,-7.66687,0.0,null],[140.29455,-7.65978,0.0,null],[140.29919,-7.65334,0.0,null],[140.30318,-7.65077,0.0,null],[140.30602,-7.65025,0.0,null],[140.30769,-7.65064,0.0,null],[140.31091,-7.65309,0.0,null],[140.31568,-7.65862,0.0,null],[140.33358,-7.6679,0.0,null],[140.36614,-7.6679,0.0,null],[140.40957,-7.72276,0.0,null],[140.49328,-7.72276,0.0,null],[140.49328,-7.79628,0.0,null],[140.49486,-7.79591,0.0,null],[140.52498,-7.80274,0.0,null],[140.52875,-7.79361,0.0,null],[140.53095,-7.78553,0.0,null],[140.52938,-7.7835,0.0,null],[140.52934,-7.78141,0.0,null],[140.53112,-7.77872,0.0,null],[140.53367,-7.77697,0.0,null],[140.53367,-7.77545,0.0,null],[140.53292,-7.77388,0.0,null],[140.53316,-7.77172,0.0,null],[140.53522,-7.76965,0.0,null],[140.53732,-7.76963,0.0,null],[140.53875,-7.76848,0.0,null],[140.54103,-7.76887,0.0,null],[140.54327,-7.76785,0.0,null],[140.54466,-7.76632,0.0,null],[140.5448,-7.76522,0.0,null],[140.54392,-7.76414,0.0,null],[140.54064,-7.76339,0.0,null],[140.54085,-7.76245,0.0,null],[140.54199,-7.76189,0.0,null],[140.54132,-7.76084,0.0,null],[140.54135,-7.75753,0.0,null],[140.53744,-7.7554,0.0,null],[140.53728,-7.74877,0.0,null],[140.53656,-7.74579,0.0,null],[140.52776,-7.71735,0.0,null],[140.5256,-7.70844,0.0,null],[140.51947,-7.69017,0.0,null],[140.5056,-7.63657,0.0,null],[140.50387,-7.63584,0.0,null],[140.5014,-7.63571,0.0,null],[140.4999,-7.63468,0.0,null],[140.49842,-7.63586,0.0,null],[140.49467,-7.63302,0.0,null],[140.49512,-7.63156,0.0,null],[140.49696,-7.63042,0.0,null],[140.49918,-7.62799,0.0,null],[140.49628,-7.62455,0.0,null],[140.4966,-7.62239,0.0,null],[140.49593,-7.62029,0.0,null],[140.49615,-7.61867,0.0,null],[140.49919,-7.61726,0.0,null],[140.49988,-7.61908,0.0,null],[140.49966,-7.61626,0.0,null],[140.49762,-7.60851,0.0,null],[140.49498,-7.60428,0.0,null],[140.49375,-7.60041,0.0,null],[140.44533,-7.60877,0.0,null],[140.4456,-7.61133,0.0,null],[140.44903,-7.62101,0.0,null],[140.44946,-7.63327,0.0,null],[140.43662,-7.64064,0.0,null],[140.42649,-7.6402,0.0,null],[140.42896,-7.62867,0.0,null],[140.42896,-7.62242,0.0,null],[140.42817,-7.61511,0.0,null],[140.42649,-7.61036,0.0,null],[140.42632,-7.58747,0.0,null],[140.42544,-7.58289,0.0,null],[140.42368,-7.57814,0.0,null],[140.41919,-7.57013,0.0,null],[140.41875,-7.56749,0.0,null],[140.41901,-7.563,0.0,null],[140.4206,-7.56062,0.0,null],[140.42491,-7.55868,0.0,null],[140.42755,-7.55842,0.0,null],[140.43442,-7.55912,0.0,null],[140.43503,-7.55833,0.0,null],[140.43468,-7.55639,0.0,null],[140.42966,-7.55287,0.0,null],[140.42931,-7.55014,0.0,null],[140.43345,-7.54715,0.0,null],[140.43732,-7.54583,0.0,null],[140.44366,-7.54178,0.0,null],[140.45009,-7.535,0.0,null],[140.45484,-7.52858,0.0,null],[140.44859,-7.52382,0.0,null],[140.42407,-7.53443,0.0,null],[140.41224,-7.53761,0.0,null],[140.40338,-7.53551,0.0,null],[140.38481,-7.52365,0.0,null],[140.3768,-7.51587,0.0,null],[140.37561,-7.516,0.0,null],[140.37419,-7.51514,0.0,null],[140.37187,-7.50964,0.0,null],[140.36874,-7.5065,0.0,null],[140.36764,-7.50436,0.0,null],[140.36762,-7.5,0.0,null],[140.36431,-7.49637,0.0,null],[140.35461,-7.49091,0.0,null],[140.35001,-7.48954,0.0,null],[140.34736,-7.48942,0.0,null],[140.34586,-7.4901,0.0,null],[140.34557,-7.49151,0.0,null],[140.34662,-7.49375,0.0,null],[140.34813,-7.49521,0.0,null],[140.35324,-7.49518,0.0,null],[140.35495,-7.49574,0.0,null],[140.35699,-7.49763,0.0,null],[140.35754,-7.50051,0.0,null],[140.35665,-7.5019,0.0,null],[140.35497,-7.50286,0.0,null],[140.35099,-7.50295,0.0,null],[140.35003,-7.50357,0.0,null],[140.34851,-7.50903,0.0,null],[140.34639,-7.51217,0.0,null],[140.34432,-7.51273,0.0,null],[140.34191,-7.5125,0.0,null],[140.34052,-7.51115,0.0,null],[140.34017,-7.50895,0.0,null],[140.34141,-7.50653,0.0,null],[140.34426,-7.5043,0.0,null],[140.34513,-7.50047,0.0,null],[140.34469,-7.49815,0.0,null],[140.34268,-7.49494,0.0,null],[140.34105,-7.4903,0.0,null],[140.33997,-7.48871,0.0,null],[140.33728,-7.48783,0.0,null],[140.33273,-7.48972,0.0,null],[140.32633,-7.48954,0.0,null],[140.32303,-7.48871,0.0,null],[140.32196,-7.48723,0.0,null],[140.32241,-7.48223,0.0,null],[140.32344,-7.48035,0.0,null],[140.32528,-7.48023,0.0,null],[140.32763,-7.48178,0.0,null],[140.32893,-7.48203,0.0,null],[140.3331,-7.48211,0.0,null],[140.335,-7.48128,0.0,null],[140.33449,-7.47879,0.0,null],[140.32995,-7.47347,0.0,null]]],[[[140.42137,-7.93284,0.0,null],[140.396,-7.93048,0.0,null],[140.38854,-7.92932,0.0,null],[140.38767,-7.9267,0.0,null],[140.2731,-7.92816,0.0,null],[140.25153,-7.94464,0.0,null],[140.24144,-7.95016,0.0,null],[140.23062,-7.94825,0.0,null],[140.21833,-7.94038,0.0,null],[140.20751,-7.93772,0.0,null],[140.1993,-7.93806,0.0,null],[140.18883,-7.94432,0.0,null],[140.17962,-8.01385,0.0,null],[140.18109,-8.01685,0.0,null],[140.21091,-8.02372,0.0,null],[140.22882,-8.02307,0.0,null],[140.24632,-8.0295,0.0,null],[140.28694,-8.04277,0.0,null],[140.30108,-8.04955,0.0,null],[140.30777,-8.05518,0.0,null],[140.30997,-8.06302,0.0,null],[140.30845,-8.06897,0.0,null],[140.30022,-8.0734,0.0,null],[140.28339,-8.0804,0.0,null],[140.25391,-8.16121,0.0,null],[140.32516,-8.16155,0.0,null],[140.33362,-8.10797,0.0,null],[140.4577,-8.13719,0.0,null],[140.4643,-8.08993,0.0,null],[140.42555,-8.08232,0.0,null],[140.42113,-8.00573,0.0,null],[140.42137,-7.93284,0.0,null]]],[[[140.59105,-8.11162,0.0,null],[140.61479,-8.05289,0.0,null],[140.6173,-8.01782,0.0,null],[140.5564,-8.01749,0.0,null],[140.55067,-8.06862,0.0,null],[140.55026,-8.07681,0.0,null],[140.53754,-8.08755,0.0,null],[140.52831,-8.14076,0.0,null],[140.62772,-8.15348,0.0,null],[140.6272,-8.10657,0.0,null],[140.60663,-8.12397,0.0,null],[140.59105,-8.11162,0.0,null]]],[[[140.49242,-7.82799,0.0,null],[140.49362,-7.82502,0.0,null],[140.46991,-7.8108,0.0,null],[140.47134,-7.80378,0.0,null],[140.44756,-7.80803,0.0,null],[140.44537,-7.87139,0.0,null],[140.44949,-7.8752,0.0,null],[140.45149,-7.87575,0.0,null],[140.4555,-7.87527,0.0,null],[140.46541,-7.8322,0.0,null],[140.4883,-7.83987,0.0,null],[140.49242,-7.82799,0.0,null]]]]}},{"type":"Feature","properties":{"inventoryId":"big-forestry-hti:284","sector":"PBPH","subtype":"IUPHHK-HTI","quality":"OFFICIAL","sourceDataset":"big-forestry-hti","sourceRecordId":"284","source":"BIG Kebijakan Satu Peta","sourceUrl":"https://kspservices.big.go.id/satupeta/rest/services/PUBLIK/PERIZINAN_DAN_PERTANAHAN/MapServer/2","retrievedAt":"2026-08-28T06:57:32Z","geometryProcessing":"web display simplification tolerance 0.00035 degrees","name":"PT WAHANA SAMUDERA SENTOSA","permitNumber":"SK.880/Menhut-II/2014","permitDate":"2014-09-29","areaHa":79000.0,"provinceCode":"92","region":"papua"},"geometry":{"type":"MultiPolygon","coordinates":[[[[139.54138,-7.45636,0.0,null],[139.53701,-7.45394,0.0,null],[139.53339,-7.45062,0.0,null],[139.52992,-7.44927,0.0,null],[139.526,-7.44399,0.0,null],[139.52373,-7.43936,0.0,null],[139.50273,-7.4387,0.0,null],[139.50196,-7.43782,0.0,null],[139.49344,-7.43982,0.0,null],[139.48242,-7.44533,0.0,null],[139.4729,-7.45084,0.0,null],[139.46188,-7.46287,0.0,null],[139.45487,-7.47489,0.0,null],[139.45189,-7.48415,0.0,null],[139.44774,-7.49986,0.0,null],[139.44615,-7.51177,0.0,null],[139.44604,-7.51763,0.0,null],[139.44674,-7.52447,0.0,null],[139.45192,-7.5462,0.0,null],[139.45348,-7.55781,0.0,null],[139.46468,-7.54948,0.0,null],[139.46832,-7.54825,0.0,null],[139.47362,-7.54289,0.0,null],[139.4741,-7.53897,0.0,null],[139.46915,-7.53382,0.0,null],[139.47197,-7.5321,0.0,null],[139.47657,-7.53485,0.0,null],[139.4809,-7.53533,0.0,null],[139.48351,-7.53416,0.0,null],[139.49045,-7.53251,0.0,null],[139.49079,-7.52901,0.0,null],[139.49574,-7.52935,0.0,null],[139.4997,-7.52728,0.0,null],[139.49623,-7.5233,0.0,null],[139.50025,-7.50601,0.0,null],[139.50689,-7.49153,0.0,null],[139.50991,-7.50239,0.0,null],[139.50448,-7.51305,0.0,null],[139.50448,-7.52149,0.0,null],[139.51876,-7.52491,0.0,null],[139.5274,-7.52049,0.0,null],[139.54108,-7.53079,0.0,null],[139.5479,-7.53466,0.0,null],[139.55273,-7.52965,0.0,null],[139.55369,-7.52414,0.0,null],[139.55528,-7.52115,0.0,null],[139.55528,-7.51697,0.0,null],[139.55389,-7.51438,0.0,null],[139.55528,-7.5098,0.0,null],[139.56803,-7.51179,0.0,null],[139.56982,-7.50642,0.0,null],[139.56743,-7.50283,0.0,null],[139.56604,-7.49845,0.0,null],[139.56882,-7.49348,0.0,null],[139.57608,-7.4933,0.0,null],[139.57807,-7.48984,0.0,null],[139.5837,-7.48798,0.0,null],[139.58281,-7.48194,0.0,null],[139.58686,-7.47369,0.0,null],[139.58865,-7.46771,0.0,null],[139.58993,-7.4674,0.0,null],[139.59717,-7.46925,0.0,null],[139.63174,-7.46919,0.0,null],[139.6409,-7.48173,0.0,null],[139.63991,-7.4828,0.0,null],[139.63551,-7.48422,0.0,null],[139.61297,-7.48275,0.0,null],[139.60227,-7.48731,0.0,null],[139.60904,-7.49666,0.0,null],[139.60645,-7.50741,0.0,null],[139.60068,-7.51239,0.0,null],[139.59331,-7.51179,0.0,null],[139.58893,-7.51598,0.0,null],[139.58595,-7.52115,0.0,null],[139.59411,-7.5323,0.0,null],[139.59968,-7.53748,0.0,null],[139.60586,-7.54066,0.0,null],[139.61143,-7.54265,0.0,null],[139.617,-7.54883,0.0,null],[139.61681,-7.55978,0.0,null],[139.62079,-7.56595,0.0,null],[139.6395,-7.56774,0.0,null],[139.64846,-7.57571,0.0,null],[139.65384,-7.58486,0.0,null],[139.66399,-7.58606,0.0,null],[139.66718,-7.59084,0.0,null],[139.6614,-7.59422,0.0,null],[139.65344,-7.59402,0.0,null],[139.65264,-7.6,0.0,null],[139.65444,-7.60497,0.0,null],[139.65264,-7.61433,0.0,null],[139.65563,-7.61692,0.0,null],[139.66718,-7.6203,0.0,null],[139.68052,-7.61294,0.0,null],[139.6851,-7.61433,0.0,null],[139.6837,-7.6201,0.0,null],[139.67574,-7.62269,0.0,null],[139.67713,-7.62588,0.0,null],[139.68569,-7.62448,0.0,null],[139.69597,-7.61439,0.0,null],[139.69747,-7.61122,0.0,null],[139.70575,-7.60845,0.0,null],[139.71398,-7.61279,0.0,null],[139.71341,-7.61668,0.0,null],[139.7114,-7.62258,0.0,null],[139.70971,-7.62502,0.0,null],[139.70042,-7.63111,0.0,null],[139.69242,-7.63363,0.0,null],[139.68676,-7.6387,0.0,null],[139.69342,-7.64512,0.0,null],[139.69485,-7.65583,0.0,null],[139.69651,-7.66225,0.0,null],[139.70484,-7.66938,0.0,null],[139.70627,-7.67747,0.0,null],[139.70436,-7.68104,0.0,null],[139.6958,-7.68461,0.0,null],[139.68415,-7.69388,0.0,null],[139.67463,-7.69674,0.0,null],[139.67439,-7.70554,0.0,null],[139.67867,-7.71101,0.0,null],[139.69271,-7.72005,0.0,null],[139.7008,-7.72266,0.0,null],[139.70603,-7.73075,0.0,null],[139.70294,-7.74241,0.0,null],[139.69675,-7.74645,0.0,null],[139.6889,-7.75858,0.0,null],[139.69437,-7.76381,0.0,null],[139.69604,-7.77047,0.0,null],[139.69342,-7.77642,0.0,null],[139.68676,-7.77594,0.0,null],[139.68034,-7.77452,0.0,null],[139.67749,-7.78665,0.0,null],[139.6763,-7.79521,0.0,null],[139.69675,-7.7945,0.0,null],[139.7065,-7.80544,0.0,null],[139.7153,-7.809,0.0,null],[139.71982,-7.81519,0.0,null],[139.71697,-7.82161,0.0,null],[139.71293,-7.82209,0.0,null],[139.70627,-7.82161,0.0,null],[139.70209,-7.82623,0.0,null],[139.70148,-7.8373,0.0,null],[139.70032,-7.8385,0.0,null],[139.69487,-7.84963,0.0,null],[139.72723,-7.88501,0.0,null],[139.73622,-7.91091,0.0,null],[139.71818,-7.93667,0.0,null],[139.69186,-7.94306,0.0,null],[139.61183,-7.95099,0.0,null],[139.59138,-7.98149,0.0,null],[139.76671,-7.97933,0.0,null],[139.7642,-7.87937,0.0,null],[139.76186,-7.49904,0.0,null],[139.65548,-7.49945,0.0,null],[139.65433,-7.44375,0.0,null],[139.65381,-7.44347,0.0,null],[139.55884,-7.44047,0.0,null],[139.55782,-7.44519,0.0,null],[139.55601,-7.44957,0.0,null],[139.553,-7.45334,0.0,null],[139.54757,-7.45651,0.0,null],[139.54138,-7.45636,0.0,null]],[[139.73619,-7.59083,0.0,null],[139.73199,-7.5895,0.0,null],[139.7279,-7.5855,0.0,null],[139.72564,-7.58151,0.0,null],[139.72574,-7.57577,0.0,null],[139.72656,-7.57291,0.0,null],[139.72943,-7.56912,0.0,null],[139.73455,-7.56676,0.0,null],[139.73865,-7.56584,0.0,null],[139.74306,-7.56584,0.0,null],[139.74746,-7.56481,0.0,null],[139.75186,-7.56594,0.0,null],[139.75658,-7.56891,0.0,null],[139.7577,-7.57198,0.0,null],[139.75616,-7.58001,0.0,null],[139.75258,-7.58284,0.0,null],[139.74992,-7.58765,0.0,null],[139.7448,-7.59134,0.0,null],[139.7408,-7.59155,0.0,null],[139.73619,-7.59083,0.0,null]],[[139.74172,-7.7644,0.0,null],[139.74083,-7.76222,0.0,null],[139.74076,-7.75916,0.0,null],[139.73695,-7.75548,0.0,null],[139.73722,-7.75221,0.0,null],[139.73858,-7.7501,0.0,null],[139.74747,-7.74997,0.0,null],[139.74955,-7.76447,0.0,null],[139.74172,-7.7644,0.0,null]],[[139.60971,-7.96245,0.0,null],[139.61548,-7.96091,0.0,null],[139.61775,-7.96128,0.0,null],[139.61691,-7.96235,0.0,null],[139.61127,-7.96365,0.0,null],[139.60947,-7.96496,0.0,null],[139.60957,-7.96592,0.0,null],[139.6169,-7.96558,0.0,null],[139.61702,-7.96642,0.0,null],[139.61606,-7.9675,0.0,null],[139.61557,-7.96953,0.0,null],[139.61269,-7.96868,0.0,null],[139.61137,-7.9676,0.0,null],[139.60849,-7.96783,0.0,null],[139.60753,-7.96866,0.0,null],[139.60728,-7.97129,0.0,null],[139.61015,-7.97166,0.0,null],[139.60991,-7.97286,0.0,null],[139.60847,-7.97357,0.0,null],[139.60548,-7.97236,0.0,null],[139.604,-7.973,0.0,null],[139.604,-7.96464,0.0,null],[139.60544,-7.96309,0.0,null],[139.60611,-7.96423,0.0,null],[139.60971,-7.96245,0.0,null]],[[139.7439,-7.83217,0.0,null],[139.74127,-7.83117,0.0,null],[139.74289,-7.82442,0.0,null],[139.7469,-7.82492,0.0,null],[139.74592,-7.8325,0.0,null],[139.7439,-7.83217,0.0,null]]],[[[139.62406,-7.69721,0.0,null],[139.62305,-7.69646,0.0,null],[139.62363,-7.69542,0.0,null],[139.62318,-7.69356,0.0,null],[139.62128,-7.69579,0.0,null],[139.62267,-7.69767,0.0,null],[139.62251,-7.69862,0.0,null],[139.62198,-7.69881,0.0,null],[139.61977,-7.69763,0.0,null],[139.61925,-7.69674,0.0,null],[139.62038,-7.69576,0.0,null],[139.6199,-7.6948,0.0,null],[139.61817,-7.69373,0.0,null],[139.6131,-7.69818,0.0,null],[139.60701,-7.70474,0.0,null],[139.5915,-7.71166,0.0,null],[139.5819,-7.71461,0.0,null],[139.57479,-7.71941,0.0,null],[139.57193,-7.722,0.0,null],[139.55374,-7.71757,0.0,null],[139.55291,-7.71526,0.0,null],[139.55042,-7.71369,0.0,null],[139.54949,-7.71517,0.0,null],[139.55079,-7.71674,0.0,null],[139.54949,-7.71895,0.0,null],[139.54608,-7.71655,0.0,null],[139.54571,-7.71443,0.0,null],[139.54368,-7.71231,0.0,null],[139.54045,-7.71471,0.0,null],[139.54562,-7.71905,0.0,null],[139.54506,-7.72043,0.0,null],[139.53925,-7.71748,0.0,null],[139.53832,-7.71858,0.0,null],[139.54673,-7.72348,0.0,null],[139.54793,-7.72514,0.0,null],[139.54276,-7.72966,0.0,null],[139.54322,-7.73243,0.0,null],[139.54931,-7.74443,0.0,null],[139.55503,-7.75403,0.0,null],[139.56851,-7.78413,0.0,null],[139.57267,-7.79059,0.0,null],[139.57719,-7.79927,0.0,null],[139.58276,-7.80659,0.0,null],[139.59815,-7.80703,0.0,null],[139.59833,-7.80333,0.0,null],[139.59649,-7.79992,0.0,null],[139.5963,-7.7977,0.0,null],[139.59842,-7.79401,0.0,null],[139.60332,-7.79466,0.0,null],[139.60701,-7.79696,0.0,null],[139.61449,-7.80592,0.0,null],[139.62381,-7.80703,0.0,null],[139.62889,-7.80564,0.0,null],[139.6276,-7.80075,0.0,null],[139.62566,-7.79743,0.0,null],[139.62751,-7.79004,0.0,null],[139.62769,-7.78349,0.0,null],[139.63341,-7.77481,0.0,null],[139.63517,-7.76382,0.0,null],[139.62944,-7.7592,0.0,null],[139.62769,-7.72172,0.0,null],[139.63083,-7.7148,0.0,null],[139.62483,-7.7004,0.0,null],[139.62406,-7.69721,0.0,null]]],[[[139.52026,-7.6394,0.0,null],[139.52769,-7.63296,0.0,null],[139.53314,-7.62383,0.0,null],[139.55179,-7.62333,0.0,null],[139.55603,-7.62212,0.0,null],[139.55977,-7.61871,0.0,null],[139.55905,-7.61453,0.0,null],[139.55025,-7.60682,0.0,null],[139.55025,-7.58696,0.0,null],[139.54799,-7.58239,0.0,null],[139.54431,-7.58074,0.0,null],[139.542,-7.57342,0.0,null],[139.54277,-7.56655,0.0,null],[139.54271,-7.5595,0.0,null],[139.54189,-7.55609,0.0,null],[139.5393,-7.55279,0.0,null],[139.51999,-7.54613,0.0,null],[139.51267,-7.54553,0.0,null],[139.50568,-7.54987,0.0,null],[139.48455,-7.56049,0.0,null],[139.47119,-7.5719,0.0,null],[139.47129,-7.57364,0.0,null],[139.49,-7.6104,0.0,null],[139.49259,-7.61816,0.0,null],[139.50106,-7.63142,0.0,null],[139.50986,-7.64314,0.0,null],[139.52026,-7.6394,0.0,null]]]]}},{"type":"Feature","properties":{"inventoryId":"big-forestry-hti:286","sector":"PBPH","subtype":"IUPHHK-HTI","quality":"OFFICIAL","sourceDataset":"big-forestry-hti","sourceRecordId":"286","source":"BIG Kebijakan Satu Peta","sourceUrl":"https://kspservices.big.go.id/satupeta/rest/services/PUBLIK/PERIZINAN_DAN_PERTANAHAN/MapServer/2","retrievedAt":"2026-08-28T06:57:32Z","geometryProcessing":"web display simplification tolerance 0.00035 degrees","name":"PT WANAMULIA SUKSES SEJATI UNIT I & II","permitNumber":"3/1/IUPHHK-HTI/PMDN/2015","permitDate":"2015-03-31","areaHa":112245.0,"provinceCode":"92","region":"papua"},"geometry":{"type":"MultiPolygon","coordinates":[[[[140.25478,-7.51624,0.0,null],[140.25293,-7.51421,0.0,null],[140.25061,-7.51358,0.0,null],[140.24882,-7.51435,0.0,null],[140.24717,-7.51747,0.0,null],[140.24607,-7.51777,0.0,null],[140.24503,-7.51733,0.0,null],[140.24383,-7.51535,0.0,null],[140.24264,-7.51034,0.0,null],[140.24113,-7.50775,0.0,null],[140.24094,-7.50438,0.0,null],[140.24299,-7.5028,0.0,null],[140.24813,-7.50081,0.0,null],[140.25514,-7.49555,0.0,null],[140.25737,-7.49519,0.0,null],[140.25863,-7.49658,0.0,null],[140.25812,-7.49855,0.0,null],[140.25362,-7.50187,0.0,null],[140.25178,-7.50517,0.0,null],[140.2521,-7.50681,0.0,null],[140.2536,-7.50802,0.0,null],[140.25526,-7.50796,0.0,null],[140.25675,-7.50706,0.0,null],[140.2626,-7.5005,0.0,null],[140.26293,-7.499,0.0,null],[140.26234,-7.49507,0.0,null],[140.26526,-7.49159,0.0,null],[140.26875,-7.48955,0.0,null],[140.27442,-7.4909,0.0,null],[140.27661,-7.48972,0.0,null],[140.27723,-7.48816,0.0,null],[140.27657,-7.4846,0.0,null],[140.27676,-7.48045,0.0,null],[140.27737,-7.4798,0.0,null],[140.27941,-7.47938,0.0,null],[140.28119,-7.48099,0.0,null],[140.28146,-7.48068,0.0,null],[140.28455,-7.4747,0.0,null],[140.28885,-7.46869,0.0,null],[140.2907,-7.46275,0.0,null],[140.28026,-7.44231,0.0,null],[140.27669,-7.43724,0.0,null],[140.27424,-7.44031,0.0,null],[140.27018,-7.44191,0.0,null],[140.26564,-7.44363,0.0,null],[140.25864,-7.44412,0.0,null],[140.25864,-7.48176,0.0,null],[140.08846,-7.48176,0.0,null],[140.09648,-7.44508,0.0,null],[140.12704,-7.41142,0.0,null],[140.12704,-7.38917,0.0,null],[140.10226,-7.38917,0.0,null],[140.10141,-7.39889,0.0,null],[140.08353,-7.41029,0.0,null],[140.03874,-7.38039,0.0,null],[140.03022,-7.38038,0.0,null],[140.02128,-7.38973,0.0,null],[140.02128,-7.7106,0.0,null],[140.05066,-7.71062,0.0,null],[140.06488,-7.69179,0.0,null],[140.07347,-7.70224,0.0,null],[140.07676,-7.70505,0.0,null],[140.08175,-7.70537,0.0,null],[140.08482,-7.70495,0.0,null],[140.09437,-7.70028,0.0,null],[140.09941,-7.70378,0.0,null],[140.09464,-7.70855,0.0,null],[140.08776,-7.71203,0.0,null],[140.08707,-7.72317,0.0,null],[140.09822,-7.73324,0.0,null],[140.11677,-7.74084,0.0,null],[140.12565,-7.73117,0.0,null],[140.14868,-7.73348,0.0,null],[140.17569,-7.69625,0.0,null],[140.32616,-7.6262,0.0,null],[140.32872,-7.62575,0.0,null],[140.32845,-7.62497,0.0,null],[140.32453,-7.62443,0.0,null],[140.32378,-7.62357,0.0,null],[140.32374,-7.62231,0.0,null],[140.32536,-7.62004,0.0,null],[140.33033,-7.61613,0.0,null],[140.33256,-7.60846,0.0,null],[140.33375,-7.60717,0.0,null],[140.33643,-7.60589,0.0,null],[140.33748,-7.60424,0.0,null],[140.33691,-7.60251,0.0,null],[140.33247,-7.59587,0.0,null],[140.32864,-7.58774,0.0,null],[140.33029,-7.57741,0.0,null],[140.33276,-7.5741,0.0,null],[140.33273,-7.5729,0.0,null],[140.33102,-7.57204,0.0,null],[140.32237,-7.57331,0.0,null],[140.31611,-7.57275,0.0,null],[140.31031,-7.57457,0.0,null],[140.30633,-7.57457,0.0,null],[140.30599,-7.57567,0.0,null],[140.30662,-7.5773,0.0,null],[140.30783,-7.57899,0.0,null],[140.31128,-7.58143,0.0,null],[140.31179,-7.58273,0.0,null],[140.31089,-7.58504,0.0,null],[140.30954,-7.58641,0.0,null],[140.30792,-7.58699,0.0,null],[140.30607,-7.58654,0.0,null],[140.30479,-7.58556,0.0,null],[140.29781,-7.57846,0.0,null],[140.29472,-7.57446,0.0,null],[140.29038,-7.57463,0.0,null],[140.28593,-7.57563,0.0,null],[140.28363,-7.57496,0.0,null],[140.28213,-7.57283,0.0,null],[140.28182,-7.56835,0.0,null],[140.28115,-7.56749,0.0,null],[140.27823,-7.56826,0.0,null],[140.27737,-7.57074,0.0,null],[140.27822,-7.5729,0.0,null],[140.28108,-7.57574,0.0,null],[140.28118,-7.57793,0.0,null],[140.27955,-7.57919,0.0,null],[140.27756,-7.57855,0.0,null],[140.27085,-7.57243,0.0,null],[140.27053,-7.57054,0.0,null],[140.27151,-7.5685,0.0,null],[140.27099,-7.56729,0.0,null],[140.26625,-7.56631,0.0,null],[140.26248,-7.56308,0.0,null],[140.26105,-7.56117,0.0,null],[140.2611,-7.56003,0.0,null],[140.26253,-7.55922,0.0,null],[140.26655,-7.55988,0.0,null],[140.26794,-7.55962,0.0,null],[140.26848,-7.55855,0.0,null],[140.26788,-7.55722,0.0,null],[140.26629,-7.55579,0.0,null],[140.26249,-7.55393,0.0,null],[140.26139,-7.55394,0.0,null],[140.25919,-7.55574,0.0,null],[140.25769,-7.55541,0.0,null],[140.25393,-7.55008,0.0,null],[140.25225,-7.5487,0.0,null],[140.25118,-7.5466,0.0,null],[140.25095,-7.54487,0.0,null],[140.25209,-7.54393,0.0,null],[140.25982,-7.54488,0.0,null],[140.26121,-7.54604,0.0,null],[140.26317,-7.55013,0.0,null],[140.26498,-7.55067,0.0,null],[140.26756,-7.54915,0.0,null],[140.26919,-7.54592,0.0,null],[140.26865,-7.54385,0.0,null],[140.26756,-7.5427,0.0,null],[140.26215,-7.54058,0.0,null],[140.25973,-7.53628,0.0,null],[140.25696,-7.53669,0.0,null],[140.25625,-7.5376,0.0,null],[140.25619,-7.53949,0.0,null],[140.25551,-7.5408,0.0,null],[140.25326,-7.54137,0.0,null],[140.2502,-7.53923,0.0,null],[140.24742,-7.53419,0.0,null],[140.24652,-7.52716,0.0,null],[140.24395,-7.52388,0.0,null],[140.24414,-7.52158,0.0,null],[140.24564,-7.51955,0.0,null],[140.24789,-7.51906,0.0,null],[140.24947,-7.51961,0.0,null],[140.25252,-7.52219,0.0,null],[140.25512,-7.52171,0.0,null],[140.25621,-7.52043,0.0,null],[140.25622,-7.51957,0.0,null],[140.25478,-7.51624,0.0,null]]],[[[140.32218,-7.66238,0.0,null],[140.31568,-7.65862,0.0,null],[140.31091,-7.65309,0.0,null],[140.30769,-7.65064,0.0,null],[140.30602,-7.65025,0.0,null],[140.30318,-7.65077,0.0,null],[140.29919,-7.65334,0.0,null],[140.29455,-7.65978,0.0,null],[140.29236,-7.66687,0.0,null],[140.26374,-7.71423,0.0,null],[140.26743,-7.71564,0.0,null],[140.27243,-7.71655,0.0,null],[140.27504,-7.71536,0.0,null],[140.27571,-7.71333,0.0,null],[140.28141,-7.71359,0.0,null],[140.28239,-7.71677,0.0,null],[140.28194,-7.71924,0.0,null],[140.28038,-7.72276,0.0,null],[140.28035,-7.72536,0.0,null],[140.28153,-7.72674,0.0,null],[140.28548,-7.72708,0.0,null],[140.2863,-7.72851,0.0,null],[140.2867,-7.73216,0.0,null],[140.28751,-7.73288,0.0,null],[140.29016,-7.73313,0.0,null],[140.29248,-7.73188,0.0,null],[140.29481,-7.72879,0.0,null],[140.29566,-7.72567,0.0,null],[140.29486,-7.72321,0.0,null],[140.29338,-7.72166,0.0,null],[140.28784,-7.71946,0.0,null],[140.28566,-7.71696,0.0,null],[140.28501,-7.71487,0.0,null],[140.2849,-7.71141,0.0,null],[140.28588,-7.70616,0.0,null],[140.28761,-7.70118,0.0,null],[140.29478,-7.68782,0.0,null],[140.29637,-7.68378,0.0,null],[140.29829,-7.68202,0.0,null],[140.29806,-7.67976,0.0,null],[140.29996,-7.67518,0.0,null],[140.30494,-7.66788,0.0,null],[140.30802,-7.66501,0.0,null],[140.3117,-7.66344,0.0,null],[140.3138,-7.6636,0.0,null],[140.32512,-7.67337,0.0,null],[140.33598,-7.67919,0.0,null],[140.33971,-7.68041,0.0,null],[140.36183,-7.68515,0.0,null],[140.36612,-7.68718,0.0,null],[140.36827,-7.68914,0.0,null],[140.36103,-7.69695,0.0,null],[140.34093,-7.71489,0.0,null],[140.32782,-7.73013,0.0,null],[140.30108,-7.75673,0.0,null],[140.29081,-7.76942,0.0,null],[140.28089,-7.77735,0.0,null],[140.27292,-7.78578,0.0,null],[140.26519,-7.79241,0.0,null],[140.26115,-7.7972,0.0,null],[140.26034,-7.79902,0.0,null],[140.26059,-7.80046,0.0,null],[140.26725,-7.80368,0.0,null],[140.29248,-7.81383,0.0,null],[140.30228,-7.81944,0.0,null],[140.30667,-7.8229,0.0,null],[140.31252,-7.82493,0.0,null],[140.31969,-7.82916,0.0,null],[140.32223,-7.82948,0.0,null],[140.32552,-7.82829,0.0,null],[140.32842,-7.82588,0.0,null],[140.33656,-7.81628,0.0,null],[140.33968,-7.81143,0.0,null],[140.34101,-7.80816,0.0,null],[140.34209,-7.80314,0.0,null],[140.34223,-7.79801,0.0,null],[140.34154,-7.79036,0.0,null],[140.34215,-7.7875,0.0,null],[140.34379,-7.78482,0.0,null],[140.34665,-7.78337,0.0,null],[140.35524,-7.78286,0.0,null],[140.35761,-7.7838,0.0,null],[140.36357,-7.7884,0.0,null],[140.36883,-7.78765,0.0,null],[140.37376,-7.78526,0.0,null],[140.38226,-7.77596,0.0,null],[140.38489,-7.77116,0.0,null],[140.38676,-7.76538,0.0,null],[140.38718,-7.75197,0.0,null],[140.38783,-7.75003,0.0,null],[140.38931,-7.74877,0.0,null],[140.3989,-7.75073,0.0,null],[140.41656,-7.75322,0.0,null],[140.42229,-7.75508,0.0,null],[140.43157,-7.76003,0.0,null],[140.43529,-7.76291,0.0,null],[140.43947,-7.76783,0.0,null],[140.44153,-7.77284,0.0,null],[140.44169,-7.77611,0.0,null],[140.44073,-7.78038,0.0,null],[140.4386,-7.78531,0.0,null],[140.43581,-7.78976,0.0,null],[140.42726,-7.79911,0.0,null],[140.41615,-7.80997,0.0,null],[140.39336,-7.83546,0.0,null],[140.38302,-7.84499,0.0,null],[140.37082,-7.85756,0.0,null],[140.35765,-7.86991,0.0,null],[140.34895,-7.87921,0.0,null],[140.33845,-7.88893,0.0,null],[140.33346,-7.89524,0.0,null],[140.292,-7.92669,0.0,null],[140.29097,-7.92793,0.0,null],[140.38272,-7.92676,0.0,null],[140.38948,-7.90481,0.0,null],[140.39252,-7.89767,0.0,null],[140.39487,-7.89491,0.0,null],[140.40333,-7.89612,0.0,null],[140.40638,-7.8957,0.0,null],[140.42121,-7.88911,0.0,null],[140.43123,-7.88389,0.0,null],[140.43608,-7.88251,0.0,null],[140.43969,-7.88279,0.0,null],[140.44225,-7.88429,0.0,null],[140.4462,-7.88833,0.0,null],[140.44931,-7.88842,0.0,null],[140.44949,-7.8752,0.0,null],[140.44537,-7.87139,0.0,null],[140.44756,-7.80803,0.0,null],[140.47804,-7.80258,0.0,null],[140.49328,-7.79628,0.0,null],[140.49328,-7.72276,0.0,null],[140.40957,-7.72276,0.0,null],[140.36614,-7.6679,0.0,null],[140.33358,-7.6679,0.0,null],[140.32218,-7.66238,0.0,null]]],[[[140.25791,-7.7358,0.0,null],[140.25518,-7.7284,0.0,null],[140.24162,-7.75084,0.0,null],[140.24394,-7.76127,0.0,null],[140.24432,-7.77106,0.0,null],[140.23943,-7.78201,0.0,null],[140.2396,-7.80106,0.0,null],[140.24572,-7.79655,0.0,null],[140.24756,-7.79413,0.0,null],[140.2541,-7.77902,0.0,null],[140.26049,-7.76953,0.0,null],[140.26123,-7.76756,0.0,null],[140.26166,-7.76553,0.0,null],[140.26132,-7.76293,0.0,null],[140.25826,-7.76094,0.0,null],[140.25685,-7.75677,0.0,null],[140.25625,-7.75626,0.0,null],[140.25261,-7.75662,0.0,null],[140.25174,-7.75558,0.0,null],[140.25177,-7.75411,0.0,null],[140.25316,-7.75087,0.0,null],[140.25643,-7.7466,0.0,null],[140.25809,-7.74322,0.0,null],[140.25863,-7.7406,0.0,null],[140.25791,-7.7358,0.0,null]]]]}},{"type":"Feature","properties":{"inventoryId":"big-forestry-hti:291","sector":"PBPH","subtype":"IUPHHK-HTI","quality":"OFFICIAL","sourceDataset":"big-forestry-hti","sourceRecordId":"291","source":"BIG Kebijakan Satu Peta","sourceUrl":"https://kspservices.big.go.id/satupeta/rest/services/PUBLIK/PERIZINAN_DAN_PERTANAHAN/MapServer/2","retrievedAt":"2026-08-28T06:57:32Z","geometryProcessing":"web display simplification tolerance 0.00035 degrees","name":"PT WANAMULIA SUKSES SEJATI UNIT III","permitNumber":"SK.11/1/IUPHHK-HTI/PMDN/2017","permitDate":"2017-06-12","areaHa":99100.0,"provinceCode":"92","region":"papua"},"geometry":{"type":"Polygon","coordinates":[[[140.13732,-7.1083,0.0,null],[140.13722,-7.09906,0.0,null],[140.13273,-7.09906,0.0,null],[140.1339,-7.10184,0.0,null],[140.13315,-7.10332,0.0,null],[140.12669,-7.10643,0.0,null],[140.13075,-7.1084,0.0,null],[140.13054,-7.10993,0.0,null],[140.12688,-7.1114,0.0,null],[140.1239,-7.11128,0.0,null],[140.12237,-7.11281,0.0,null],[140.12003,-7.11182,0.0,null],[140.11955,-7.10942,0.0,null],[140.11887,-7.10867,0.0,null],[140.11366,-7.10965,0.0,null],[140.10776,-7.1149,0.0,null],[139.97523,-7.21408,0.0,null],[139.97361,-7.21714,0.0,null],[139.96846,-7.21912,0.0,null],[139.93893,-7.26625,0.0,null],[139.94093,-7.26785,0.0,null],[139.93597,-7.27721,0.0,null],[139.9273,-7.29642,0.0,null],[139.92032,-7.30312,0.0,null],[139.91653,-7.30778,0.0,null],[139.90983,-7.32031,0.0,null],[139.90499,-7.32784,0.0,null],[139.9055,-7.32806,0.0,null],[139.90386,-7.3296,0.0,null],[139.89674,-7.3398,0.0,null],[139.88917,-7.35378,0.0,null],[139.88682,-7.35959,0.0,null],[139.87389,-7.3991,0.0,null],[139.86989,-7.42421,0.0,null],[139.86354,-7.43906,0.0,null],[139.86083,-7.44491,0.0,null],[139.85641,-7.45078,0.0,null],[139.84443,-7.45087,0.0,null],[139.84435,-7.52565,0.0,null],[139.80682,-7.52638,0.0,null],[139.80964,-7.72224,0.0,null],[139.99804,-7.71999,0.0,null],[139.99815,-7.6722,0.0,null],[139.95216,-7.67209,0.0,null],[139.95259,-7.49176,0.0,null],[140.02128,-7.49192,0.0,null],[140.02128,-7.40296,0.0,null],[139.98879,-7.3901,0.0,null],[139.99427,-7.3684,0.0,null],[140.02429,-7.3133,0.0,null],[140.07137,-7.32244,0.0,null],[140.07483,-7.28669,0.0,null],[140.0754,-7.27371,0.0,null],[140.06787,-7.26365,0.0,null],[140.04431,-7.27174,0.0,null],[140.04436,-7.2437,0.0,null],[140.04578,-7.24263,0.0,null],[140.04649,-7.23955,0.0,null],[140.0832,-7.21132,0.0,null],[140.112,-7.20737,0.0,null],[140.11297,-7.20679,0.0,null],[140.11822,-7.22061,0.0,null],[140.11737,-7.22086,0.0,null],[140.12138,-7.22757,0.0,null],[140.1377,-7.22308,0.0,null],[140.13669,-7.21337,0.0,null],[140.13662,-7.20603,0.0,null],[140.13763,-7.20633,0.0,null],[140.14087,-7.20573,0.0,null],[140.14149,-7.19926,0.0,null],[140.13788,-7.1906,0.0,null],[140.1386,-7.18916,0.0,null],[140.14076,-7.18892,0.0,null],[140.14169,-7.1876,0.0,null],[140.143,-7.18823,0.0,null],[140.13972,-7.10822,0.0,null],[140.13733,-7.10913,0.0,null],[140.13732,-7.1083,0.0,null]]]}}]}
