{"type":"FeatureCollection","name":"meratus-papua-concession-inventory-mining","metadata":{"coverageId":"papua","parentCoverageId":"indonesia","generatedAt":"2026-08-31T08:53:33Z","pipelineVersion":"2","count":13,"sectors":["Tambang"],"qualities":["OFFICIAL"],"geometryNote":"Web-display geometry is simplified; consult source records for authoritative geometry.","evidenceNote":"A public concession record does not imply fire causation, illegality, or wrongdoing."},"features":[{"type":"Feature","properties":{"inventoryId":"big-mining-wiup:4346","sector":"Tambang","subtype":"WIUP","quality":"OFFICIAL","sourceDataset":"big-mining-wiup","sourceRecordId":"4346","source":"BIG Kebijakan Satu Peta","sourceUrl":"https://kspservices.big.go.id/satupeta/rest/services/PUBLIK/PERIZINAN_DAN_PERTANAHAN/MapServer/4","retrievedAt":"2026-08-31T08:53:33Z","geometryProcessing":"web display simplification tolerance 0.00035 degrees","name":"ABISHA BUMI PERSADA","issuer":"GUBERNUR","province":"PAPUA BARAT","district":"TELUK WONDAMA","permitNumber":"570/597/PTSP-I/VII/2019","permitType":"PT","miningType":"IUP","commodity":"EMAS","status":"2","validFrom":"2019-07-19","validTo":"2039-07-19","areaHa":23324.0,"location":"DISTRIK KURIWAMESA DAN DISTRIK NAIKERE","sourceRemark":"-","region":"papua"},"geometry":{"type":"Polygon","coordinates":[[[134.36667,-2.83361],[134.36667,-2.85],[134.38333,-2.85],[134.38333,-2.9225],[134.4075,-2.9225],[134.4075,-2.98667],[134.47722,-2.98667],[134.47722,-2.99722],[134.55833,-2.99722],[134.55833,-2.97083],[134.54333,-2.97083],[134.54333,-2.92528],[134.52778,-2.92528],[134.52778,-2.86389],[134.50417,-2.86389],[134.50417,-2.87417],[134.44444,-2.87417],[134.44444,-2.86389],[134.41944,-2.86389],[134.41944,-2.83361],[134.36667,-2.83361]]]}},{"type":"Feature","properties":{"inventoryId":"big-mining-wiup:882","sector":"Tambang","subtype":"WIUP","quality":"OFFICIAL","sourceDataset":"big-mining-wiup","sourceRecordId":"882","source":"BIG Kebijakan Satu Peta","sourceUrl":"https://kspservices.big.go.id/satupeta/rest/services/PUBLIK/PERIZINAN_DAN_PERTANAHAN/MapServer/4","retrievedAt":"2026-08-31T08:53:33Z","geometryProcessing":"web display simplification tolerance 0.00035 degrees","name":"ANUGERAH SURYA PRATAMA","issuer":"BUPATI","province":"PAPUA BARAT","district":"RAJA AMPAT","permitNumber":"1 TAHUN 2013","permitType":"PT","miningType":"IUP","commodity":"NIKEL","status":"2","validFrom":"2013-01-09","validTo":"2033-01-08","areaHa":9500.0,"location":"DISTRIK WAIGEO UTARA DAN WAIGEO TIMUR, KAB. RAJA AMPAT","sourceRemark":"-","region":"papua"},"geometry":{"type":"Polygon","coordinates":[[[130.91389,-0.03333],[130.91389,-0.05889],[130.94194,-0.05889],[130.94194,-0.07806],[131.02028,-0.07806],[131.02028,-0.09917],[131.05917,-0.09917],[131.05917,-0.12194],[131.11667,-0.12194],[131.11667,-0.15],[131.18333,-0.15],[131.18333,-0.1775],[131.26667,-0.1775],[131.26667,-0.19444],[131.3,-0.19444],[131.3,-0.22083],[131.30556,-0.22083],[131.30556,-0.2125],[131.31389,-0.2125],[131.31389,-0.19444],[131.30833,-0.19444],[131.30833,-0.17917],[131.3,-0.17917],[131.3,-0.17278],[131.26944,-0.17278],[131.26944,-0.16667],[131.1875,-0.16667],[131.1875,-0.14583],[131.12583,-0.14583],[131.12583,-0.09917],[131.11528,-0.09917],[131.11528,-0.07972],[131.09917,-0.07972],[131.09917,-0.07389],[130.95111,-0.07389],[130.95111,-0.04306],[130.93528,-0.04306],[130.93528,-0.04083],[130.91806,-0.04083],[130.91806,-0.03333],[130.91389,-0.03333]]]}},{"type":"Feature","properties":{"inventoryId":"big-mining-wiup:945","sector":"Tambang","subtype":"WIUP","quality":"OFFICIAL","sourceDataset":"big-mining-wiup","sourceRecordId":"945","source":"BIG Kebijakan Satu Peta","sourceUrl":"https://kspservices.big.go.id/satupeta/rest/services/PUBLIK/PERIZINAN_DAN_PERTANAHAN/MapServer/4","retrievedAt":"2026-08-31T08:53:33Z","geometryProcessing":"web display simplification tolerance 0.00035 degrees","name":"FREEPORT INDONESIA","issuer":"MENTERI","province":"PAPUA","district":"MIMIKA","permitNumber":"2053 K/30/MEM/2018","permitType":"PT","miningType":"IUPK","commodity":"TEMBAGA DMP","status":"2","validFrom":"2018-12-21","validTo":"2031-12-29","areaHa":9946.12,"location":"COW A. KAB. MIMIKA PROV. PAPUA","sourceRemark":"-","region":"papua"},"geometry":{"type":"Polygon","coordinates":[[[137.169,-4.12185],[137.16885,-4.08751],[137.15715,-4.08756],[137.15704,-4.06135],[137.14894,-4.06139],[137.14887,-4.04422],[137.13897,-4.04426],[137.13892,-4.0316],[137.05414,-4.03196],[137.05429,-4.0681],[137.07157,-4.06803],[137.07165,-4.08792],[137.07885,-4.08789],[137.07899,-4.12223],[137.169,-4.12185]]]}},{"type":"Feature","properties":{"inventoryId":"big-mining-wiup:846","sector":"Tambang","subtype":"WIUP","quality":"OFFICIAL","sourceDataset":"big-mining-wiup","sourceRecordId":"846","source":"BIG Kebijakan Satu Peta","sourceUrl":"https://kspservices.big.go.id/satupeta/rest/services/PUBLIK/PERIZINAN_DAN_PERTANAHAN/MapServer/4","retrievedAt":"2026-08-31T08:53:33Z","geometryProcessing":"web display simplification tolerance 0.00035 degrees","name":"IRIANA MUTIARA IDENBURG","issuer":"MENTERI","province":"PAPUA","district":"PEGUNUNGAN BINTANG,KEEROM","permitNumber":"458.K/30/DJB/2017","permitType":"PT","miningType":"KK","commodity":"EMAS","status":"1","validFrom":"2017-12-13","validTo":"2024-10-27","areaHa":95280.0,"location":"PAPUA","sourceRemark":"-","region":"papua"},"geometry":{"type":"Polygon","coordinates":[[[140.75,-3.88333],[140.75,-3.63333],[140.56667,-3.63333],[140.56667,-3.6],[140.43333,-3.6],[140.43333,-3.75],[140.45,-3.75],[140.45,-3.8],[140.5,-3.8],[140.5,-3.88333],[140.75,-3.88333]]]}},{"type":"Feature","properties":{"inventoryId":"big-mining-wiup:510","sector":"Tambang","subtype":"WIUP","quality":"OFFICIAL","sourceDataset":"big-mining-wiup","sourceRecordId":"510","source":"BIG Kebijakan Satu Peta","sourceUrl":"https://kspservices.big.go.id/satupeta/rest/services/PUBLIK/PERIZINAN_DAN_PERTANAHAN/MapServer/4","retrievedAt":"2026-08-31T08:53:33Z","geometryProcessing":"web display simplification tolerance 0.00035 degrees","name":"IRIANA MUTIARA MINING","issuer":"MENTERI","province":"PAPUA","district":"SARMI","permitNumber":"459.K/30/DJB/2017","permitType":"PT","miningType":"KK","commodity":"NIKEL","status":"1","validFrom":"2017-12-13","validTo":"2021-04-26","areaHa":16470.0,"location":"KABUPATEN SARMI, PAPUA","sourceRemark":"GEN VI","region":"papua"},"geometry":{"type":"Polygon","coordinates":[[[139.01667,-2.23333],[139.01667,-2.33333],[139.15,-2.33333],[139.15,-2.23333],[139.01667,-2.23333]]]}},{"type":"Feature","properties":{"inventoryId":"big-mining-wiup:1361","sector":"Tambang","subtype":"WIUP","quality":"OFFICIAL","sourceDataset":"big-mining-wiup","sourceRecordId":"1361","source":"BIG Kebijakan Satu Peta","sourceUrl":"https://kspservices.big.go.id/satupeta/rest/services/PUBLIK/PERIZINAN_DAN_PERTANAHAN/MapServer/4","retrievedAt":"2026-08-31T08:53:33Z","geometryProcessing":"web display simplification tolerance 0.00035 degrees","name":"KAWEI SEJAHTERA MINING","issuer":"BUPATI","province":"PAPUA BARAT","district":"RAJA AMPAT","permitNumber":"290 TAHUN 2013","permitType":"PT","miningType":"IUP","commodity":"BIJIH NIKEL","status":"2","validFrom":"2013-12-30","validTo":"2033-02-26","areaHa":5922.0,"location":"DESA WAISILIP, WAIGEO BARAT, RAJA AMPAT","sourceRemark":"-","region":"papua"},"geometry":{"type":"Polygon","coordinates":[[[130.08049,-0.00309],[130.08049,-0.00802],[130.09108,-0.00802],[130.09108,-0.01191],[130.09366,-0.01191],[130.09366,-0.02389],[130.09813,-0.02389],[130.09813,-0.0279],[130.10152,-0.0279],[130.10152,-0.03838],[130.08819,-0.03838],[130.08819,-0.08011],[130.10385,-0.08011],[130.10385,-0.10335],[130.14409,-0.10335],[130.14409,-0.07986],[130.15949,-0.07986],[130.15949,-0.05962],[130.15005,-0.05962],[130.15005,-0.04212],[130.11849,-0.04212],[130.11849,-0.02964],[130.13589,-0.02964],[130.13619,-0.01476],[130.1122,-0.01504],[130.1122,-0.00309],[130.08049,-0.00309]]]}},{"type":"Feature","properties":{"inventoryId":"big-mining-wiup:1475","sector":"Tambang","subtype":"WIUP","quality":"OFFICIAL","sourceDataset":"big-mining-wiup","sourceRecordId":"1475","source":"BIG Kebijakan Satu Peta","sourceUrl":"https://kspservices.big.go.id/satupeta/rest/services/PUBLIK/PERIZINAN_DAN_PERTANAHAN/MapServer/4","retrievedAt":"2026-08-31T08:53:33Z","geometryProcessing":"web display simplification tolerance 0.00035 degrees","name":"KUMAMBA MINING","issuer":"MENTERI","province":"PAPUA","district":"SARMI","permitNumber":"176.K/30/DJB/2018","permitType":"PT","miningType":"KK","commodity":"PASIR BESI DMP","status":"1","validFrom":"2018-01-19","validTo":"2019-01-19","areaHa":98805.0,"location":"JAYAPURA","sourceRemark":"GEN VI","region":"papua"},"geometry":{"type":"MultiPolygon","coordinates":[[[[138.69167,-1.93611],[138.725,-1.93611],[138.725,-1.88056],[138.73333,-1.88056],[138.73333,-1.84722],[138.725,-1.84722],[138.725,-1.83889],[138.71667,-1.83889],[138.71667,-1.83333],[138.70833,-1.83333],[138.70833,-1.82222],[138.7,-1.82222],[138.7,-1.81667],[138.69167,-1.81667],[138.69167,-1.80556],[138.68333,-1.80556],[138.68333,-1.8],[138.67778,-1.8],[138.67778,-1.79167],[138.66111,-1.79167],[138.66111,-1.78333],[138.63333,-1.78333],[138.63333,-1.775],[138.60556,-1.775],[138.60556,-1.77222],[138.58333,-1.77222],[138.58333,-1.76667],[138.55,-1.76667],[138.55,-1.75833],[138.51667,-1.75833],[138.51667,-1.75],[138.48333,-1.75],[138.48333,-1.74167],[138.43333,-1.74167],[138.43333,-1.73333],[138.40556,-1.73333],[138.40556,-1.725],[138.38333,-1.725],[138.38333,-1.71667],[138.35,-1.71667],[138.35,-1.70833],[138.33333,-1.70833],[138.33333,-1.7],[138.31389,-1.7],[138.31389,-1.69167],[138.29444,-1.69167],[138.29444,-1.68333],[138.28333,-1.68333],[138.28333,-1.67778],[138.25,-1.67778],[138.25,-1.66667],[138.23889,-1.66667],[138.23889,-1.66111],[138.21667,-1.66111],[138.21667,-1.65],[138.20833,-1.65],[138.20833,-1.64167],[138.19722,-1.64167],[138.19722,-1.70833],[138.25,-1.70833],[138.25,-1.71667],[138.29444,-1.71667],[138.29444,-1.73333],[138.31111,-1.73333],[138.31111,-1.75417],[138.34111,-1.75417],[138.34111,-1.78611],[138.35556,-1.78611],[138.35556,-1.79722],[138.39167,-1.79722],[138.39167,-1.80556],[138.41389,-1.80556],[138.41389,-1.81667],[138.51667,-1.81667],[138.51667,-1.82778],[138.55,-1.82778],[138.55,-1.83889],[138.57778,-1.83889],[138.57778,-1.85833],[138.61667,-1.85833],[138.61667,-1.88056],[138.57778,-1.88056],[138.57778,-1.9],[138.61667,-1.9],[138.61667,-1.91667],[138.69167,-1.91667],[138.69167,-1.93611]]],[[[139.275,-2.15833],[139.31111,-2.15833],[139.31111,-2.16667],[139.37222,-2.16667],[139.37222,-2.17889],[139.3925,-2.17889],[139.3925,-2.19167],[139.41389,-2.19167],[139.41389,-2.2],[139.425,-2.2],[139.425,-2.20833],[139.45,-2.20833],[139.45,-2.22778],[139.46667,-2.22778],[139.46667,-2.24167],[139.48333,-2.24167],[139.48333,-2.26667],[139.52778,-2.26667],[139.52778,-2.30833],[139.55,-2.30833],[139.55,-2.31667],[139.58056,-2.31667],[139.58056,-2.33333],[139.61944,-2.33333],[139.61944,-2.35556],[139.66389,-2.35556],[139.66389,-2.36667],[139.69167,-2.36667],[139.69167,-2.38333],[139.72778,-2.38333],[139.72778,-2.38889],[139.75,-2.38889],[139.75,-2.35],[139.73333,-2.35],[139.73333,-2.34444],[139.72222,-2.34444],[139.72222,-2.33333],[139.7,-2.33333],[139.7,-2.31667],[139.68333,-2.31667],[139.68333,-2.31111],[139.67222,-2.31111],[139.67222,-2.3],[139.65556,-2.3],[139.65556,-2.28889],[139.63333,-2.28889],[139.63333,-2.28333],[139.61111,-2.28333],[139.61111,-2.275],[139.58333,-2.275],[139.58333,-2.26667],[139.56944,-2.26667],[139.56944,-2.25556],[139.55,-2.25556],[139.55,-2.25],[139.53611,-2.25],[139.53611,-2.24167],[139.525,-2.24167],[139.525,-2.23333],[139.51667,-2.23333],[139.51667,-2.22778],[139.5,-2.22778],[139.5,-2.21667],[139.48333,-2.21667],[139.48333,-2.20833],[139.47222,-2.20833],[139.47222,-2.2],[139.45833,-2.2],[139.45833,-2.19167],[139.45,-2.19167],[139.45,-2.18333],[139.43333,-2.18333],[139.43333,-2.175],[139.41389,-2.175],[139.41389,-2.16667],[139.4,-2.16667],[139.4,-2.15833],[139.38056,-2.15833],[139.38056,-2.15],[139.35,-2.15],[139.35,-2.14167],[139.33611,-2.14167],[139.33611,-2.13333],[139.31111,-2.13333],[139.31111,-2.125],[139.28333,-2.125],[139.28333,-2.11667],[139.25556,-2.11667],[139.25556,-2.10833],[139.24722,-2.10833],[139.24722,-2.1],[139.225,-2.1],[139.225,-2.08889],[139.21111,-2.08889],[139.21111,-2.07778],[139.16528,-2.07778],[139.16528,-2.06389],[139.15389,-2.06389],[139.15389,-2.05722],[139.1375,-2.05722],[139.1375,-2.05],[139.13083,-2.05],[139.13083,-2.04333],[139.12222,-2.04333],[139.12222,-2.03639],[139.11472,-2.03639],[139.11472,-2.03333],[139.09639,-2.03333],[139.09639,-2.025],[139.08472,-2.025],[139.08472,-2.01889],[139.06806,-2.01889],[139.06806,-2.01111],[139.06389,-2.01111],[139.06389,-2.00556],[139.04444,-2.00556],[139.04444,-2.0],[139.03333,-2.0],[139.03333,-1.99167],[139.02222,-1.99167],[139.02222,-1.98056],[139.0,-1.98056],[139.0,-2.05],[139.01944,-2.05],[139.01944,-2.06667],[139.05,-2.06667],[139.05,-2.09167],[139.08056,-2.09167],[139.08056,-2.1],[139.1,-2.1],[139.1,-2.10833],[139.11944,-2.10833],[139.11944,-2.11944],[139.13611,-2.11944],[139.13611,-2.12778],[139.16111,-2.12778],[139.16111,-2.13889],[139.21667,-2.13889],[139.21667,-2.15],[139.275,-2.15],[139.275,-2.15833]]]]}},{"type":"Feature","properties":{"inventoryId":"big-mining-wiup:1455","sector":"Tambang","subtype":"WIUP","quality":"OFFICIAL","sourceDataset":"big-mining-wiup","sourceRecordId":"1455","source":"BIG Kebijakan Satu Peta","sourceUrl":"https://kspservices.big.go.id/satupeta/rest/services/PUBLIK/PERIZINAN_DAN_PERTANAHAN/MapServer/4","retrievedAt":"2026-08-31T08:53:33Z","geometryProcessing":"web display simplification tolerance 0.00035 degrees","name":"LION MULTI RESOURCES","issuer":"BUPATI","province":"PAPUA BARAT","district":"MANOKWARI","permitNumber":"143 A TAHUN 2010","permitType":"PT","miningType":"IUP","commodity":"ANTIMON DMP","status":"2","validFrom":"2010-07-15","validTo":"2030-07-15","areaHa":20490.0,"location":"MANOKWARI","sourceRemark":"-","region":"papua"},"geometry":{"type":"Polygon","coordinates":[[[133.8968,-1.50066],[133.918,-1.50066],[133.918,-1.51219],[134.093,-1.51219],[134.093,-1.50669],[134.096,-1.50669],[134.096,-1.44888],[134.076,-1.44888],[134.076,-1.42564],[133.8968,-1.42564],[133.8968,-1.50066]]]}},{"type":"Feature","properties":{"inventoryId":"big-mining-wiup:289","sector":"Tambang","subtype":"WIUP","quality":"OFFICIAL","sourceDataset":"big-mining-wiup","sourceRecordId":"289","source":"BIG Kebijakan Satu Peta","sourceUrl":"https://kspservices.big.go.id/satupeta/rest/services/PUBLIK/PERIZINAN_DAN_PERTANAHAN/MapServer/4","retrievedAt":"2026-08-31T08:53:33Z","geometryProcessing":"web display simplification tolerance 0.00035 degrees","name":"MEGAPURA PRIMA INDUSTRI","issuer":"GUBERNUR","province":"PAPUA BARAT","district":"SORONG","permitNumber":"570/45/PTSP-I/IV/2020","permitType":"PT","miningType":"IUP","commodity":"BATUBARA","status":"2","validFrom":"2020-04-09","validTo":"2030-02-23","areaHa":8587.0,"location":"KAMPUNG KLASARI DAN NINJEMUR, DISTRIK SALAWATI, KAB. SORONG","sourceRemark":"-","region":"papua"},"geometry":{"type":"Polygon","coordinates":[[[131.1042,-1.30106],[131.14551,-1.30106],[131.14551,-1.28073],[131.16984,-1.28073],[131.16984,-1.3015],[131.2207,-1.3015],[131.2207,-1.28912],[131.25652,-1.28912],[131.25652,-1.21441],[131.22733,-1.21401],[131.22725,-1.23275],[131.21053,-1.23273],[131.21053,-1.27454],[131.1548,-1.27454],[131.1548,-1.24801],[131.10438,-1.24801],[131.1042,-1.30106]]]}},{"type":"Feature","properties":{"inventoryId":"big-mining-wiup:4527","sector":"Tambang","subtype":"WIUP","quality":"OFFICIAL","sourceDataset":"big-mining-wiup","sourceRecordId":"4527","source":"BIG Kebijakan Satu Peta","sourceUrl":"https://kspservices.big.go.id/satupeta/rest/services/PUBLIK/PERIZINAN_DAN_PERTANAHAN/MapServer/4","retrievedAt":"2026-08-31T08:53:33Z","geometryProcessing":"web display simplification tolerance 0.00035 degrees","name":"RAJAPALA","issuer":"GUBERNUR","province":"PAPUA BARAT","district":"TELUK WONDAMA","permitNumber":"570/66/PTSP-I/II/2019","permitType":"PT","miningType":"IUP","commodity":"BATU KALI","status":"2","validFrom":"2019-02-25","validTo":"2024-02-25","areaHa":1.0,"location":"KAMPUNG ISEY, DISTRIK RASIEI","sourceRemark":"-","region":"papua"},"geometry":{"type":"Polygon","coordinates":[[[134.53001,-2.83701],[134.532,-2.83701],[134.532,-2.83656],[134.53001,-2.83656],[134.53001,-2.83701]]]}},{"type":"Feature","properties":{"inventoryId":"big-mining-wiup:2055","sector":"Tambang","subtype":"WIUP","quality":"OFFICIAL","sourceDataset":"big-mining-wiup","sourceRecordId":"2055","source":"BIG Kebijakan Satu Peta","sourceUrl":"https://kspservices.big.go.id/satupeta/rest/services/PUBLIK/PERIZINAN_DAN_PERTANAHAN/MapServer/4","retrievedAt":"2026-08-31T08:53:33Z","geometryProcessing":"web display simplification tolerance 0.00035 degrees","name":"SDIC INDONESIA","issuer":"BUPATI","province":"PAPUA BARAT","district":"MANOKWARI","permitNumber":"287 TAHUN 2014","permitType":"PT","miningType":"IUP","commodity":"GAMPING","status":"2","validFrom":"2014-07-15","validTo":"2034-07-15","areaHa":199.65,"location":"MANOKWARI SELATAN","sourceRemark":"-","region":"papua"},"geometry":{"type":"Polygon","coordinates":[[[134.02611,-0.98833],[134.02611,-0.9875],[134.025,-0.98694],[134.025,-0.98583],[134.02417,-0.98556],[134.02417,-0.98472],[134.02333,-0.98472],[134.02306,-0.98417],[134.02306,-0.98583],[134.02194,-0.98528],[134.02194,-0.98417],[134.02139,-0.98417],[134.02083,-0.98222],[134.01972,-0.98194],[134.01944,-0.98],[134.01861,-0.98],[134.01861,-0.97944],[134.01722,-0.97833],[134.01333,-0.97833],[134.01333,-0.97972],[134.00944,-0.98028],[134.00889,-0.98167],[134.00833,-0.98167],[134.00833,-0.98417],[134.00889,-0.98444],[134.01028,-0.98806],[134.01167,-0.98861],[134.01167,-0.98917],[134.01306,-0.98972],[134.01306,-0.99028],[134.01444,-0.99028],[134.015,-0.99111],[134.0175,-0.99167],[134.0175,-0.99222],[134.02083,-0.99222],[134.02222,-0.99278],[134.02222,-0.99333],[134.02722,-0.99333],[134.02694,-0.99222],[134.02639,-0.99222],[134.02611,-0.98833]]]}},{"type":"Feature","properties":{"inventoryId":"big-mining-wiup:3701","sector":"Tambang","subtype":"WIUP","quality":"OFFICIAL","sourceDataset":"big-mining-wiup","sourceRecordId":"3701","source":"BIG Kebijakan Satu Peta","sourceUrl":"https://kspservices.big.go.id/satupeta/rest/services/PUBLIK/PERIZINAN_DAN_PERTANAHAN/MapServer/4","retrievedAt":"2026-08-31T08:53:33Z","geometryProcessing":"web display simplification tolerance 0.00035 degrees","name":"TRI ABADI MINERAL","issuer":"GUBERNUR","province":"PAPUA BARAT","district":"MANOKWARI","permitNumber":"570/61/PTSP-I/VI/2020","permitType":"PT","miningType":"IUP","commodity":"BATU KALI","status":"2","validFrom":"2020-06-22","validTo":"2025-06-22","areaHa":9.1,"location":"DISTRIK MASNI, KAB. MANOKWARI","sourceRemark":"-","region":"papua"},"geometry":{"type":"Polygon","coordinates":[[[133.66132,-0.86996],[133.66132,-0.86771],[133.65952,-0.86771],[133.65952,-0.87124],[133.66229,-0.87124],[133.66229,-0.86996],[133.66132,-0.86996]]]}},{"type":"Feature","properties":{"inventoryId":"big-mining-wiup:1482","sector":"Tambang","subtype":"WIUP","quality":"OFFICIAL","sourceDataset":"big-mining-wiup","sourceRecordId":"1482","source":"BIG Kebijakan Satu Peta","sourceUrl":"https://kspservices.big.go.id/satupeta/rest/services/PUBLIK/PERIZINAN_DAN_PERTANAHAN/MapServer/4","retrievedAt":"2026-08-31T08:53:33Z","geometryProcessing":"web display simplification tolerance 0.00035 degrees","name":"TRIDENT GLOBAL GARMINDO","issuer":"GUBERNUR","province":"PAPUA","district":"NABIRE,DOGIYAI","permitNumber":"140 TAHUN 2017","permitType":"PT","miningType":"IUP","commodity":"EMAS","status":"1","validFrom":"2017-10-05","validTo":"2022-12-20","areaHa":17830.0,"location":"NABIRE DAN DOGIYAI","sourceRemark":"-","region":"papua"},"geometry":{"type":"Polygon","coordinates":[[[135.5479,-3.74597],[135.42806,-3.74597],[135.42806,-3.7625],[135.43389,-3.7625],[135.43389,-3.86944],[135.56222,-3.86944],[135.56222,-3.85],[135.5479,-3.85],[135.5479,-3.74597]]]}}]}
