{"type":"FeatureCollection","name":"meratus-papua-concession-inventory-oil-palm-gfw","metadata":{"coverageId":"papua","parentCoverageId":"indonesia","generatedAt":"2026-08-24T04:32:16Z","pipelineVersion":"2","count":24,"sectors":["Sawit"],"qualities":["GFW"],"geometryNote":"Web-display geometry is simplified; consult source records for authoritative geometry.","evidenceNote":"A public concession record does not imply fire causation, illegality, or wrongdoing."},"features":[{"type":"Feature","properties":{"inventoryId":"gfw-oil-palm:1278","sector":"Sawit","subtype":"Oil palm concession","quality":"GFW","sourceDataset":"gfw-oil-palm","sourceRecordId":"1278","source":"Global Forest Watch via BNPB InAWARE","sourceUrl":"https://gis.bnpb.go.id/server/rest/services/InAWARE/Global_forest_watch2/MapServer/6","retrievedAt":"2026-08-24T04:32:16Z","geometryProcessing":"web display simplification tolerance 0.00035 degrees","name":"DONGIN PRABHAWA","group":"No group","areaHa":33498.0,"hguAreaHa":0.0,"gfwId":"19a832ad-80f7-44b5-adbe-2c7f9f052eb8","upstreamSource":"varies","coverageCaveat":"GFW compilation; source dates and completeness vary and may be older than current permits.","region":"papua"},"geometry":{"type":"Polygon","coordinates":[[[139.5734,-7.33356],[139.56735,-7.33962],[139.56211,-7.34917],[139.55336,-7.3602],[139.54623,-7.36464],[139.53682,-7.36558],[139.53157,-7.36773],[139.53291,-7.37109],[139.53049,-7.40351],[139.53372,-7.40647],[139.53856,-7.41777],[139.53964,-7.42665],[139.86396,-7.43593],[139.86988,-7.41737],[139.87405,-7.38105],[139.86975,-7.37203],[139.78123,-7.3715],[139.75796,-7.31433],[139.74612,-7.31056],[139.72796,-7.31083],[139.70631,-7.31688],[139.69299,-7.32522],[139.67483,-7.34015],[139.65398,-7.36047],[139.63461,-7.37217],[139.62089,-7.3723],[139.60946,-7.36625],[139.59937,-7.35226],[139.59251,-7.33935],[139.58067,-7.32939],[139.5734,-7.33356]]]}},{"type":"Feature","properties":{"inventoryId":"gfw-oil-palm:1272","sector":"Sawit","subtype":"Oil palm concession","quality":"GFW","sourceDataset":"gfw-oil-palm","sourceRecordId":"1272","source":"Global Forest Watch via BNPB InAWARE","sourceUrl":"https://gis.bnpb.go.id/server/rest/services/InAWARE/Global_forest_watch2/MapServer/6","retrievedAt":"2026-08-24T04:32:16Z","geometryProcessing":"web display simplification tolerance 0.00035 degrees","name":"GAHARU PRIMA LESTARI","group":"No group","areaHa":29502.0,"hguAreaHa":0.0,"gfwId":"a0d68ebc-5da3-42f3-b790-4370a7ebb010","upstreamSource":"varies","coverageCaveat":"GFW compilation; source dates and completeness vary and may be older than current permits.","region":"papua"},"geometry":{"type":"Polygon","coordinates":[[[138.9834,-1.99034],[138.9834,-2.00281],[138.98292,-2.00728],[138.98306,-2.00952],[138.98463,-2.01252],[138.98425,-2.01552],[138.98263,-2.02008],[138.98164,-2.02184],[138.97987,-2.02313],[138.97869,-2.02679],[138.98026,-2.02998],[138.98297,-2.03284],[138.98273,-2.0346],[138.99034,-2.03574],[139.00067,-2.05901],[139.00581,-2.06829],[139.01024,-2.07786],[139.00143,-2.11141],[139.00381,-2.11174],[139.02432,-2.11855],[139.03275,-2.12074],[139.05035,-2.10346],[139.0593,-2.09661],[139.06101,-2.10008],[139.06523,-2.09781],[139.07262,-2.09824],[139.07462,-2.09906],[139.0774,-2.10181],[139.08179,-2.1103],[139.08265,-2.10948],[139.08208,-2.10687],[139.084,-2.10602],[139.08572,-2.10613],[139.08593,-2.10441],[139.08829,-2.09995],[139.08986,-2.09884],[139.09264,-2.09831],[139.09874,-2.09403],[139.10069,-2.09328],[139.14916,-2.11673],[139.16154,-2.12361],[139.17611,-2.13364],[139.18153,-2.13771],[139.18656,-2.14424],[139.1901,-2.14974],[139.19117,-2.15381],[139.19677,-2.16248],[139.20452,-2.16537],[139.20784,-2.16777],[139.21622,-2.17198],[139.23957,-2.18268],[139.25292,-2.19143],[139.27558,-2.20778],[139.28675,-2.21459],[139.30581,-2.22444],[139.31641,-2.23215],[139.33401,-2.24329],[139.33447,-2.24204],[139.33397,-2.23997],[139.33219,-2.23908],[139.33187,-2.23822],[139.33219,-2.23719],[139.33479,-2.23633],[139.33576,-2.2338],[139.33643,-2.23337],[139.33865,-2.23401],[139.34072,-2.23844],[139.34225,-2.2384],[139.34236,-2.23654],[139.34097,-2.23322],[139.33811,-2.23123],[139.33836,-2.22869],[139.33918,-2.22762],[139.34197,-2.22594],[139.34193,-2.22494],[139.33986,-2.22316],[139.33947,-2.22152],[139.34211,-2.21902],[139.34236,-2.21456],[139.34265,-2.21345],[139.34347,-2.21295],[139.34564,-2.21356],[139.34625,-2.21577],[139.34696,-2.21634],[139.34821,-2.21648],[139.34886,-2.21599],[139.34889,-2.21399],[139.34743,-2.21135],[139.34696,-2.20806],[139.34918,-2.20492],[139.35093,-2.20424],[139.35403,-2.20488],[139.35432,-2.20446],[139.35168,-2.20028],[139.351,-2.20021],[139.34946,-2.20146],[139.34696,-2.20096],[139.34322,-2.19871],[139.34307,-2.19753],[139.34329,-2.19664],[139.34807,-2.19243],[139.34893,-2.1905],[139.34928,-2.18754],[139.35282,-2.18343],[139.35285,-2.18222],[139.3521,-2.18119],[139.34821,-2.1804],[139.34786,-2.17883],[139.35,-2.17508],[139.35171,-2.17337],[139.35467,-2.17201],[139.35589,-2.17083],[139.35557,-2.16998],[139.35253,-2.16866],[139.35221,-2.16777],[139.35217,-2.1668],[139.35435,-2.1637],[139.35417,-2.16255],[139.35314,-2.16248],[139.35021,-2.16391],[139.34404,-2.15952],[139.33918,-2.15884],[139.33729,-2.15802],[139.3349,-2.15627],[139.33379,-2.15435],[139.33333,-2.15095],[139.33233,-2.14942],[139.3283,-2.14753],[139.31598,-2.14396],[139.30096,-2.14349],[139.27654,-2.13389],[139.27458,-2.13354],[139.2708,-2.13143],[139.26926,-2.13147],[139.26851,-2.13214],[139.26812,-2.13293],[139.26876,-2.1335],[139.26798,-2.13468],[139.2613,-2.1314],[139.26041,-2.13],[139.25581,-2.12711],[139.25177,-2.12322],[139.24853,-2.12222],[139.24663,-2.12101],[139.24471,-2.12104],[139.24314,-2.12037],[139.24264,-2.11908],[139.24342,-2.11798],[139.24271,-2.1178],[139.24174,-2.11637],[139.2421,-2.11366],[139.24107,-2.11294],[139.23428,-2.11262],[139.23157,-2.11048],[139.2285,-2.11023],[139.22465,-2.10752],[139.22265,-2.10737],[139.21965,-2.10595],[139.21337,-2.10502],[139.20976,-2.10538],[139.19727,-2.10398],[139.176,-2.1027],[139.15847,-2.09503],[139.15248,-2.09181],[139.13545,-2.081],[139.12767,-2.07686],[139.12268,-2.07325],[139.11454,-2.0613],[139.11093,-2.05708],[139.10604,-2.0533],[139.09244,-2.04684],[139.07339,-2.0286],[139.06432,-2.02389],[139.0318,-2.00187],[139.0231,-1.99926],[138.9834,-1.99034]]]}},{"type":"Feature","properties":{"inventoryId":"gfw-oil-palm:1273","sector":"Sawit","subtype":"Oil palm concession","quality":"GFW","sourceDataset":"gfw-oil-palm","sourceRecordId":"1273","source":"Global Forest Watch via BNPB InAWARE","sourceUrl":"https://gis.bnpb.go.id/server/rest/services/InAWARE/Global_forest_watch2/MapServer/6","retrievedAt":"2026-08-24T04:32:16Z","geometryProcessing":"web display simplification tolerance 0.00035 degrees","name":"LEMBAH GRIME PLANTATIONS","group":"No group","areaHa":6086.0,"hguAreaHa":0.0,"gfwId":"2206f630-12d4-4b1a-887a-cc69ebf7c322","upstreamSource":"varies","coverageCaveat":"GFW compilation; source dates and completeness vary and may be older than current permits.","region":"papua"},"geometry":{"type":"Polygon","coordinates":[[[140.02239,-2.39639],[140.02177,-2.39681],[140.0196,-2.39669],[140.02116,-2.39791],[140.02006,-2.39897],[140.02029,-2.39993],[140.01848,-2.40072],[140.01841,-2.40223],[140.0195,-2.40337],[140.01848,-2.40451],[140.01864,-2.40587],[140.02051,-2.40706],[140.02049,-2.40899],[140.0214,-2.40995],[140.02061,-2.41144],[140.02062,-2.41366],[140.02184,-2.41551],[140.02207,-2.41816],[140.02062,-2.41947],[140.02033,-2.42161],[140.01888,-2.42417],[140.01675,-2.42627],[140.0181,-2.4264],[140.01804,-2.42719],[140.01681,-2.42806],[140.01746,-2.42944],[140.01615,-2.43077],[140.01742,-2.43256],[140.01663,-2.43378],[140.01685,-2.43435],[140.01761,-2.43409],[140.01922,-2.43595],[140.01821,-2.43702],[140.01868,-2.43727],[140.01737,-2.43924],[140.01887,-2.43947],[140.01907,-2.44138],[139.97609,-2.44329],[139.97273,-2.44078],[139.97197,-2.44253],[139.97568,-2.44405],[139.97628,-2.44595],[139.97495,-2.44773],[139.974,-2.44763],[139.97323,-2.44564],[139.972,-2.44608],[139.97127,-2.44868],[139.96955,-2.44957],[139.97133,-2.45103],[139.97193,-2.45258],[139.974,-2.45271],[139.97476,-2.45328],[139.97469,-2.45404],[139.97317,-2.4549],[139.97298,-2.45588],[139.97523,-2.45687],[139.97739,-2.45864],[139.97644,-2.45925],[139.97441,-2.45817],[139.97282,-2.45823],[139.97419,-2.46007],[139.97447,-2.46143],[139.97676,-2.46121],[139.97733,-2.46188],[139.97565,-2.46359],[139.9759,-2.46546],[139.97507,-2.46724],[139.97285,-2.46756],[139.97387,-2.46911],[139.97523,-2.46968],[139.97612,-2.46756],[139.97803,-2.46616],[139.97967,-2.466],[139.97988,-2.46656],[139.98706,-2.46342],[140.0145,-2.45435],[140.021,-2.45713],[140.02148,-2.45878],[140.02323,-2.45963],[140.02336,-2.46126],[140.03651,-2.4687],[140.03728,-2.471],[140.05207,-2.47719],[140.05107,-2.47798],[140.05393,-2.48069],[140.05503,-2.48051],[140.05544,-2.48112],[140.05448,-2.48221],[140.05543,-2.4836],[140.05428,-2.48503],[140.05489,-2.48587],[140.05603,-2.48672],[140.05858,-2.48617],[140.06008,-2.48656],[140.0601,-2.4877],[140.06174,-2.48824],[140.06185,-2.48918],[140.0624,-2.48943],[140.06176,-2.49006],[140.06312,-2.49067],[140.06408,-2.49283],[140.07846,-2.50312],[140.09213,-2.51449],[140.10195,-2.50867],[140.11293,-2.5031],[140.11262,-2.50163],[140.11376,-2.5017],[140.11407,-2.50118],[140.1126,-2.5003],[140.1125,-2.4977],[140.11164,-2.49758],[140.10826,-2.49497],[140.10615,-2.49247],[140.10565,-2.49254],[140.10481,-2.49421],[140.1027,-2.49371],[140.10127,-2.49411],[140.10077,-2.49387],[140.10067,-2.49264],[140.10241,-2.49228],[140.10229,-2.49061],[140.09975,-2.49118],[140.0967,-2.48968],[140.09492,-2.48783],[140.09375,-2.48807],[140.0938,-2.48681],[140.09672,-2.48566],[140.09718,-2.48409],[140.09649,-2.48352],[140.09387,-2.48464],[140.09344,-2.484],[140.09375,-2.48264],[140.0907,-2.47855],[140.0903,-2.47717],[140.0874,-2.47712],[140.08497,-2.47493],[140.08261,-2.47151],[140.0824,-2.47082],[140.08449,-2.46575],[140.08552,-2.4656],[140.08625,-2.4666],[140.0864,-2.46606],[140.08423,-2.4633],[140.08254,-2.46427],[140.08185,-2.46392],[140.08157,-2.46242],[140.08209,-2.4607],[140.07819,-2.46468],[140.0784,-2.46758],[140.07774,-2.4686],[140.07574,-2.46922],[140.07552,-2.46725],[140.074,-2.46763],[140.07386,-2.47108],[140.07264,-2.47429],[140.07045,-2.47424],[140.06727,-2.47703],[140.06617,-2.4766],[140.06567,-2.47393],[140.06603,-2.47346],[140.06715,-2.47369],[140.06717,-2.4726],[140.0685,-2.47041],[140.06855,-2.46872],[140.06943,-2.46863],[140.0706,-2.47008],[140.07191,-2.46844],[140.07074,-2.46518],[140.07188,-2.46463],[140.07376,-2.4651],[140.07476,-2.46399],[140.0736,-2.46251],[140.07212,-2.46344],[140.0691,-2.46263],[140.06834,-2.45977],[140.06767,-2.45916],[140.06677,-2.45908],[140.0641,-2.46158],[140.06289,-2.46182],[140.06256,-2.4613],[140.06379,-2.45754],[140.067,-2.4574],[140.06893,-2.45444],[140.06943,-2.45321],[140.06855,-2.45199],[140.06998,-2.45088],[140.06903,-2.44976],[140.07079,-2.44921],[140.06986,-2.44812],[140.06996,-2.44733],[140.07122,-2.44647],[140.07145,-2.44343],[140.06917,-2.44481],[140.06827,-2.44436],[140.06662,-2.44471],[140.06479,-2.44271],[140.06436,-2.44053],[140.06153,-2.44012],[140.05951,-2.44255],[140.05875,-2.44267],[140.0563,-2.44238],[140.05596,-2.44074],[140.05444,-2.44091],[140.05399,-2.44045],[140.05427,-2.43872],[140.05513,-2.43757],[140.05392,-2.43624],[140.05446,-2.43462],[140.05356,-2.43441],[140.05351,-2.43365],[140.05487,-2.43229],[140.05539,-2.43072],[140.05508,-2.43027],[140.05325,-2.43048],[140.0527,-2.42972],[140.05363,-2.42848],[140.05482,-2.42799],[140.05432,-2.42706],[140.05318,-2.42744],[140.05182,-2.42677],[140.05154,-2.42537],[140.05218,-2.42454],[140.05142,-2.42458],[140.05044,-2.42558],[140.04971,-2.42539],[140.0503,-2.42308],[140.04947,-2.42147],[140.04818,-2.42142],[140.04797,-2.42085],[140.04861,-2.41875],[140.04783,-2.41683],[140.04913,-2.41471],[140.04692,-2.41345],[140.04623,-2.41052],[140.0439,-2.41021],[140.04347,-2.40971],[140.04497,-2.40695],[140.04321,-2.40512],[140.04319,-2.40379],[140.04454,-2.40314],[140.04566,-2.40469],[140.04697,-2.40393],[140.04642,-2.40324],[140.04338,-2.40248],[140.04228,-2.39915],[140.04361,-2.39796],[140.04342,-2.39672],[140.04231,-2.39774],[140.04169,-2.39677],[140.02239,-2.39639]]]}},{"type":"Feature","properties":{"inventoryId":"gfw-oil-palm:1256","sector":"Sawit","subtype":"Oil palm concession","quality":"GFW","sourceDataset":"gfw-oil-palm","sourceRecordId":"1256","source":"Global Forest Watch via BNPB InAWARE","sourceUrl":"https://gis.bnpb.go.id/server/rest/services/InAWARE/Global_forest_watch2/MapServer/6","retrievedAt":"2026-08-24T04:32:16Z","geometryProcessing":"web display simplification tolerance 0.00035 degrees","name":"PT. ABOGE MAJU PERDANA","group":"No group","areaHa":88323.0,"hguAreaHa":0.0,"gfwId":"f0cc1600-e641-46fc-848c-3d7ddeafe57f","upstreamSource":"varies","coverageCaveat":"GFW compilation; source dates and completeness vary and may be older than current permits.","region":"papua"},"geometry":{"type":"Polygon","coordinates":[[[139.29511,-5.86369],[139.28238,-5.75345],[139.20246,-5.80986],[139.08171,-5.89081],[139.12388,-6.0309],[139.12447,-6.04313],[139.12381,-6.04453],[139.12648,-6.05037],[139.12968,-6.06054],[139.13551,-6.07417],[139.13824,-6.08547],[139.14175,-6.09249],[139.1423,-6.09618],[139.14128,-6.10617],[139.14235,-6.11045],[139.14549,-6.11655],[139.14623,-6.11639],[139.14879,-6.11971],[139.15344,-6.12837],[139.15492,-6.13324],[139.16446,-6.15711],[139.2284,-6.20456],[139.33455,-6.19603],[139.29511,-5.86369]]]}},{"type":"Feature","properties":{"inventoryId":"gfw-oil-palm:1243","sector":"Sawit","subtype":"Oil palm concession","quality":"GFW","sourceDataset":"gfw-oil-palm","sourceRecordId":"1243","source":"Global Forest Watch via BNPB InAWARE","sourceUrl":"https://gis.bnpb.go.id/server/rest/services/InAWARE/Global_forest_watch2/MapServer/6","retrievedAt":"2026-08-24T04:32:16Z","geometryProcessing":"web display simplification tolerance 0.00035 degrees","name":"PT. ADI JAYA MULIA","group":"No group","areaHa":457.0,"hguAreaHa":0.0,"gfwId":"0f411297-9efa-48c2-a877-83ec430d2a5f","upstreamSource":"varies","coverageCaveat":"GFW compilation; source dates and completeness vary and may be older than current permits.","region":"papua"},"geometry":{"type":"Polygon","coordinates":[[[133.99202,-1.09882],[133.99267,-1.09962],[133.99269,-1.10142],[133.994,-1.10209],[133.99766,-1.10205],[134.00023,-1.09739],[133.99868,-1.09598],[133.99843,-1.0945],[134.00205,-1.09216],[134.00406,-1.09219],[134.00456,-1.08975],[134.00428,-1.0881],[134.008,-1.08294],[134.00682,-1.08194],[133.98261,-1.08041],[133.98117,-1.07947],[133.98098,-1.07853],[133.98011,-1.07836],[133.97994,-1.0794],[133.97674,-1.08318],[133.97701,-1.08621],[133.97789,-1.08633],[133.97869,-1.08806],[133.97915,-1.08737],[133.97995,-1.08802],[133.98003,-1.09024],[133.98141,-1.09045],[133.98229,-1.08979],[133.98304,-1.09003],[133.9826,-1.09073],[133.9837,-1.09133],[133.98491,-1.09125],[133.98455,-1.09012],[133.98553,-1.09071],[133.98525,-1.09145],[133.98838,-1.09219],[133.98757,-1.09308],[133.98881,-1.09363],[133.98882,-1.09423],[133.98933,-1.09426],[133.98971,-1.09323],[133.98997,-1.09406],[133.99116,-1.09413],[133.99143,-1.09603],[133.99284,-1.0972],[133.99202,-1.09882]]]}},{"type":"Feature","properties":{"inventoryId":"gfw-oil-palm:1270","sector":"Sawit","subtype":"Oil palm concession","quality":"GFW","sourceDataset":"gfw-oil-palm","sourceRecordId":"1270","source":"Global Forest Watch via BNPB InAWARE","sourceUrl":"https://gis.bnpb.go.id/server/rest/services/InAWARE/Global_forest_watch2/MapServer/6","retrievedAt":"2026-08-24T04:32:16Z","geometryProcessing":"web display simplification tolerance 0.00035 degrees","name":"PT. AGATS SAWIT LESTARI","group":"No group","areaHa":48094.0,"hguAreaHa":0.0,"gfwId":"e94ae9ea-4d7c-460b-a773-7eecb50b4a87","upstreamSource":"varies","coverageCaveat":"GFW compilation; source dates and completeness vary and may be older than current permits.","region":"papua"},"geometry":{"type":"Polygon","coordinates":[[[139.38419,-6.186],[139.43473,-6.16991],[139.42378,-6.11926],[139.41499,-6.01819],[139.404,-5.94128],[139.4062,-5.89514],[139.39741,-5.86657],[139.38203,-5.8424],[139.35126,-5.80285],[139.33369,-5.79846],[139.3297,-5.79556],[139.30404,-5.75244],[139.28238,-5.75345],[139.33455,-6.19603],[139.38419,-6.186]]]}},{"type":"Feature","properties":{"inventoryId":"gfw-oil-palm:1260","sector":"Sawit","subtype":"Oil palm concession","quality":"GFW","sourceDataset":"gfw-oil-palm","sourceRecordId":"1260","source":"Global Forest Watch via BNPB InAWARE","sourceUrl":"https://gis.bnpb.go.id/server/rest/services/InAWARE/Global_forest_watch2/MapServer/6","retrievedAt":"2026-08-24T04:32:16Z","geometryProcessing":"web display simplification tolerance 0.00035 degrees","name":"PT. ANNATANI RODA PERSADA","group":"No group","areaHa":2555.0,"hguAreaHa":0.0,"gfwId":"87cd9601-8ac7-4006-ab4e-5e69d866196e","upstreamSource":"varies","coverageCaveat":"GFW compilation; source dates and completeness vary and may be older than current permits.","region":"papua"},"geometry":{"type":"Polygon","coordinates":[[[136.33694,-2.37695],[136.33607,-2.37677],[136.33371,-2.37875],[136.33604,-2.3761],[136.3374,-2.37577],[136.33731,-2.37464],[136.33659,-2.37416],[136.33374,-2.3762],[136.33151,-2.37951],[136.32829,-2.38149],[136.32797,-2.38414],[136.3264,-2.38712],[136.32565,-2.38769],[136.32677,-2.38423],[136.32132,-2.39291],[136.31514,-2.39977],[136.31203,-2.40044],[136.31329,-2.39977],[136.31273,-2.39951],[136.30151,-2.40434],[136.29866,-2.40639],[136.29828,-2.40704],[136.29906,-2.40772],[136.29895,-2.40854],[136.29655,-2.40988],[136.29587,-2.41123],[136.29619,-2.41464],[136.2972,-2.41731],[136.29573,-2.42522],[136.29025,-2.44064],[136.28877,-2.44398],[136.28661,-2.44613],[136.28571,-2.4488],[136.28592,-2.44949],[136.28801,-2.45025],[136.28864,-2.45146],[136.28783,-2.45184],[136.28407,-2.45717],[136.28119,-2.45994],[136.27951,-2.46285],[136.27818,-2.46872],[136.27965,-2.47092],[136.28348,-2.47175],[136.28775,-2.47385],[136.28886,-2.47549],[136.28941,-2.4798],[136.29051,-2.48176],[136.29385,-2.48448],[136.29556,-2.48699],[136.29558,-2.48866],[136.29732,-2.49009],[136.29962,-2.49094],[136.30156,-2.49118],[136.30205,-2.49069],[136.3018,-2.48825],[136.30247,-2.48647],[136.30182,-2.48288],[136.3031,-2.47277],[136.30615,-2.45944],[136.31114,-2.44211],[136.32268,-2.41394],[136.33379,-2.38424],[136.33636,-2.38003],[136.33694,-2.37695]]]}},{"type":"Feature","properties":{"inventoryId":"gfw-oil-palm:1263","sector":"Sawit","subtype":"Oil palm concession","quality":"GFW","sourceDataset":"gfw-oil-palm","sourceRecordId":"1263","source":"Global Forest Watch via BNPB InAWARE","sourceUrl":"https://gis.bnpb.go.id/server/rest/services/InAWARE/Global_forest_watch2/MapServer/6","retrievedAt":"2026-08-24T04:32:16Z","geometryProcessing":"web display simplification tolerance 0.00035 degrees","name":"PT. ANNATANI RODA PERSADA","group":"No group","areaHa":48801.0,"hguAreaHa":0.0,"gfwId":"87d22a1a-5954-461a-a047-a72fcf693e58","upstreamSource":"varies","coverageCaveat":"GFW compilation; source dates and completeness vary and may be older than current permits.","region":"papua"},"geometry":{"type":"Polygon","coordinates":[[[136.58368,-2.19002],[136.58363,-2.19076],[136.58232,-2.19044],[136.57945,-2.19209],[136.57755,-2.19594],[136.57632,-2.19566],[136.57632,-2.19456],[136.5755,-2.19374],[136.57401,-2.19443],[136.57401,-2.19539],[136.57782,-2.19799],[136.57837,-2.19895],[136.57823,-2.20197],[136.57715,-2.20417],[136.57668,-2.20441],[136.57697,-2.19991],[136.57632,-2.199],[136.57462,-2.19831],[136.57265,-2.19895],[136.57228,-2.20356],[136.57127,-2.20581],[136.56367,-2.2084],[136.56059,-2.20841],[136.55548,-2.21092],[136.55476,-2.21234],[136.55319,-2.21329],[136.55132,-2.21593],[136.54596,-2.21956],[136.54417,-2.22342],[136.54085,-2.22128],[136.53818,-2.22092],[136.53853,-2.22003],[136.53633,-2.22086],[136.53537,-2.22182],[136.53484,-2.22128],[136.53571,-2.21789],[136.53238,-2.2139],[136.53201,-2.21051],[136.52975,-2.21158],[136.52612,-2.21188],[136.5269,-2.20587],[136.52672,-2.20236],[136.52588,-2.2026],[136.52538,-2.20114],[136.52412,-2.20161],[136.52351,-2.2042],[136.52249,-2.20468],[136.5217,-2.2021],[136.52109,-2.20165],[136.51974,-2.19665],[136.51958,-2.19395],[136.51828,-2.19103],[136.51772,-2.19086],[136.51566,-2.19232],[136.51443,-2.19232],[136.5128,-2.19204],[136.51018,-2.19036],[136.50967,-2.19047],[136.5089,-2.19238],[136.50621,-2.19441],[136.50496,-2.19676],[136.50314,-2.19846],[136.50305,-2.19928],[136.50206,-2.19986],[136.50064,-2.19931],[136.49957,-2.19967],[136.49898,-2.19907],[136.49767,-2.19984],[136.49635,-2.19931],[136.49522,-2.19967],[136.49391,-2.20103],[136.49278,-2.20133],[136.49213,-2.20252],[136.49005,-2.2027],[136.48767,-2.20478],[136.48607,-2.20538],[136.48457,-2.20502],[136.48297,-2.20579],[136.48219,-2.20544],[136.48207,-2.20442],[136.48,-2.20419],[136.47815,-2.20609],[136.47505,-2.20758],[136.47458,-2.20829],[136.47285,-2.20811],[136.47078,-2.20686],[136.46858,-2.20692],[136.46744,-2.2077],[136.46107,-2.20918],[136.4593,-2.21229],[136.45782,-2.21375],[136.45697,-2.21318],[136.45656,-2.21175],[136.45471,-2.21021],[136.44894,-2.20723],[136.44829,-2.20604],[136.44472,-2.20622],[136.44208,-2.20541],[136.44499,-2.218],[136.44411,-2.22067],[136.44016,-2.2235],[136.43675,-2.22445],[136.43094,-2.22223],[136.43176,-2.22559],[136.43756,-2.23608],[136.43878,-2.24149],[136.43839,-2.24353],[136.43324,-2.24611],[136.42963,-2.2464],[136.42644,-2.25039],[136.42409,-2.25127],[136.41144,-2.23038],[136.41039,-2.2274],[136.4106,-2.22531],[136.41412,-2.22259],[136.4185,-2.2204],[136.41283,-2.21627],[136.41019,-2.21307],[136.40813,-2.21157],[136.40605,-2.21193],[136.4026,-2.2155],[136.39873,-2.21598],[136.39362,-2.21895],[136.3913,-2.22169],[136.38979,-2.22543],[136.38556,-2.22918],[136.38228,-2.23299],[136.38045,-2.23364],[136.3783,-2.23543],[136.37325,-2.23662],[136.36992,-2.2387],[136.36896,-2.24007],[136.36993,-2.24403],[136.3775,-2.24764],[136.37862,-2.24927],[136.38005,-2.2547],[136.38179,-2.25882],[136.38673,-2.25357],[136.39117,-2.2517],[136.39459,-2.25372],[136.39917,-2.25746],[136.40231,-2.26292],[136.40318,-2.26781],[136.40176,-2.27527],[136.3972,-2.28934],[136.39522,-2.30226],[136.39522,-2.308],[136.3985,-2.3202],[136.40849,-2.34345],[136.41617,-2.35752],[136.41702,-2.36267],[136.41475,-2.36667],[136.41248,-2.36695],[136.40393,-2.35976],[136.40109,-2.35889],[136.39767,-2.35974],[136.39398,-2.36401],[136.39128,-2.36899],[136.39099,-2.37098],[136.39441,-2.37385],[136.40436,-2.38047],[136.40891,-2.38335],[136.41089,-2.38365],[136.41289,-2.3828],[136.41687,-2.3754],[136.41971,-2.3737],[136.42227,-2.37286],[136.42995,-2.37403],[136.43747,-2.37735],[136.43774,-2.38251],[136.43858,-2.38423],[136.44908,-2.39],[136.45132,-2.39773],[136.45473,-2.40317],[136.45755,-2.40489],[136.45982,-2.40546],[136.46152,-2.40918],[136.46265,-2.41573],[136.46408,-2.4197],[136.46722,-2.42422],[136.46825,-2.42773],[136.47084,-2.42968],[136.47289,-2.43216],[136.48062,-2.43463],[136.48035,-2.43779],[136.47797,-2.44166],[136.47607,-2.44985],[136.47318,-2.45101],[136.47255,-2.45302],[136.47556,-2.45819],[136.47806,-2.46439],[136.47763,-2.46779],[136.47543,-2.47416],[136.47607,-2.47683],[136.4801,-2.47978],[136.48639,-2.48213],[136.49008,-2.48241],[136.49535,-2.47884],[136.50523,-2.47838],[136.50893,-2.47957],[136.52325,-2.47971],[136.54678,-2.47379],[136.55251,-2.47043],[136.55594,-2.46678],[136.55763,-2.46133],[136.55763,-2.45951],[136.55048,-2.45452],[136.55072,-2.44841],[136.55573,-2.44319],[136.55965,-2.44233],[136.56236,-2.43865],[136.56152,-2.43794],[136.5573,-2.43945],[136.55588,-2.43814],[136.55315,-2.43159],[136.55266,-2.42274],[136.54831,-2.41426],[136.55061,-2.41108],[136.55034,-2.40881],[136.54808,-2.40487],[136.54898,-2.39886],[136.54756,-2.39832],[136.54413,-2.39925],[136.54128,-2.3993],[136.53902,-2.3962],[136.53761,-2.3925],[136.53819,-2.38991],[136.53622,-2.38679],[136.53825,-2.3816],[136.53683,-2.37933],[136.53456,-2.37936],[136.53198,-2.38141],[136.52884,-2.38145],[136.52458,-2.37692],[136.52145,-2.37552],[136.51411,-2.36067],[136.50917,-2.34995],[136.50128,-2.32445],[136.49678,-2.30466],[136.47957,-2.26785],[136.47585,-2.26327],[136.463,-2.25267],[136.44539,-2.2272],[136.46986,-2.22566],[136.47215,-2.22738],[136.47415,-2.23025],[136.47729,-2.23139],[136.48044,-2.22994],[136.48387,-2.22592],[136.48587,-2.22534],[136.48987,-2.22561],[136.49387,-2.22732],[136.49557,-2.23076],[136.50015,-2.23476],[136.5013,-2.23992],[136.50444,-2.24335],[136.50929,-2.24677],[136.51042,-2.2505],[136.51599,-2.25348],[136.51772,-2.25519],[136.51971,-2.25977],[136.52199,-2.26033],[136.52599,-2.26002],[136.52856,-2.26086],[136.53056,-2.26486],[136.52942,-2.2683],[136.52684,-2.2709],[136.52626,-2.27348],[136.52682,-2.27548],[136.5314,-2.27889],[136.53311,-2.28088],[136.53651,-2.29145],[136.53795,-2.29344],[136.54137,-2.29455],[136.54395,-2.29367],[136.54681,-2.29049],[136.54982,-2.29089],[136.55153,-2.2903],[136.55211,-2.28915],[136.5504,-2.28517],[136.55098,-2.2823],[136.55527,-2.28226],[136.55898,-2.27851],[136.56241,-2.28047],[136.57355,-2.29177],[136.57384,-2.29519],[136.57124,-2.30065],[136.57637,-2.30828],[136.57751,-2.30884],[136.57924,-2.30824],[136.58069,-2.30251],[136.58527,-2.30102],[136.5983,-2.30607],[136.60458,-2.30992],[136.60858,-2.31381],[136.61287,-2.31568],[136.61601,-2.31588],[136.62413,-2.31964],[136.62613,-2.31869],[136.6268,-2.30775],[136.63599,-2.30147],[136.63741,-2.30117],[136.63879,-2.30321],[136.64214,-2.31199],[136.64124,-2.32184],[136.64207,-2.32473],[136.65001,-2.33275],[136.65596,-2.34015],[136.66521,-2.34875],[136.67119,-2.35264],[136.67575,-2.35454],[136.6877,-2.35704],[136.69971,-2.35828],[136.70947,-2.35682],[136.71275,-2.35761],[136.71512,-2.35925],[136.71719,-2.36395],[136.72658,-2.3525],[136.73903,-2.34532],[136.75458,-2.33982],[136.76955,-2.33838],[136.78305,-2.3385],[136.78905,-2.33612],[136.79341,-2.33336],[136.79408,-2.32978],[136.7917,-2.32635],[136.78781,-2.32303],[136.78159,-2.31243],[136.78055,-2.3116],[136.78105,-2.3072],[136.78232,-2.30294],[136.78665,-2.29357],[136.78644,-2.29226],[136.78558,-2.29148],[136.78175,-2.29067],[136.78098,-2.28985],[136.77742,-2.28962],[136.77605,-2.28893],[136.77501,-2.28747],[136.77005,-2.28633],[136.76485,-2.28362],[136.76343,-2.28145],[136.76335,-2.27788],[136.76205,-2.27703],[136.74579,-2.27603],[136.73944,-2.27343],[136.73058,-2.27207],[136.72264,-2.2692],[136.71822,-2.26649],[136.71672,-2.26467],[136.70836,-2.25791],[136.70639,-2.25752],[136.70341,-2.25856],[136.69173,-2.26818],[136.6851,-2.27112],[136.67445,-2.2738],[136.65332,-2.27715],[136.64052,-2.27846],[136.62523,-2.27855],[136.61414,-2.27728],[136.6017,-2.27764],[136.58235,-2.27404],[136.57744,-2.27176],[136.57565,-2.2705],[136.57356,-2.26544],[136.57294,-2.25788],[136.5733,-2.2553],[136.57504,-2.25084],[136.57657,-2.24909],[136.57881,-2.24723],[136.58524,-2.24357],[136.58772,-2.2408],[136.58498,-2.23922],[136.58669,-2.23715],[136.58487,-2.23665],[136.58173,-2.23751],[136.58173,-2.23645],[136.58257,-2.23574],[136.5791,-2.22953],[136.57812,-2.22406],[136.57594,-2.21893],[136.57588,-2.21648],[136.5769,-2.21439],[136.57924,-2.21413],[136.58069,-2.21085],[136.58009,-2.20676],[136.58199,-2.20494],[136.58252,-2.20124],[136.58348,-2.19959],[136.58948,-2.19396],[136.58907,-2.19094],[136.58797,-2.19011],[136.58368,-2.19002]],[[136.48515,-2.37275],[136.48024,-2.37237],[136.45944,-2.37267],[136.45677,-2.3702],[136.45523,-2.36626],[136.45287,-2.36316],[136.45158,-2.36233],[136.44661,-2.3627],[136.43993,-2.3642],[136.43575,-2.3627],[136.42337,-2.35645],[136.42496,-2.33387],[136.45563,-2.33424],[136.47549,-2.33384],[136.47678,-2.34425],[136.47629,-2.35284],[136.4754,-2.3551],[136.47388,-2.35414],[136.47168,-2.3541],[136.47086,-2.35502],[136.47165,-2.35988],[136.47404,-2.36371],[136.48077,-2.36347],[136.48318,-2.36232],[136.48463,-2.35979],[136.48595,-2.35476],[136.49091,-2.35516],[136.49724,-2.35467],[136.49881,-2.36274],[136.49803,-2.36958],[136.48991,-2.37019],[136.48515,-2.37275]]]}},{"type":"Feature","properties":{"inventoryId":"gfw-oil-palm:1258","sector":"Sawit","subtype":"Oil palm concession","quality":"GFW","sourceDataset":"gfw-oil-palm","sourceRecordId":"1258","source":"Global Forest Watch via BNPB InAWARE","sourceUrl":"https://gis.bnpb.go.id/server/rest/services/InAWARE/Global_forest_watch2/MapServer/6","retrievedAt":"2026-08-24T04:32:16Z","geometryProcessing":"web display simplification tolerance 0.00035 degrees","name":"PT. ATSY SAWIT MAKMUR","group":"No group","areaHa":107346.0,"hguAreaHa":0.0,"gfwId":"edfb710f-7a44-4c62-9b2f-fe08e0f84d8d","upstreamSource":"varies","coverageCaveat":"GFW compilation; source dates and completeness vary and may be older than current permits.","region":"papua"},"geometry":{"type":"Polygon","coordinates":[[[139.15492,-6.13324],[139.15344,-6.12837],[139.14879,-6.11971],[139.14623,-6.11639],[139.14549,-6.11655],[139.14235,-6.11045],[139.14128,-6.10617],[139.1423,-6.09618],[139.14175,-6.09249],[139.13824,-6.08547],[139.13551,-6.07417],[139.12968,-6.06054],[139.12648,-6.05037],[139.12381,-6.04453],[139.12447,-6.04313],[139.12388,-6.0309],[139.08171,-5.89081],[138.87146,-6.03504],[138.79312,-6.08944],[138.95366,-6.31053],[138.98132,-6.29117],[138.98804,-6.2922],[138.98913,-6.29365],[139.18229,-6.20172],[139.15492,-6.13324]]]}},{"type":"Feature","properties":{"inventoryId":"gfw-oil-palm:1261","sector":"Sawit","subtype":"Oil palm concession","quality":"GFW","sourceDataset":"gfw-oil-palm","sourceRecordId":"1261","source":"Global Forest Watch via BNPB InAWARE","sourceUrl":"https://gis.bnpb.go.id/server/rest/services/InAWARE/Global_forest_watch2/MapServer/6","retrievedAt":"2026-08-24T04:32:16Z","geometryProcessing":"web display simplification tolerance 0.00035 degrees","name":"PT. FREEPORT INDONESIA","group":"No group","areaHa":547.0,"hguAreaHa":0.0,"gfwId":"f8bf277b-4dba-4e86-b9fc-f74b84ca1840","upstreamSource":"varies","coverageCaveat":"GFW compilation; source dates and completeness vary and may be older than current permits.","region":"papua"},"geometry":{"type":"Polygon","coordinates":[[[136.78629,-4.57938],[136.78705,-4.57938],[136.78717,-4.57862],[136.78719,-4.55989],[136.75931,-4.5597],[136.75978,-4.56197],[136.75887,-4.56256],[136.75813,-4.56481],[136.76596,-4.56481],[136.7655,-4.57893],[136.78629,-4.57938]]]}},{"type":"Feature","properties":{"inventoryId":"gfw-oil-palm:1276","sector":"Sawit","subtype":"Oil palm concession","quality":"GFW","sourceDataset":"gfw-oil-palm","sourceRecordId":"1276","source":"Global Forest Watch via BNPB InAWARE","sourceUrl":"https://gis.bnpb.go.id/server/rest/services/InAWARE/Global_forest_watch2/MapServer/6","retrievedAt":"2026-08-24T04:32:16Z","geometryProcessing":"web display simplification tolerance 0.00035 degrees","name":"PT. FREEPORT INDONESIA (I)","group":"No group","areaHa":17041.0,"hguAreaHa":0.0,"gfwId":"e5d48e80-9d1f-4fbf-917d-c35b3d088368","upstreamSource":"varies","coverageCaveat":"GFW compilation; source dates and completeness vary and may be older than current permits.","region":"papua"},"geometry":{"type":"Polygon","coordinates":[[[136.83246,-4.38627],[136.82908,-4.38945],[136.82642,-4.39114],[136.82306,-4.39064],[136.82204,-4.39097],[136.82033,-4.39281],[136.81845,-4.39333],[136.81509,-4.39616],[136.81411,-4.39773],[136.8125,-4.39911],[136.81128,-4.3994],[136.81005,-4.40099],[136.80702,-4.4032],[136.80398,-4.41129],[136.80412,-4.41267],[136.80543,-4.41496],[136.80748,-4.41632],[136.80836,-4.42057],[136.80581,-4.42184],[136.80457,-4.42412],[136.79694,-4.42786],[136.78989,-4.43314],[136.78773,-4.43649],[136.78587,-4.43714],[136.78497,-4.4383],[136.78342,-4.4416],[136.89811,-4.44164],[136.89796,-4.4465],[136.95555,-4.44754],[136.95657,-4.36283],[136.89085,-4.3477],[136.8835,-4.33773],[136.87431,-4.32888],[136.83251,-4.32881],[136.83246,-4.38627]]]}},{"type":"Feature","properties":{"inventoryId":"gfw-oil-palm:1244","sector":"Sawit","subtype":"Oil palm concession","quality":"GFW","sourceDataset":"gfw-oil-palm","sourceRecordId":"1244","source":"Global Forest Watch via BNPB InAWARE","sourceUrl":"https://gis.bnpb.go.id/server/rest/services/InAWARE/Global_forest_watch2/MapServer/6","retrievedAt":"2026-08-24T04:32:16Z","geometryProcessing":"web display simplification tolerance 0.00035 degrees","name":"PT. HENRISON INTI PERSADA","group":"No group","areaHa":19646.0,"hguAreaHa":0.0,"gfwId":"e42de0ab-1b9b-45c0-a806-5048f2225ab0","upstreamSource":"varies","coverageCaveat":"GFW compilation; source dates and completeness vary and may be older than current permits.","region":"papua"},"geometry":{"type":"Polygon","coordinates":[[[133.73205,-0.99647],[133.73758,-0.99962],[133.73877,-1.00122],[133.74115,-1.00227],[133.74417,-1.00615],[133.74718,-1.00647],[133.74659,-1.00907],[133.74499,-1.00907],[133.74951,-1.01103],[133.75111,-1.01039],[133.75066,-1.00775],[133.75171,-1.00665],[133.75312,-1.00647],[133.75326,-1.00524],[133.75422,-1.00391],[133.75481,-1.004],[133.75536,-1.00597],[133.75678,-1.00583],[133.76048,-1.00341],[133.76474,-1.00782],[133.76209,-1.01051],[133.76497,-1.01421],[133.76383,-1.01586],[133.76442,-1.01636],[133.7641,-1.01818],[133.76323,-1.02019],[133.76178,-1.02748],[133.76713,-1.03187],[133.76946,-1.03346],[133.77042,-1.03346],[133.77042,-1.03483],[133.77143,-1.03643],[133.77495,-1.03652],[133.77814,-1.03588],[133.77997,-1.03798],[133.78317,-1.03935],[133.78477,-1.0415],[133.78844,-1.04253],[133.79009,-1.04208],[133.79164,-1.04404],[133.79292,-1.04431],[133.79809,-1.04408],[133.799,-1.04481],[133.79863,-1.04623],[133.80019,-1.04815],[133.80183,-1.05445],[133.8041,-1.05741],[133.80652,-1.05782],[133.81022,-1.05746],[133.8121,-1.05997],[133.8131,-1.05992],[133.81745,-1.05682],[133.81772,-1.05453],[133.81987,-1.0539],[133.82179,-1.05129],[133.82256,-1.05088],[133.82855,-1.05084],[133.82823,-1.04677],[133.82878,-1.03945],[133.82782,-1.03945],[133.82768,-1.03611],[133.83138,-1.03625],[133.82868,-1.03232],[133.82772,-1.03255],[133.8269,-1.03365],[133.82032,-1.032],[133.81968,-1.0294],[133.82142,-1.02894],[133.82352,-1.02703],[133.82265,-1.02648],[133.8195,-1.02789],[133.81379,-1.02785],[133.80972,-1.0247],[133.80679,-1.02401],[133.80252,-1.02415],[133.79663,-1.01448],[133.79749,-1.01288],[133.79717,-1.0106],[133.79324,-1.00713],[133.79226,-1.00779],[133.78986,-1.00744],[133.75593,-0.9768],[133.73622,-0.96073],[133.72517,-0.96625],[133.72338,-0.96648],[133.71998,-0.96529],[133.71737,-0.96587],[133.71399,-0.96808],[133.71165,-0.96854],[133.6618,-0.92518],[133.6605,-0.90958],[133.65021,-0.90136],[133.64312,-0.89674],[133.63356,-0.88713],[133.63115,-0.88888],[133.63024,-0.89428],[133.62836,-0.89525],[133.62764,-0.8946],[133.62634,-0.89629],[133.62666,-0.89746],[133.62605,-0.89827],[133.62676,-0.89866],[133.62676,-0.8995],[133.62605,-0.90158],[133.62501,-0.90125],[133.62449,-0.90184],[133.59337,-0.89219],[133.59485,-0.88069],[133.5571,-0.87431],[133.53414,-0.86861],[133.52024,-0.86424],[133.51734,-0.86283],[133.51509,-0.86141],[133.51458,-0.85878],[133.49559,-0.86225],[133.49225,-0.85711],[133.48903,-0.85556],[133.48883,-0.85473],[133.4868,-0.85403],[133.48588,-0.85256],[133.48475,-0.85211],[133.4812,-0.84884],[133.46725,-0.8423],[133.46343,-0.83989],[133.45807,-0.83467],[133.45625,-0.83494],[133.45359,-0.8379],[133.45259,-0.84189],[133.45168,-0.84276],[133.45087,-0.84512],[133.45182,-0.8473],[133.44814,-0.84875],[133.446,-0.8572],[133.44459,-0.85828],[133.43789,-0.85915],[133.43562,-0.85629],[133.43385,-0.85529],[133.43199,-0.8532],[133.43012,-0.84425],[133.42548,-0.83796],[133.42553,-0.83682],[133.42303,-0.83079],[133.4233,-0.82634],[133.42412,-0.82407],[133.42316,-0.82107],[133.42051,-0.81654],[133.4151,-0.81118],[133.41106,-0.80619],[133.4101,-0.8061],[133.40483,-0.80923],[133.40219,-0.81345],[133.39924,-0.81482],[133.39842,-0.81463],[133.39701,-0.81627],[133.39433,-0.81513],[133.39232,-0.81557],[133.39109,-0.81788],[133.38832,-0.8192],[133.38791,-0.8207],[133.38427,-0.82192],[133.38141,-0.82428],[133.37586,-0.82724],[133.3755,-0.82923],[133.37609,-0.83091],[133.37777,-0.83323],[133.37814,-0.8359],[133.38005,-0.83867],[133.38078,-0.84675],[133.38205,-0.84811],[133.38296,-0.85084],[133.3841,-0.85234],[133.38478,-0.85523],[133.38828,-0.8629],[133.39078,-0.86644],[133.39342,-0.86781],[133.39846,-0.86949],[133.4021,-0.86908],[133.40425,-0.87692],[133.40312,-0.87855],[133.40307,-0.87978],[133.40462,-0.88064],[133.41484,-0.88082],[133.41962,-0.88278],[133.42289,-0.88078],[133.42471,-0.88291],[133.42507,-0.88491],[133.42639,-0.88664],[133.42721,-0.88532],[133.42986,-0.88409],[133.43618,-0.88536],[133.44109,-0.883],[133.44491,-0.88472],[133.44695,-0.8845],[133.44818,-0.88509],[133.44923,-0.88413],[133.449,-0.8835],[133.44514,-0.88027],[133.44445,-0.87927],[133.44436,-0.87773],[133.44491,-0.87669],[133.44614,-0.8761],[133.44786,-0.87709],[133.45177,-0.87614],[133.455,-0.87918],[133.45704,-0.87764],[133.46009,-0.87787],[133.46472,-0.88084],[133.46652,-0.88246],[133.46832,-0.88721],[133.47059,-0.88826],[133.47214,-0.89005],[133.48035,-0.89114],[133.48447,-0.88939],[133.48523,-0.88731],[133.48832,-0.88753],[133.49411,-0.89253],[133.4958,-0.89276],[133.49642,-0.89354],[133.49911,-0.8936],[133.49951,-0.89422],[133.50159,-0.89472],[133.50327,-0.89438],[133.50423,-0.89506],[133.51029,-0.89604],[133.51299,-0.89677],[133.51473,-0.89835],[133.51895,-0.89711],[133.52136,-0.89868],[133.52603,-0.89874],[133.52687,-0.89964],[133.5294,-0.90014],[133.53171,-0.90132],[133.53188,-0.90211],[133.53413,-0.90374],[133.53969,-0.90503],[133.53998,-0.90615],[133.54172,-0.90739],[133.54329,-0.90992],[133.54402,-0.9125],[133.54492,-0.91278],[133.55105,-0.91171],[133.55774,-0.91272],[133.56016,-0.91199],[133.56089,-0.91256],[133.56514,-0.91206],[133.56688,-0.91251],[133.56851,-0.91375],[133.57031,-0.91386],[133.57054,-0.91481],[133.57144,-0.91476],[133.58083,-0.91054],[133.58825,-0.90858],[133.5955,-0.91414],[133.60141,-0.91425],[133.60276,-0.91318],[133.60298,-0.91234],[133.60499,-0.91219],[133.6096,-0.91443],[133.61042,-0.91505],[133.61001,-0.91667],[133.61053,-0.9171],[133.61028,-0.91842],[133.60882,-0.91988],[133.6088,-0.92147],[133.60945,-0.92171],[133.61412,-0.92236],[133.61823,-0.92036],[133.61855,-0.91966],[133.62028,-0.92015],[133.62515,-0.92009],[133.62682,-0.92074],[133.62715,-0.92018],[133.62966,-0.92128],[133.63053,-0.92063],[133.63368,-0.92181],[133.64628,-0.92316],[133.64706,-0.92348],[133.64668,-0.92429],[133.6432,-0.92858],[133.64368,-0.93096],[133.64904,-0.93668],[133.64866,-0.93757],[133.64712,-0.93849],[133.64726,-0.93946],[133.64899,-0.94073],[133.65058,-0.94308],[133.65123,-0.94348],[133.65277,-0.94248],[133.65354,-0.94283],[133.65705,-0.94585],[133.66003,-0.94704],[133.66232,-0.94877],[133.66603,-0.95214],[133.6674,-0.95441],[133.66765,-0.9563],[133.66995,-0.9587],[133.67117,-0.95883],[133.67274,-0.95991],[133.67168,-0.96145],[133.67344,-0.96795],[133.67336,-0.96873],[133.67236,-0.96911],[133.67131,-0.97049],[133.67217,-0.9742],[133.6689,-0.97601],[133.66833,-0.9769],[133.6696,-0.9792],[133.66901,-0.98101],[133.67044,-0.98433],[133.67247,-0.98417],[133.67385,-0.98338],[133.67471,-0.98406],[133.67839,-0.98338],[133.67806,-0.98182],[133.67877,-0.9816],[133.67987,-0.98217],[133.68328,-0.98214],[133.68447,-0.98514],[133.69292,-0.98883],[133.69476,-0.98929],[133.69759,-0.98769],[133.6997,-0.9898],[133.70057,-0.98999],[133.70397,-0.98996],[133.70619,-0.9888],[133.70713,-0.98891],[133.71138,-0.98991],[133.71146,-0.99126],[133.71513,-0.99246],[133.71607,-0.99246],[133.71648,-0.9896],[133.71799,-0.98935],[133.72133,-0.99236],[133.72136,-0.99331],[133.72246,-0.99391],[133.72313,-0.99616],[133.7245,-0.99723],[133.72836,-0.99768],[133.73004,-0.99674],[133.73205,-0.99647]]]}},{"type":"Feature","properties":{"inventoryId":"gfw-oil-palm:1247","sector":"Sawit","subtype":"Oil palm concession","quality":"GFW","sourceDataset":"gfw-oil-palm","sourceRecordId":"1247","source":"Global Forest Watch via BNPB InAWARE","sourceUrl":"https://gis.bnpb.go.id/server/rest/services/InAWARE/Global_forest_watch2/MapServer/6","retrievedAt":"2026-08-24T04:32:16Z","geometryProcessing":"web display simplification tolerance 0.00035 degrees","name":"PT. IRMASULINDO","group":"No group","areaHa":21257.0,"hguAreaHa":0.0,"gfwId":"26055e83-6f2c-4342-bdd7-2afaa7502a40","upstreamSource":"varies","coverageCaveat":"GFW compilation; source dates and completeness vary and may be older than current permits.","region":"papua"},"geometry":{"type":"Polygon","coordinates":[[[131.20404,-1.50709],[131.20259,-1.3549],[131.17368,-1.34584],[131.15281,-1.34379],[131.1527,-1.34697],[131.14677,-1.37779],[131.14392,-1.3881],[131.11059,-1.38608],[131.03641,-1.3664],[131.01116,-1.35879],[131.00501,-1.36661],[131.00134,-1.37494],[131.00121,-1.37916],[131.00014,-1.38183],[130.99457,-1.38742],[130.98966,-1.38994],[130.98689,-1.39823],[130.98627,-1.41629],[130.98735,-1.42672],[130.9895,-1.42903],[131.00885,-1.42995],[131.01376,-1.4347],[131.01591,-1.43946],[131.01945,-1.44361],[131.03204,-1.44376],[131.04218,-1.44054],[131.05954,-1.44054],[131.06946,-1.4441],[131.08098,-1.44625],[131.10033,-1.4464],[131.11293,-1.44794],[131.12368,-1.44809],[131.1352,-1.45193],[131.14872,-1.45393],[131.17145,-1.45991],[131.17329,-1.46114],[131.18005,-1.46881],[131.18389,-1.47388],[131.18804,-1.48078],[131.19111,-1.48416],[131.19771,-1.48892],[131.20079,-1.49199],[131.20271,-1.4982],[131.20256,-1.50112],[131.20404,-1.50709]]]}},{"type":"Feature","properties":{"inventoryId":"gfw-oil-palm:1259","sector":"Sawit","subtype":"Oil palm concession","quality":"GFW","sourceDataset":"gfw-oil-palm","sourceRecordId":"1259","source":"Global Forest Watch via BNPB InAWARE","sourceUrl":"https://gis.bnpb.go.id/server/rest/services/InAWARE/Global_forest_watch2/MapServer/6","retrievedAt":"2026-08-24T04:32:16Z","geometryProcessing":"web display simplification tolerance 0.00035 degrees","name":"PT. KOPERMAS TANGTEY","group":"No group","areaHa":37.0,"hguAreaHa":0.0,"gfwId":"8d4d5727-0e69-4949-8fcf-659c02c5e974","upstreamSource":"varies","coverageCaveat":"GFW compilation; source dates and completeness vary and may be older than current permits.","region":"papua"},"geometry":{"type":"Polygon","coordinates":[[[140.12939,-2.5318],[140.1286,-2.53428],[140.12924,-2.53445],[140.13051,-2.53295],[140.13182,-2.53323],[140.1331,-2.53652],[140.13383,-2.5363],[140.13307,-2.53509],[140.13327,-2.53419],[140.13528,-2.5349],[140.1369,-2.53276],[140.13928,-2.53295],[140.1409,-2.53499],[140.14301,-2.53285],[140.14471,-2.53204],[140.12939,-2.5318]]]}},{"type":"Feature","properties":{"inventoryId":"gfw-oil-palm:1262","sector":"Sawit","subtype":"Oil palm concession","quality":"GFW","sourceDataset":"gfw-oil-palm","sourceRecordId":"1262","source":"Global Forest Watch via BNPB InAWARE","sourceUrl":"https://gis.bnpb.go.id/server/rest/services/InAWARE/Global_forest_watch2/MapServer/6","retrievedAt":"2026-08-24T04:32:16Z","geometryProcessing":"web display simplification tolerance 0.00035 degrees","name":"PT. KOPERMAS TANGTEY","group":"No group","areaHa":4046.0,"hguAreaHa":0.0,"gfwId":"abe7eab3-7d90-48d5-89ba-96b4f4d837b2","upstreamSource":"varies","coverageCaveat":"GFW compilation; source dates and completeness vary and may be older than current permits.","region":"papua"},"geometry":{"type":"Polygon","coordinates":[[[140.14573,-2.53497],[140.14453,-2.53242],[140.14093,-2.53532],[140.13968,-2.53364],[140.13756,-2.5329],[140.1367,-2.53333],[140.13564,-2.53513],[140.13339,-2.53447],[140.13412,-2.53647],[140.13301,-2.5368],[140.1322,-2.53604],[140.13211,-2.53399],[140.13087,-2.53325],[140.12935,-2.53483],[140.12851,-2.53483],[140.1282,-2.5338],[140.12888,-2.53185],[140.11038,-2.53268],[140.09195,-2.53158],[140.08279,-2.54302],[140.08087,-2.54748],[140.07986,-2.55713],[140.07961,-2.56993],[140.0797,-2.57247],[140.08081,-2.57487],[140.08701,-2.57831],[140.08899,-2.58117],[140.09134,-2.58702],[140.09543,-2.59031],[140.1008,-2.59093],[140.10864,-2.58973],[140.11592,-2.58958],[140.12024,-2.58831],[140.12259,-2.58603],[140.12631,-2.57992],[140.13115,-2.57502],[140.14183,-2.56969],[140.15141,-2.56679],[140.15021,-2.55389],[140.14573,-2.53497]]]}},{"type":"Feature","properties":{"inventoryId":"gfw-oil-palm:1265","sector":"Sawit","subtype":"Oil palm concession","quality":"GFW","sourceDataset":"gfw-oil-palm","sourceRecordId":"1265","source":"Global Forest Watch via BNPB InAWARE","sourceUrl":"https://gis.bnpb.go.id/server/rest/services/InAWARE/Global_forest_watch2/MapServer/6","retrievedAt":"2026-08-24T04:32:16Z","geometryProcessing":"web display simplification tolerance 0.00035 degrees","name":"PT. KOPERMAS TANGTEY","group":"No group","areaHa":10541.0,"hguAreaHa":0.0,"gfwId":"a216332d-590e-4f75-baca-6ae66fb32b5b","upstreamSource":"varies","coverageCaveat":"GFW compilation; source dates and completeness vary and may be older than current permits.","region":"papua"},"geometry":{"type":"Polygon","coordinates":[[[139.94548,-2.49657],[139.94391,-2.49729],[139.94273,-2.49704],[139.94278,-2.49857],[139.94144,-2.49892],[139.93951,-2.49694],[139.93941,-2.49573],[139.93892,-2.4957],[139.93742,-2.49733],[139.93909,-2.49846],[139.93887,-2.50002],[139.94012,-2.50052],[139.93994,-2.5013],[139.93799,-2.50232],[139.9359,-2.50084],[139.93509,-2.50229],[139.93399,-2.50154],[139.93311,-2.50169],[139.9348,-2.5041],[139.93817,-2.50434],[139.93825,-2.50477],[139.93654,-2.50651],[139.93584,-2.5064],[139.93501,-2.50523],[139.93273,-2.50594],[139.93387,-2.5077],[139.93325,-2.51269],[139.93444,-2.51807],[139.93143,-2.52279],[139.92974,-2.52905],[139.92838,-2.5314],[139.92714,-2.54061],[139.92464,-2.54681],[140.02777,-2.60297],[140.02805,-2.59834],[140.03757,-2.58741],[140.03955,-2.58686],[140.04131,-2.58828],[140.0424,-2.58752],[140.04138,-2.58542],[140.04219,-2.58169],[140.04015,-2.5834],[140.03781,-2.58445],[140.03722,-2.58363],[140.03897,-2.58228],[140.03729,-2.58001],[140.03445,-2.58014],[140.03232,-2.57896],[140.03091,-2.57758],[140.03088,-2.57561],[140.03026,-2.57505],[140.02882,-2.5767],[140.02776,-2.576],[140.0275,-2.5736],[140.02827,-2.56949],[140.02765,-2.56827],[140.02374,-2.56607],[140.02377,-2.56488],[140.02707,-2.56413],[140.0291,-2.56511],[140.03194,-2.56544],[140.03275,-2.56702],[140.03249,-2.56873],[140.03397,-2.57064],[140.03502,-2.56666],[140.03288,-2.56528],[140.0318,-2.56331],[140.03246,-2.5585],[140.03363,-2.55755],[140.03465,-2.55762],[140.03505,-2.55862],[140.03381,-2.5605],[140.03394,-2.56134],[140.0379,-2.56329],[140.03874,-2.56079],[140.03952,-2.56012],[140.04022,-2.55998],[140.04163,-2.56126],[140.04256,-2.55974],[140.04427,-2.55915],[140.04401,-2.55808],[140.04237,-2.55746],[140.04236,-2.55486],[140.04324,-2.55446],[140.04428,-2.55524],[140.04559,-2.55532],[140.04636,-2.55391],[140.04512,-2.55206],[140.04512,-2.5511],[140.04738,-2.55041],[140.0484,-2.55079],[140.04712,-2.55536],[140.04768,-2.55608],[140.0493,-2.55513],[140.05215,-2.55129],[140.05461,-2.55225],[140.0549,-2.55158],[140.05299,-2.55034],[140.05252,-2.54792],[140.05188,-2.54799],[140.0506,-2.55013],[140.04959,-2.54982],[140.05028,-2.5467],[140.05116,-2.54608],[140.0529,-2.54632],[140.05351,-2.54541],[140.05228,-2.54273],[140.0509,-2.54418],[140.05,-2.54399],[140.05037,-2.54089],[140.05127,-2.5397],[140.0491,-2.53918],[140.04854,-2.5377],[140.04903,-2.53516],[140.04678,-2.5339],[140.04695,-2.53185],[140.04649,-2.53128],[140.04514,-2.53045],[140.04329,-2.53204],[140.04167,-2.53052],[140.0412,-2.5318],[140.04016,-2.53221],[140.03961,-2.53161],[140.03992,-2.52923],[140.03775,-2.52769],[140.03668,-2.52771],[140.03542,-2.5298],[140.03438,-2.5298],[140.03214,-2.52847],[140.03192,-2.52574],[140.0293,-2.52486],[140.03015,-2.52181],[140.02965,-2.51853],[140.02773,-2.51806],[140.02769,-2.51713],[140.02863,-2.5156],[140.02769,-2.51296],[140.02676,-2.51342],[140.02705,-2.51531],[140.0265,-2.51606],[140.02415,-2.51692],[140.02219,-2.51681],[140.02219,-2.51485],[140.02327,-2.51253],[140.0208,-2.51285],[140.02013,-2.51167],[140.02042,-2.51085],[140.02287,-2.50918],[140.02066,-2.509],[140.01981,-2.50732],[140.02028,-2.50624],[140.02264,-2.50572],[140.02287,-2.50506],[140.02159,-2.50489],[140.01974,-2.50614],[140.01869,-2.50588],[140.01611,-2.5023],[140.01559,-2.49973],[140.01637,-2.49865],[140.01831,-2.49907],[140.01799,-2.4969],[140.01959,-2.49516],[140.01884,-2.49339],[140.0166,-2.49506],[140.0148,-2.49473],[140.01407,-2.49516],[140.0143,-2.49592],[140.01631,-2.49684],[140.0166,-2.49779],[140.01598,-2.49855],[140.01411,-2.49815],[140.01313,-2.49733],[140.01216,-2.49768],[140.00704,-2.49431],[140.001,-2.49676],[139.99431,-2.49699],[139.98764,-2.49584],[139.98287,-2.49402],[139.97881,-2.49155],[139.9747,-2.49102],[139.97033,-2.49099],[139.96272,-2.49324],[139.95626,-2.49198],[139.94863,-2.49476],[139.94548,-2.49657]]]}},{"type":"Feature","properties":{"inventoryId":"gfw-oil-palm:1271","sector":"Sawit","subtype":"Oil palm concession","quality":"GFW","sourceDataset":"gfw-oil-palm","sourceRecordId":"1271","source":"Global Forest Watch via BNPB InAWARE","sourceUrl":"https://gis.bnpb.go.id/server/rest/services/InAWARE/Global_forest_watch2/MapServer/6","retrievedAt":"2026-08-24T04:32:16Z","geometryProcessing":"web display simplification tolerance 0.00035 degrees","name":"PT. MERAUKE SAWIT JAYA","group":"No group","areaHa":38597.0,"hguAreaHa":0.0,"gfwId":"9f9d13f3-1bac-47e6-a350-8cb441b97979","upstreamSource":"varies","coverageCaveat":"GFW compilation; source dates and completeness vary and may be older than current permits.","region":"papua"},"geometry":{"type":"Polygon","coordinates":[[[140.75264,-7.88996],[140.73675,-7.7724],[140.72469,-7.77045],[140.7173,-7.76832],[140.70854,-7.76786],[140.68684,-7.76469],[140.68358,-7.76342],[140.67374,-7.75799],[140.65697,-7.75175],[140.64815,-7.74973],[140.64255,-7.74985],[140.62079,-7.75939],[140.61203,-7.76395],[140.59428,-7.77487],[140.58929,-7.77874],[140.58873,-7.77955],[140.58855,-7.78175],[140.58942,-7.78452],[140.59691,-7.7911],[140.59776,-7.79393],[140.59691,-7.79752],[140.59358,-7.80121],[140.59181,-7.80433],[140.59038,-7.81271],[140.58574,-7.81797],[140.56564,-7.83189],[140.5618,-7.83628],[140.56053,-7.85413],[140.558,-7.93743],[140.77518,-7.94247],[140.77307,-7.93502],[140.77043,-7.92895],[140.7618,-7.91671],[140.75578,-7.90533],[140.75264,-7.89441],[140.75208,-7.88985],[140.75264,-7.88996]]]}},{"type":"Feature","properties":{"inventoryId":"gfw-oil-palm:1266","sector":"Sawit","subtype":"Oil palm concession","quality":"GFW","sourceDataset":"gfw-oil-palm","sourceRecordId":"1266","source":"Global Forest Watch via BNPB InAWARE","sourceUrl":"https://gis.bnpb.go.id/server/rest/services/InAWARE/Global_forest_watch2/MapServer/6","retrievedAt":"2026-08-24T04:32:16Z","geometryProcessing":"web display simplification tolerance 0.00035 degrees","name":"PT. MUTING KAPAS PRIMA","group":"No group","areaHa":13039.0,"hguAreaHa":0.0,"gfwId":"80e6a374-1943-4cc7-b7ed-a3a6b2b00c28","upstreamSource":"varies","coverageCaveat":"GFW compilation; source dates and completeness vary and may be older than current permits.","region":"papua"},"geometry":{"type":"Polygon","coordinates":[[[140.64479,-8.15796],[140.54832,-8.15733],[140.54853,-8.28054],[140.58981,-8.26908],[140.60637,-8.26505],[140.64018,-8.26335],[140.64454,-8.26419],[140.64451,-8.22694],[140.64169,-8.22387],[140.64336,-8.21869],[140.64479,-8.15796]]]}},{"type":"Feature","properties":{"inventoryId":"gfw-oil-palm:1267","sector":"Sawit","subtype":"Oil palm concession","quality":"GFW","sourceDataset":"gfw-oil-palm","sourceRecordId":"1267","source":"Global Forest Watch via BNPB InAWARE","sourceUrl":"https://gis.bnpb.go.id/server/rest/services/InAWARE/Global_forest_watch2/MapServer/6","retrievedAt":"2026-08-24T04:32:16Z","geometryProcessing":"web display simplification tolerance 0.00035 degrees","name":"PT. PERKEBUNAN II ARSO","group":"No group","areaHa":38488.0,"hguAreaHa":0.0,"gfwId":"b3ddfc5a-7eb4-49b5-8b20-4e16042f182b","upstreamSource":"varies","coverageCaveat":"GFW compilation; source dates and completeness vary and may be older than current permits.","region":"papua"},"geometry":{"type":"Polygon","coordinates":[[[140.80016,-2.77036],[140.7988,-2.7706],[140.79932,-2.77099],[140.79913,-2.77212],[140.79747,-2.77313],[140.79604,-2.77592],[140.79454,-2.77586],[140.79366,-2.77312],[140.79224,-2.77259],[140.79187,-2.773],[140.79247,-2.77604],[140.79199,-2.77746],[140.79062,-2.77752],[140.78871,-2.77663],[140.78799,-2.77746],[140.78931,-2.77901],[140.79198,-2.77853],[140.79288,-2.77919],[140.79282,-2.78204],[140.79604,-2.78603],[140.79732,-2.78647],[140.8,-2.78506],[140.80106,-2.78546],[140.80225,-2.78709],[140.80197,-2.79026],[140.80096,-2.79031],[140.8004,-2.78775],[140.79889,-2.78749],[140.79727,-2.78846],[140.79639,-2.78982],[140.79445,-2.78986],[140.79366,-2.79053],[140.79489,-2.79334],[140.7937,-2.79546],[140.79382,-2.79634],[140.79709,-2.7966],[140.79802,-2.79731],[140.79802,-2.79845],[140.79674,-2.79964],[140.79938,-2.80321],[140.79958,-2.80673],[140.8009,-2.80748],[140.80205,-2.80686],[140.80135,-2.80475],[140.80151,-2.80325],[140.80249,-2.80206],[140.80389,-2.80158],[140.80539,-2.8025],[140.80592,-2.804],[140.80569,-2.80488],[140.80359,-2.80691],[140.80376,-2.80823],[140.80508,-2.80858],[140.80641,-2.80744],[140.80777,-2.80713],[140.80968,-2.80815],[140.8094,-2.80913],[140.8067,-2.80992],[140.80688,-2.81097],[140.8092,-2.81271],[140.80927,-2.81431],[140.80867,-2.81458],[140.80656,-2.81346],[140.80533,-2.81364],[140.8042,-2.81598],[140.80095,-2.81809],[140.80119,-2.8193],[140.80392,-2.81936],[140.80473,-2.82071],[140.80244,-2.82262],[140.80191,-2.82576],[140.80121,-2.82604],[140.79999,-2.82547],[140.7986,-2.82383],[140.79759,-2.82451],[140.79802,-2.82629],[140.79745,-2.82879],[140.79774,-2.82986],[140.80028,-2.82815],[140.80127,-2.82858],[140.80244,-2.83036],[140.80449,-2.82976],[140.80585,-2.83022],[140.80651,-2.83253],[140.80602,-2.83515],[140.80534,-2.83557],[140.80223,-2.835],[140.79945,-2.83518],[140.79831,-2.83597],[140.79852,-2.83654],[140.80124,-2.83632],[140.80284,-2.83686],[140.80508,-2.83864],[140.80579,-2.84007],[140.80229,-2.84068],[140.79976,-2.83929],[140.79454,-2.839],[140.79422,-2.84004],[140.79465,-2.8405],[140.79901,-2.84211],[140.79944,-2.84503],[140.79869,-2.84657],[140.79471,-2.84592],[140.79581,-2.84821],[140.79521,-2.85253],[140.79213,-2.85267],[140.78844,-2.85767],[140.78523,-2.85756],[140.78377,-2.85663],[140.78233,-2.85688],[140.78212,-2.85777],[140.78427,-2.85931],[140.78465,-2.86088],[140.78319,-2.8637],[140.78262,-2.86391],[140.78134,-2.86366],[140.77995,-2.86124],[140.77838,-2.86209],[140.77834,-2.86356],[140.78073,-2.8647],[140.78102,-2.86583],[140.77647,-2.86677],[140.7765,-2.86751],[140.77815,-2.86677],[140.77975,-2.86734],[140.77765,-2.87054],[140.77722,-2.87291],[140.77519,-2.87308],[140.77325,-2.86977],[140.7717,-2.86942],[140.77101,-2.87059],[140.77351,-2.87128],[140.77452,-2.87462],[140.77303,-2.87593],[140.77052,-2.87511],[140.76935,-2.87591],[140.77017,-2.8787],[140.77098,-2.87907],[140.77309,-2.87705],[140.77429,-2.8769],[140.77481,-2.87736],[140.77469,-2.87896],[140.77214,-2.87979],[140.77177,-2.8805],[140.77203,-2.88102],[140.77492,-2.88187],[140.7755,-2.88847],[140.77756,-2.89015],[140.77858,-2.89309],[140.7782,-2.89452],[140.77663,-2.89504],[140.7762,-2.89681],[140.77763,-2.89989],[140.77991,-2.90183],[140.78044,-2.90417],[140.77713,-2.90751],[140.77693,-2.90906],[140.77745,-2.90943],[140.77893,-2.90863],[140.78241,-2.90409],[140.78372,-2.90357],[140.78441,-2.90386],[140.78438,-2.90494],[140.78307,-2.9056],[140.78224,-2.90689],[140.7836,-2.91031],[140.78357,-2.91174],[140.78104,-2.91377],[140.78093,-2.9152],[140.78157,-2.91606],[140.78268,-2.91595],[140.78394,-2.91306],[140.78543,-2.91245],[140.78593,-2.91363],[140.78442,-2.91563],[140.78453,-2.91645],[140.78728,-2.91709],[140.78789,-2.91863],[140.78735,-2.91963],[140.78513,-2.9207],[140.78337,-2.92073],[140.78273,-2.92152],[140.78531,-2.92288],[140.786,-2.92441],[140.78248,-2.92375],[140.7779,-2.92606],[140.77442,-2.92699],[140.77325,-2.92863],[140.77185,-2.92932],[140.76959,-2.92882],[140.76616,-2.92967],[140.76784,-2.94379],[140.76176,-2.94411],[140.76112,-2.94627],[140.76038,-2.95487],[140.76132,-2.96101],[140.76133,-2.96481],[140.76621,-2.96472],[140.76647,-2.96833],[140.76929,-2.9675],[140.7704,-2.96983],[140.77032,-2.97111],[140.769,-2.97323],[140.76836,-2.97409],[140.7671,-2.97431],[140.76705,-2.97977],[140.78112,-2.97821],[140.78267,-2.97813],[140.78313,-2.97863],[140.7842,-2.98031],[140.78408,-2.98197],[140.78046,-2.99771],[140.78764,-3.00513],[140.78864,-3.00876],[140.79153,-3.00997],[140.79261,-3.01177],[140.79414,-3.01288],[140.79522,-3.01304],[140.79828,-3.01131],[140.80183,-3.01112],[140.80538,-3.01165],[140.80925,-3.01148],[140.81292,-3.0123],[140.81394,-3.00866],[140.81512,-3.00858],[140.81678,-3.00728],[140.82141,-3.00647],[140.82272,-3.00662],[140.82668,-3.00912],[140.82772,-3.00917],[140.82984,-3.00798],[140.83309,-3.00729],[140.8379,-3.00778],[140.84173,-3.00678],[140.84447,-3.00755],[140.84926,-3.01205],[140.85278,-3.01351],[140.88527,-3.0148],[140.94487,-3.01816],[140.93923,-2.92698],[140.93435,-2.8664],[140.92843,-2.86187],[140.9202,-2.85014],[140.91484,-2.84397],[140.91321,-2.8429],[140.91265,-2.83937],[140.91055,-2.8381],[140.90923,-2.83834],[140.90764,-2.83761],[140.9049,-2.83759],[140.9035,-2.8384],[140.90227,-2.83787],[140.90158,-2.8384],[140.901,-2.83776],[140.89336,-2.83636],[140.89081,-2.83497],[140.88885,-2.83509],[140.88749,-2.83634],[140.88657,-2.83647],[140.8842,-2.83525],[140.88009,-2.83049],[140.87819,-2.83072],[140.87637,-2.83176],[140.87455,-2.8302],[140.8717,-2.83137],[140.87033,-2.83069],[140.86909,-2.82917],[140.86535,-2.83035],[140.86151,-2.82983],[140.86039,-2.83041],[140.85968,-2.82962],[140.85952,-2.82818],[140.85665,-2.82729],[140.85663,-2.82576],[140.8536,-2.82237],[140.84927,-2.82094],[140.8476,-2.81603],[140.84649,-2.81525],[140.84435,-2.81496],[140.84154,-2.81171],[140.84281,-2.80824],[140.84541,-2.80738],[140.84581,-2.80669],[140.84495,-2.80572],[140.84529,-2.80321],[140.84717,-2.80076],[140.84702,-2.79906],[140.84745,-2.79863],[140.8491,-2.799],[140.84952,-2.79818],[140.84849,-2.79213],[140.84864,-2.78996],[140.84932,-2.7877],[140.85057,-2.78639],[140.84962,-2.78447],[140.84982,-2.78292],[140.85193,-2.78048],[140.85129,-2.77999],[140.84985,-2.78022],[140.84903,-2.77953],[140.84877,-2.77915],[140.8493,-2.77869],[140.84841,-2.77748],[140.84651,-2.77715],[140.84588,-2.77808],[140.84256,-2.77864],[140.84187,-2.77939],[140.84048,-2.7782],[140.83874,-2.77779],[140.8379,-2.77656],[140.83666,-2.77675],[140.8365,-2.77784],[140.83541,-2.77817],[140.83174,-2.77239],[140.80016,-2.77036]]]}},{"type":"Feature","properties":{"inventoryId":"gfw-oil-palm:1268","sector":"Sawit","subtype":"Oil palm concession","quality":"GFW","sourceDataset":"gfw-oil-palm","sourceRecordId":"1268","source":"Global Forest Watch via BNPB InAWARE","sourceUrl":"https://gis.bnpb.go.id/server/rest/services/InAWARE/Global_forest_watch2/MapServer/6","retrievedAt":"2026-08-24T04:32:16Z","geometryProcessing":"web display simplification tolerance 0.00035 degrees","name":"PT. RIMBA MATOA LESTARI","group":"No group","areaHa":31648.0,"hguAreaHa":0.0,"gfwId":"9de7ea2c-8f0f-4228-8b91-3fc9b4b51a5c","upstreamSource":"varies","coverageCaveat":"GFW compilation; source dates and completeness vary and may be older than current permits.","region":"papua"},"geometry":{"type":"Polygon","coordinates":[[[139.97227,-2.48598],[139.97296,-2.48481],[139.97438,-2.4851],[139.97527,-2.48455],[139.97441,-2.48274],[139.9751,-2.48184],[139.97786,-2.48165],[139.97913,-2.48215],[139.97957,-2.48127],[139.97784,-2.47936],[139.97937,-2.47675],[139.97774,-2.47483],[139.97733,-2.47245],[139.97847,-2.47063],[139.97852,-2.46795],[139.97922,-2.46654],[139.97673,-2.46788],[139.97546,-2.47037],[139.9742,-2.47026],[139.9722,-2.46773],[139.97246,-2.46665],[139.97383,-2.46684],[139.97484,-2.46613],[139.97517,-2.46308],[139.97635,-2.46197],[139.97417,-2.46197],[139.97237,-2.45858],[139.9725,-2.45751],[139.97408,-2.45751],[139.97649,-2.45862],[139.97255,-2.45639],[139.97237,-2.45479],[139.97403,-2.45364],[139.97147,-2.45286],[139.97052,-2.45111],[139.96889,-2.44984],[139.97079,-2.44775],[139.97188,-2.44503],[139.97379,-2.44517],[139.97505,-2.44758],[139.97708,-2.44786],[140.01755,-2.44419],[140.01739,-2.44248],[140.0159,-2.44219],[140.017,-2.44044],[140.01648,-2.44006],[140.01749,-2.43905],[140.01587,-2.43728],[140.01519,-2.43761],[140.01473,-2.4368],[140.01567,-2.4358],[140.01422,-2.43402],[140.01554,-2.43269],[140.01477,-2.43127],[140.01606,-2.43027],[140.01606,-2.42953],[140.0147,-2.42953],[140.01813,-2.4255],[140.01833,-2.42343],[140.01975,-2.42211],[140.01946,-2.41939],[140.01826,-2.41765],[140.01907,-2.4139],[140.01813,-2.41293],[140.01819,-2.41116],[140.01645,-2.40997],[140.01616,-2.40864],[140.01729,-2.40754],[140.01625,-2.40654],[140.01632,-2.40483],[140.01803,-2.40431],[140.01774,-2.40331],[140.01897,-2.40219],[140.01736,-2.4009],[140.01994,-2.40067],[140.01878,-2.39902],[140.01923,-2.39747],[140.02066,-2.39699],[140.02011,-2.39576],[140.02072,-2.39408],[140.02024,-2.39275],[140.02218,-2.39081],[140.02257,-2.38872],[140.02497,-2.38726],[140.02558,-2.38594],[140.02691,-2.38571],[140.0281,-2.38361],[140.02823,-2.38096],[140.02655,-2.37989],[140.02639,-2.37905],[140.02675,-2.3744],[140.02516,-2.37298],[140.0145,-2.37236],[140.00735,-2.37378],[139.99816,-2.37343],[139.99551,-2.37404],[139.99091,-2.37821],[139.99004,-2.37827],[139.98745,-2.37701],[139.98565,-2.3739],[139.985,-2.37118],[139.97931,-2.36818],[139.972,-2.36601],[139.96385,-2.36576],[139.95932,-2.36637],[139.95693,-2.3658],[139.9501,-2.36618],[139.94432,-2.36671],[139.94112,-2.3678],[139.94055,-2.3674],[139.93486,-2.36777],[139.91075,-2.37156],[139.8837,-2.37494],[139.87076,-2.37534],[139.82365,-2.37466],[139.8217,-2.3749],[139.81699,-2.3768],[139.81123,-2.37763],[139.81007,-2.37756],[139.81006,-2.3768],[139.80937,-2.37752],[139.80354,-2.37655],[139.79796,-2.37274],[139.79417,-2.37154],[139.7914,-2.37381],[139.78873,-2.37417],[139.78795,-2.37512],[139.78896,-2.37613],[139.79129,-2.37548],[139.79259,-2.37613],[139.79485,-2.38071],[139.79456,-2.38196],[139.79324,-2.38273],[139.79193,-2.38255],[139.78883,-2.37899],[139.78807,-2.37952],[139.78729,-2.38273],[139.78734,-2.38344],[139.78836,-2.38416],[139.79044,-2.38291],[139.79193,-2.38321],[139.79259,-2.38481],[139.79132,-2.38737],[139.79692,-2.39058],[139.79727,-2.39148],[139.79662,-2.39219],[139.79454,-2.39124],[139.79323,-2.39219],[139.79013,-2.39236],[139.7887,-2.39314],[139.78882,-2.39367],[139.78989,-2.39385],[139.79269,-2.3932],[139.79395,-2.39451],[139.7943,-2.39599],[139.79578,-2.39712],[139.79584,-2.39831],[139.79524,-2.39909],[139.79417,-2.39914],[139.79233,-2.39712],[139.79019,-2.39623],[139.78947,-2.39658],[139.78935,-2.39795],[139.79149,-2.39896],[139.79173,-2.39968],[139.79108,-2.40045],[139.78941,-2.40045],[139.78786,-2.39837],[139.78709,-2.40021],[139.78542,-2.40193],[139.78542,-2.40265],[139.78726,-2.40419],[139.78786,-2.40639],[139.78732,-2.40752],[139.78577,-2.40728],[139.78281,-2.40318],[139.78209,-2.40366],[139.78333,-2.40556],[139.78197,-2.40692],[139.78006,-2.40633],[139.77875,-2.40413],[139.7778,-2.40431],[139.77774,-2.40526],[139.78059,-2.40954],[139.78088,-2.4112],[139.78201,-2.4121],[139.78362,-2.41198],[139.78439,-2.41281],[139.7838,-2.41674],[139.7829,-2.41786],[139.78165,-2.41763],[139.77916,-2.41543],[139.77869,-2.41263],[139.77773,-2.4121],[139.77618,-2.41376],[139.77582,-2.4156],[139.77802,-2.41911],[139.77795,-2.42078],[139.77701,-2.42125],[139.77307,-2.42107],[139.77141,-2.41887],[139.76981,-2.4181],[139.76927,-2.41898],[139.76927,-2.42172],[139.76831,-2.42303],[139.76581,-2.42392],[139.76384,-2.42772],[139.76789,-2.43288],[139.77245,-2.43609],[139.77619,-2.44078],[139.79093,-2.45603],[139.80633,-2.44776],[139.81438,-2.4508],[139.82486,-2.46732],[139.8327,-2.48667],[139.87361,-2.5035],[139.89579,-2.51165],[139.90332,-2.51237],[139.92389,-2.50555],[139.92403,-2.50487],[139.92499,-2.50441],[139.92729,-2.50567],[139.92937,-2.50514],[139.92952,-2.50644],[139.93182,-2.5084],[139.93236,-2.50786],[139.9321,-2.50652],[139.93256,-2.50544],[139.93494,-2.50484],[139.93642,-2.50596],[139.93756,-2.50491],[139.93401,-2.5042],[139.93271,-2.50229],[139.93292,-2.50125],[139.93369,-2.50099],[139.93475,-2.50189],[139.93608,-2.50041],[139.93799,-2.50184],[139.93951,-2.50101],[139.93839,-2.50001],[139.93867,-2.49853],[139.93736,-2.49825],[139.93684,-2.49739],[139.93799,-2.4957],[139.93948,-2.49537],[139.94162,-2.49856],[139.94221,-2.49853],[139.94279,-2.49651],[139.94548,-2.49657],[139.95209,-2.49334],[139.96401,-2.48898],[139.96514,-2.4896],[139.96919,-2.48666],[139.97227,-2.48598]]]}},{"type":"Feature","properties":{"inventoryId":"gfw-oil-palm:1264","sector":"Sawit","subtype":"Oil palm concession","quality":"GFW","sourceDataset":"gfw-oil-palm","sourceRecordId":"1264","source":"Global Forest Watch via BNPB InAWARE","sourceUrl":"https://gis.bnpb.go.id/server/rest/services/InAWARE/Global_forest_watch2/MapServer/6","retrievedAt":"2026-08-24T04:32:16Z","geometryProcessing":"web display simplification tolerance 0.00035 degrees","name":"PT. TUNAS SAWERMA BLOK A","group":"No group","areaHa":15370.0,"hguAreaHa":0.0,"gfwId":"e6233b7e-87b7-46ae-8272-dec642b20b9a","upstreamSource":"varies","coverageCaveat":"GFW compilation; source dates and completeness vary and may be older than current permits.","region":"papua"},"geometry":{"type":"Polygon","coordinates":[[[140.52874,-6.52814],[140.52719,-6.52869],[140.52762,-6.53006],[140.52644,-6.53148],[140.52365,-6.53204],[140.52266,-6.53163],[140.5195,-6.52832],[140.51782,-6.52788],[140.51639,-6.53111],[140.51447,-6.53167],[140.51242,-6.52999],[140.50932,-6.5259],[140.50797,-6.52516],[140.50511,-6.5254],[140.49821,-6.52807],[140.49352,-6.52776],[140.48947,-6.5254],[140.48761,-6.52509],[140.47919,-6.52547],[140.47906,-6.52615],[140.48297,-6.53041],[140.48767,-6.53981],[140.49153,-6.54445],[140.49159,-6.5463],[140.49011,-6.54802],[140.48874,-6.54862],[140.48166,-6.54969],[140.48012,-6.55224],[140.48112,-6.55647],[140.48035,-6.55736],[140.4753,-6.55712],[140.46698,-6.54704],[140.44637,-6.56738],[140.44643,-6.56813],[140.56282,-6.67658],[140.61794,-6.61379],[140.52874,-6.52814]]]}},{"type":"Feature","properties":{"inventoryId":"gfw-oil-palm:1279","sector":"Sawit","subtype":"Oil palm concession","quality":"GFW","sourceDataset":"gfw-oil-palm","sourceRecordId":"1279","source":"Global Forest Watch via BNPB InAWARE","sourceUrl":"https://gis.bnpb.go.id/server/rest/services/InAWARE/Global_forest_watch2/MapServer/6","retrievedAt":"2026-08-24T04:32:16Z","geometryProcessing":"web display simplification tolerance 0.00035 degrees","name":"PUSAKA AGRO LESTARI","group":"No group","areaHa":38136.0,"hguAreaHa":0.0,"gfwId":"917ce48a-5b92-449a-9e02-d118e08c9bbf","upstreamSource":"varies","coverageCaveat":"GFW compilation; source dates and completeness vary and may be older than current permits.","region":"papua"},"geometry":{"type":"Polygon","coordinates":[[[136.63523,-4.25952],[136.63037,-4.2633],[136.62913,-4.26298],[136.62762,-4.26422],[136.62527,-4.26499],[136.62451,-4.26631],[136.6215,-4.26734],[136.61682,-4.27175],[136.61313,-4.27856],[136.61054,-4.28139],[136.60779,-4.28418],[136.60478,-4.28532],[136.60389,-4.28688],[136.60262,-4.28759],[136.60096,-4.29073],[136.59998,-4.29419],[136.59913,-4.29512],[136.59715,-4.29541],[136.59491,-4.30135],[136.59351,-4.3024],[136.59309,-4.30391],[136.59163,-4.30462],[136.59066,-4.30599],[136.59013,-4.30961],[136.59124,-4.31434],[136.5901,-4.31648],[136.58606,-4.31943],[136.58482,-4.32123],[136.58155,-4.32142],[136.58017,-4.3239],[136.57642,-4.32551],[136.57278,-4.32894],[136.57038,-4.32862],[136.56726,-4.33021],[136.56687,-4.33274],[136.56948,-4.33752],[136.56951,-4.33868],[136.5666,-4.34014],[136.56639,-4.34325],[136.56713,-4.345],[136.56808,-4.34518],[136.56948,-4.34315],[136.57083,-4.34288],[136.5722,-4.34367],[136.57281,-4.34513],[136.57275,-4.34732],[136.57172,-4.35067],[136.56993,-4.35329],[136.57019,-4.355],[136.574,-4.35529],[136.57539,-4.35883],[136.57999,-4.3624],[136.58068,-4.36377],[136.58068,-4.36527],[136.57962,-4.36702],[136.57547,-4.36823],[136.57606,-4.36987],[136.57996,-4.37003],[136.58086,-4.37164],[136.57988,-4.37394],[136.57767,-4.37481],[136.57703,-4.37819],[136.57827,-4.38368],[136.57716,-4.38899],[136.57793,-4.39041],[136.5802,-4.39231],[136.58041,-4.39392],[136.5793,-4.39567],[136.57769,-4.39678],[136.57545,-4.39656],[136.57423,-4.3953],[136.57297,-4.39577],[136.57265,-4.40111],[136.57109,-4.40309],[136.56877,-4.40443],[136.56877,-4.408],[136.56827,-4.40842],[136.56512,-4.4081],[136.56217,-4.41027],[136.55879,-4.41177],[136.55586,-4.42028],[136.55543,-4.42442],[136.55467,-4.42601],[136.55277,-4.42653],[136.54828,-4.42392],[136.54632,-4.42381],[136.54516,-4.42648],[136.54426,-4.4316],[136.54078,-4.43372],[136.5436,-4.43652],[136.54878,-4.43707],[136.55023,-4.43828],[136.55023,-4.43884],[136.54944,-4.44037],[136.54675,-4.4419],[136.54397,-4.44127],[136.5402,-4.44143],[136.53779,-4.43918],[136.53716,-4.44152],[136.5352,-4.44288],[136.53314,-4.44661],[136.53094,-4.44779],[136.53092,-4.44861],[136.535,-4.45092],[136.53674,-4.45037],[136.53767,-4.4491],[136.5386,-4.4492],[136.53957,-4.44997],[136.54003,-4.45183],[136.53765,-4.45613],[136.53682,-4.45651],[136.53221,-4.45377],[136.52813,-4.45391],[136.52674,-4.45764],[136.52676,-4.46106],[136.52821,-4.46283],[136.53165,-4.46421],[136.5325,-4.46548],[136.53207,-4.46637],[136.52844,-4.46857],[136.52405,-4.46954],[136.52345,-4.47013],[136.52325,-4.47092],[136.52462,-4.47354],[136.52381,-4.47467],[136.51494,-4.47296],[136.51569,-4.47487],[136.52042,-4.4775],[136.52062,-4.47851],[136.5189,-4.48005],[136.51876,-4.48085],[136.519,-4.4816],[136.5207,-4.48273],[136.51971,-4.48449],[136.52151,-4.48706],[136.52135,-4.48804],[136.519,-4.49136],[136.51609,-4.4913],[136.5142,-4.49204],[136.51155,-4.49126],[136.5111,-4.49348],[136.51211,-4.4958],[136.51706,-4.49764],[136.51886,-4.49687],[136.52056,-4.49455],[136.52179,-4.49554],[136.52268,-4.49804],[136.52179,-4.49968],[136.51892,-4.50192],[136.51682,-4.50271],[136.51634,-4.50552],[136.51458,-4.50796],[136.51502,-4.5096],[136.51555,-4.50927],[136.5162,-4.50996],[136.52436,-4.50988],[136.53246,-4.51053],[136.62847,-4.51243],[136.66345,-4.5142],[136.68414,-4.51455],[136.68006,-4.51204],[136.67929,-4.51026],[136.67959,-4.50744],[136.68287,-4.50578],[136.68434,-4.50612],[136.68616,-4.50744],[136.68769,-4.50764],[136.68929,-4.50629],[136.69016,-4.50301],[136.69311,-4.49986],[136.69287,-4.49879],[136.68947,-4.49691],[136.68864,-4.4952],[136.68927,-4.49249],[136.69256,-4.48748],[136.69264,-4.48566],[136.69167,-4.48477],[136.69022,-4.48473],[136.68913,-4.48598],[136.6881,-4.48891],[136.6865,-4.49021],[136.68442,-4.49059],[136.68151,-4.4896],[136.68099,-4.48899],[136.68113,-4.48641],[136.68481,-4.48409],[136.68545,-4.48186],[136.68416,-4.48049],[136.678,-4.47746],[136.67713,-4.47748],[136.67582,-4.47865],[136.67361,-4.47853],[136.67232,-4.47457],[136.67281,-4.46845],[136.67111,-4.46778],[136.67,-4.46811],[136.66893,-4.46932],[136.66852,-4.47089],[136.66877,-4.47506],[136.66832,-4.47601],[136.66578,-4.47673],[136.66416,-4.47597],[136.6637,-4.47512],[136.66307,-4.47142],[136.66337,-4.46609],[136.66491,-4.46132],[136.66198,-4.45599],[136.662,-4.45213],[136.65964,-4.44942],[136.65931,-4.4476],[136.65978,-4.44597],[136.66115,-4.44496],[136.66269,-4.4449],[136.66511,-4.44643],[136.66667,-4.44643],[136.66806,-4.44474],[136.66864,-4.4412],[136.66986,-4.43981],[136.67095,-4.4395],[136.6726,-4.4395],[136.67549,-4.44239],[136.67672,-4.44249],[136.67842,-4.43914],[136.68159,-4.43728],[136.68232,-4.43389],[136.67491,-4.43245],[136.67079,-4.42843],[136.66963,-4.42599],[136.66663,-4.42314],[136.66626,-4.42082],[136.66663,-4.41902],[136.66602,-4.41779],[136.65747,-4.41559],[136.65697,-4.41334],[136.65842,-4.41185],[136.66246,-4.41052],[136.66321,-4.40955],[136.66244,-4.40797],[136.66044,-4.40722],[136.66016,-4.40535],[136.66087,-4.40432],[136.6639,-4.40425],[136.6701,-4.4084],[136.67131,-4.40767],[136.67117,-4.4063],[136.66856,-4.40256],[136.66741,-4.39817],[136.66751,-4.3967],[136.66865,-4.39468],[136.67073,-4.39506],[136.67184,-4.39733],[136.67394,-4.39591],[136.67563,-4.39351],[136.68054,-4.39329],[136.68167,-4.39492],[136.68081,-4.39749],[136.68161,-4.40007],[136.68626,-4.40149],[136.6859,-4.39933],[136.68674,-4.39813],[136.68959,-4.3986],[136.692,-4.39997],[136.69256,-4.39973],[136.69262,-4.39822],[136.69387,-4.39512],[136.69763,-4.39183],[136.70179,-4.39104],[136.70715,-4.39214],[136.70745,-4.39032],[136.70874,-4.38799],[136.70953,-4.38751],[136.71234,-4.38797],[136.71319,-4.38692],[136.71351,-4.38367],[136.71424,-4.38319],[136.71636,-4.38337],[136.7167,-4.38214],[136.71614,-4.38066],[136.71694,-4.37878],[136.71694,-4.37701],[136.71781,-4.37567],[136.71807,-4.36789],[136.72011,-4.36634],[136.71991,-4.36252],[136.72106,-4.35979],[136.7209,-4.35701],[136.72379,-4.35422],[136.72686,-4.35244],[136.72785,-4.34899],[136.72906,-4.34741],[136.72787,-4.34562],[136.728,-4.34168],[136.73021,-4.33804],[136.72696,-4.33533],[136.72658,-4.33398],[136.72684,-4.33218],[136.72856,-4.32887],[136.71442,-4.31325],[136.70464,-4.30332],[136.7022,-4.29958],[136.6863,-4.30222],[136.66471,-4.30481],[136.66594,-4.2994],[136.66258,-4.29643],[136.66305,-4.29372],[136.66234,-4.28926],[136.66339,-4.28714],[136.66303,-4.28334],[136.66212,-4.28255],[136.66188,-4.28009],[136.65877,-4.27782],[136.65839,-4.27645],[136.66002,-4.27476],[136.64223,-4.25361],[136.64091,-4.25559],[136.63895,-4.25627],[136.63787,-4.2577],[136.63523,-4.25952]]]}},{"type":"Feature","properties":{"inventoryId":"gfw-oil-palm:1274","sector":"Sawit","subtype":"Oil palm concession","quality":"GFW","sourceDataset":"gfw-oil-palm","sourceRecordId":"1274","source":"Global Forest Watch via BNPB InAWARE","sourceUrl":"https://gis.bnpb.go.id/server/rest/services/InAWARE/Global_forest_watch2/MapServer/6","retrievedAt":"2026-08-24T04:32:16Z","geometryProcessing":"web display simplification tolerance 0.00035 degrees","name":"SINAR MAS II","group":"No group","areaHa":19962.0,"hguAreaHa":0.0,"gfwId":"4af10632-937e-4a7e-bd2d-7e9367d32239","upstreamSource":"varies","coverageCaveat":"GFW compilation; source dates and completeness vary and may be older than current permits.","region":"papua"},"geometry":{"type":"Polygon","coordinates":[[[139.90268,-2.86943],[139.90153,-2.87006],[139.89952,-2.87257],[139.89714,-2.87786],[139.89629,-2.88002],[139.8968,-2.8829],[139.89855,-2.88675],[139.90394,-2.89361],[139.92411,-2.91385],[139.92749,-2.92067],[139.92943,-2.92876],[139.92877,-2.94617],[139.92912,-2.95563],[139.93059,-2.96318],[139.93529,-2.97364],[139.93686,-2.9696],[139.9502,-2.95729],[139.95427,-2.95532],[139.96141,-2.95378],[139.96783,-2.95309],[139.97466,-2.95384],[139.97876,-2.96186],[139.99937,-2.96324],[140.00939,-2.96863],[140.01516,-2.97577],[140.01541,-2.97718],[140.0213,-2.98022],[140.02195,-2.98335],[140.02449,-2.98952],[140.02781,-2.99265],[140.03398,-2.99315],[140.03536,-2.99678],[140.03834,-2.99923],[140.03774,-3.00321],[140.03893,-3.0059],[140.03902,-3.01335],[140.03808,-3.01686],[140.03733,-3.01865],[140.0363,-3.01924],[140.03483,-3.01918],[140.0207,-3.04524],[140.01848,-3.04759],[140.01625,-3.05811],[140.01657,-3.06218],[140.02834,-3.07249],[140.02806,-3.07593],[140.02894,-3.07687],[140.02863,-3.07794],[140.02587,-3.07988],[140.02067,-3.08614],[140.02834,-3.08924],[140.0841,-3.12323],[140.07839,-3.09635],[140.07188,-3.09169],[140.05396,-3.07233],[140.05212,-3.06795],[140.0509,-3.06297],[140.0529,-3.05642],[140.05619,-3.05188],[140.06317,-3.04696],[140.0695,-3.04492],[140.08037,-3.04279],[140.08413,-3.04145],[140.0887,-3.03832],[140.09014,-3.03659],[140.09149,-3.03215],[140.0908,-3.02864],[140.09027,-3.02682],[140.08482,-3.01896],[140.08397,-3.01364],[140.0846,-3.00743],[140.08588,-3.00374],[140.08942,-3.00164],[140.09324,-3.00161],[140.09788,-3.00324],[140.10204,-3.0064],[140.10577,-3.01066],[140.10965,-3.01799],[140.11169,-3.02313],[140.11724,-3.0406],[140.13922,-3.03731],[140.15237,-2.99961],[140.15312,-2.99878],[140.13096,-2.98874],[140.11384,-2.97959],[140.11313,-2.97802],[140.10609,-2.97391],[140.10187,-2.97255],[140.10101,-2.96804],[140.09933,-2.96704],[140.09654,-2.96272],[140.09554,-2.96268],[140.09508,-2.96433],[140.09368,-2.96494],[140.09104,-2.96547],[140.09032,-2.96486],[140.09061,-2.96365],[140.09254,-2.96247],[140.09168,-2.95986],[140.08832,-2.96122],[140.08736,-2.96122],[140.08611,-2.96],[140.08493,-2.96],[140.08511,-2.96283],[140.08432,-2.96365],[140.08228,-2.96315],[140.07996,-2.96547],[140.07638,-2.96676],[140.0746,-2.96679],[140.07392,-2.96801],[140.07142,-2.9679],[140.06677,-2.96629],[140.06559,-2.96697],[140.06155,-2.96526],[140.06091,-2.96297],[140.05926,-2.96186],[140.05369,-2.96118],[140.05247,-2.96236],[140.02559,-2.9506],[139.99475,-2.93616],[139.98696,-2.93302],[139.98492,-2.93455],[139.98413,-2.93345],[139.98438,-2.93223],[139.98363,-2.9323],[139.98331,-2.93105],[139.98353,-2.93034],[139.98421,-2.93016],[139.98631,-2.93048],[139.98631,-2.92884],[139.98363,-2.92594],[139.98342,-2.92394],[139.98492,-2.92415],[139.98574,-2.92108],[139.98628,-2.92158],[139.98696,-2.92036],[139.98685,-2.91915],[139.98824,-2.91904],[139.98785,-2.91851],[139.98606,-2.91826],[139.98799,-2.91747],[139.98706,-2.91572],[139.99064,-2.91497],[139.99178,-2.91447],[139.99228,-2.91357],[139.991,-2.91261],[139.99075,-2.9076],[139.98971,-2.90853],[139.9891,-2.90818],[139.98907,-2.90732],[139.99128,-2.9066],[139.99296,-2.9046],[139.99232,-2.90321],[139.98946,-2.90228],[139.98935,-2.90078],[139.98799,-2.90121],[139.9866,-2.89999],[139.98631,-2.89874],[139.98717,-2.89706],[139.98585,-2.89767],[139.98381,-2.89559],[139.96998,-2.89702],[139.95879,-2.89374],[139.95111,-2.88691],[139.94843,-2.88369],[139.94003,-2.87118],[139.9193,-2.86979],[139.91837,-2.86571],[139.91726,-2.86543],[139.9179,-2.86285],[139.91708,-2.8626],[139.91662,-2.8605],[139.90268,-2.86943]]]}},{"type":"Feature","properties":{"inventoryId":"gfw-oil-palm:1275","sector":"Sawit","subtype":"Oil palm concession","quality":"GFW","sourceDataset":"gfw-oil-palm","sourceRecordId":"1275","source":"Global Forest Watch via BNPB InAWARE","sourceUrl":"https://gis.bnpb.go.id/server/rest/services/InAWARE/Global_forest_watch2/MapServer/6","retrievedAt":"2026-08-24T04:32:16Z","geometryProcessing":"web display simplification tolerance 0.00035 degrees","name":"TUNAS SAWA ERMA","group":"No group","areaHa":20232.0,"hguAreaHa":0.0,"gfwId":"0d365a72-21d3-4163-9307-730f622425ab","upstreamSource":"varies","coverageCaveat":"GFW compilation; source dates and completeness vary and may be older than current permits.","region":"papua"},"geometry":{"type":"Polygon","coordinates":[[[140.18247,-6.66988],[140.1824,-6.67229],[140.17777,-6.6783],[140.17777,-6.68073],[140.18092,-6.68143],[140.18388,-6.68043],[140.18786,-6.68002],[140.19106,-6.68123],[140.19213,-6.68406],[140.18738,-6.68763],[140.18575,-6.68828],[140.18201,-6.68848],[140.17835,-6.69011],[140.17663,-6.69753],[140.1767,-6.70066],[140.17737,-6.70238],[140.18114,-6.7076],[140.18183,-6.70945],[140.18173,-6.71261],[140.17531,-6.72797],[140.17257,-6.73234],[140.17224,-6.73489],[140.17276,-6.73647],[140.17566,-6.73891],[140.1829,-6.74174],[140.18775,-6.75138],[140.18849,-6.75423],[140.18553,-6.76321],[140.18551,-6.76465],[140.18327,-6.76876],[140.18064,-6.77015],[140.17431,-6.76981],[140.17309,-6.77046],[140.17202,-6.77235],[140.17389,-6.77627],[140.17422,-6.77958],[140.17246,-6.78654],[140.16948,-6.78889],[140.16695,-6.78974],[140.16593,-6.79126],[140.16682,-6.79478],[140.17037,-6.79868],[140.17052,-6.7995],[140.26695,-6.71115],[140.34727,-6.63559],[140.2914,-6.57045],[140.22113,-6.63528],[140.20559,-6.64871],[140.18247,-6.66988]]]}}]}
