{
  "type": "FeatureCollection",
  "features": [
    {
      "type": "Feature",
      "properties": {
        "objectid_1": 24,
        "objectid": 24,
        "po_legalst": "Ijin Lokasi",
        "po_legal_1": "Ijin Lokasi",
        "po_hgu": " ",
        "po_area_hg": 7500,
        "subgroup": " ",
        "groupid": 34,
        "source": "varies",
        "zsl": 0,
        "group_comp": "Kaestindo Group",
        "shape_leng": 101570.334785,
        "type": "Ijin Lokasi",
        "area_ha": 23095,
        "country": "IDN",
        "company": "PT. Bagus Sentosa Gemilang",
        "name": "PT. Bagus Sentosa Gemilang",
        "gfwid": "50b95966-c22f-419e-8ce5-de2e39ac10f7",
        "globalid": "{17347225-0311-4712-808E-3EF1EFBC28B7}",
        "shape_Length": 101570.33505118225,
        "shape_Area": 232541684.3161158,
        "_researchDossierId": "bsg",
        "_researchQueryUrl": "https://gfw-staging.wri.org/arcgis/rest/services/country_data/asia/MapServer/2/query?objectIds=1%2C2%2C3%2C4%2C5%2C6%2C7%2C8%2C9%2C10%2C11%2C12%2C13%2C14%2C15%2C16%2C17%2C18%2C19%2C20%2C21%2C22%2C23%2C24%2C25%2C26%2C27%2C28%2C29%2C30%2C31%2C32%2C33%2C34%2C35%2C36%2C37%2C38%2C39%2C40%2C41%2C42%2C43%2C44%2C45%2C46%2C47%2C48%2C49%2C50%2C51%2C52%2C53%2C54%2C55%2C56%2C57%2C58%2C59%2C60%2C61%2C62%2C63%2C64%2C65%2C66%2C67%2C68%2C69%2C70%2C71%2C72%2C73%2C74%2C75%2C76%2C77%2C78%2C79%2C80%2C81%2C82%2C83%2C84%2C85%2C86%2C87%2C88%2C89%2C90%2C91%2C92%2C93%2C94%2C95%2C96%2C97%2C98%2C99%2C100%2C101%2C102%2C103%2C104%2C105%2C106%2C107%2C108%2C109%2C110%2C111%2C112%2C113%2C114%2C115%2C116%2C117%2C118%2C119%2C120%2C121%2C122%2C123%2C124%2C125%2C126%2C127%2C128%2C129%2C130%2C131%2C132%2C133%2C134%2C135%2C136%2C137%2C138%2C139%2C140%2C141%2C142%2C143%2C144%2C145%2C146%2C147%2C148%2C149%2C150%2C151%2C152%2C153%2C154%2C155%2C156%2C157%2C158%2C159%2C160%2C161%2C162%2C163%2C164%2C165%2C166%2C167%2C168%2C169%2C170%2C171%2C172%2C173%2C174%2C175%2C176%2C177%2C178%2C179%2C180%2C181%2C182%2C183%2C184%2C185%2C186%2C187%2C188%2C189%2C190%2C191%2C192%2C193%2C194%2C195%2C196%2C197%2C198%2C199%2C200%2C201%2C202%2C203%2C204%2C205%2C206%2C207%2C208%2C209%2C210%2C211%2C212%2C213%2C214%2C215%2C216%2C217%2C218%2C219%2C220%2C221%2C222%2C223%2C224%2C225%2C226%2C227%2C228%2C229%2C230%2C231%2C232%2C233%2C234%2C235%2C236%2C237%2C238%2C239%2C240%2C241%2C242%2C243%2C244%2C245%2C246%2C247%2C248%2C249%2C250&outFields=%2A&returnGeometry=true&outSR=4326&f=geojson"
      },
      "geometry": {
        "type": "Polygon",
        "coordinates": [
          [
            [
              117.69811968535961,
              0.6217133614649043,
              0,
              null
            ],
            [
              117.68645333842659,
              0.6342674231095465,
              0,
              null
            ],
            [
              117.65414649643184,
              0.6656525760672849,
              0,
              null
            ],
            [
              117.66401802559682,
              0.6862771188111918,
              0,
              null
            ],
            [
              117.67163420308702,
              0.686784451759958,
              0,
              null
            ],
            [
              117.71345831283475,
              0.686784451759958,
              0,
              null
            ],
            [
              117.71606792412503,
              0.6970377286950981,
              0,
              null
            ],
            [
              117.72593945239171,
              0.7158688203625716,
              0,
              null
            ],
            [
              117.73222134512243,
              0.7257327372191661,
              0,
              null
            ],
            [
              117.69183779352721,
              0.7624981959846936,
              0,
              null
            ],
            [
              117.6729921449795,
              0.7400802338484032,
              0,
              null
            ],
            [
              117.6344034398984,
              0.7445638288029657,
              0,
              null
            ],
            [
              117.62273706511762,
              0.7454605384448463,
              0,
              null
            ],
            [
              117.6272241382837,
              0.7006246144699144,
              0,
              null
            ],
            [
              117.54825185375965,
              0.6997278887918552,
              0,
              null
            ],
            [
              117.55094410915771,
              0.6235068130032686,
              0,
              null
            ],
            [
              117.51953467694521,
              0.6235068130032686,
              0,
              null
            ],
            [
              117.51953467694521,
              0.6019855604265842,
              0,
              null
            ],
            [
              117.52402175100963,
              0.6010888342779174,
              0,
              null
            ],
            [
              117.52940620611025,
              0.6001921250490763,
              0,
              null
            ],
            [
              117.52850879632794,
              0.5975019641437076,
              0,
              null
            ],
            [
              117.52671397855995,
              0.5930183686931186,
              0,
              null
            ],
            [
              117.52491915989363,
              0.5885347732040958,
              0,
              null
            ],
            [
              117.52581656877764,
              0.5589430550165956,
              0,
              null
            ],
            [
              117.54735444487567,
              0.5580463463015413,
              0,
              null
            ],
            [
              117.54825185375965,
              0.5499758799983061,
              0,
              null
            ],
            [
              117.56440527475705,
              0.5517693150088162,
              0,
              null
            ],
            [
              117.56620012037283,
              0.5706004066829816,
              0,
              null
            ],
            [
              117.63350600226832,
              0.6450280485700031,
              0,
              null
            ],
            [
              117.6595309802785,
              0.630680551948183,
              0,
              null
            ],
            [
              117.65235167866382,
              0.602882269360766,
              0,
              null
            ],
            [
              117.6694025085452,
              0.5876380637334816,
              0,
              null
            ],
            [
              117.67299214587783,
              0.5992953995044222,
              0,
              null
            ],
            [
              117.6792740368119,
              0.6109527517864747,
              0,
              null
            ],
            [
              117.68555592864428,
              0.6181264915946297,
              0,
              null
            ],
            [
              117.69183779352721,
              0.6199199263843457,
              0,
              null
            ],
            [
              117.69811968535961,
              0.6217133614649043,
              0,
              null
            ]
          ]
        ]
      }
    },
    {
      "type": "Feature",
      "properties": {
        "objectid_1": 806,
        "objectid": 806,
        "po_legalst": " ",
        "po_legal_1": " ",
        "po_hgu": " ",
        "po_area_hg": 0,
        "subgroup": " ",
        "groupid": 99,
        "source": "varies",
        "zsl": 0,
        "group_comp": "No group",
        "shape_leng": 74254.1473921,
        "type": " ",
        "area_ha": 13958,
        "country": "IDN",
        "company": "PT. Lestari Alam Raya",
        "name": "PT. Lestari Alam Raya",
        "gfwid": "f7a74034-7e32-4ada-8bea-8d26b6d426dd",
        "globalid": "{23797958-ADB1-4E88-9636-FC5C03A82DA1}",
        "shape_Length": 74254.14751044328,
        "shape_Area": 140535943.1789988,
        "_researchDossierId": "lar",
        "_researchQueryUrl": "https://gfw-staging.wri.org/arcgis/rest/services/country_data/asia/MapServer/2/query?objectIds=751%2C752%2C753%2C754%2C755%2C756%2C757%2C758%2C759%2C760%2C761%2C762%2C763%2C764%2C765%2C766%2C767%2C768%2C769%2C770%2C771%2C772%2C773%2C774%2C775%2C776%2C777%2C778%2C779%2C780%2C781%2C782%2C783%2C784%2C785%2C786%2C787%2C788%2C789%2C790%2C791%2C792%2C793%2C794%2C795%2C796%2C797%2C798%2C799%2C800%2C801%2C802%2C803%2C804%2C805%2C806%2C807%2C808%2C809%2C810%2C811%2C812%2C813%2C814%2C815%2C816%2C817%2C818%2C819%2C820%2C821%2C822%2C823%2C824%2C825%2C826%2C827%2C828%2C829%2C830%2C831%2C832%2C833%2C834%2C835%2C836%2C837%2C838%2C839%2C840%2C841%2C842%2C843%2C844%2C845%2C846%2C847%2C848%2C849%2C850%2C851%2C852%2C853%2C854%2C855%2C856%2C857%2C858%2C859%2C860%2C861%2C862%2C863%2C864%2C865%2C866%2C867%2C868%2C869%2C870%2C871%2C872%2C873%2C874%2C875%2C876%2C877%2C878%2C879%2C880%2C881%2C882%2C883%2C884%2C885%2C886%2C887%2C888%2C889%2C890%2C891%2C892%2C893%2C894%2C895%2C896%2C897%2C898%2C899%2C900%2C901%2C902%2C903%2C904%2C905%2C906%2C907%2C908%2C909%2C910%2C911%2C912%2C913%2C914%2C915%2C916%2C917%2C918%2C919%2C920%2C921%2C922%2C923%2C924%2C925%2C926%2C927%2C928%2C929%2C930%2C931%2C932%2C933%2C934%2C935%2C936%2C937%2C938%2C939%2C940%2C941%2C942%2C943%2C944%2C945%2C946%2C947%2C948%2C949%2C950%2C951%2C952%2C953%2C954%2C955%2C956%2C957%2C958%2C959%2C960%2C961%2C962%2C963%2C964%2C965%2C966%2C967%2C968%2C969%2C970%2C971%2C972%2C973%2C974%2C975%2C976%2C977%2C978%2C979%2C980%2C981%2C982%2C983%2C984%2C985%2C986%2C987%2C988%2C989%2C990%2C991%2C992%2C993%2C994%2C995%2C996%2C997%2C998%2C999%2C1000&outFields=%2A&returnGeometry=true&outSR=4326&f=geojson"
      },
      "geometry": {
        "type": "Polygon",
        "coordinates": [
          [
            [
              108.98331451434439,
              0.6357603071634818,
              0,
              null
            ],
            [
              108.95999145490981,
              0.6357511287430051,
              0,
              null
            ],
            [
              108.9600296027667,
              0.5325132601032612,
              0,
              null
            ],
            [
              108.96044158902059,
              0.5325967072934323,
              0,
              null
            ],
            [
              108.9605560307945,
              0.5328924055290452,
              0,
              null
            ],
            [
              108.96240234358785,
              0.5330170988722378,
              0,
              null
            ],
            [
              108.96287536677207,
              0.5353865620556053,
              0,
              null
            ],
            [
              108.96397399917805,
              0.5360187291942045,
              0,
              null
            ],
            [
              108.96601104766239,
              0.5363353490097751,
              0,
              null
            ],
            [
              108.96820831337261,
              0.53744173111553,
              0,
              null
            ],
            [
              108.96993255589864,
              0.5396537186155236,
              0,
              null
            ],
            [
              108.97244262756722,
              0.5423397421359392,
              0,
              null
            ],
            [
              108.97400665286736,
              0.5432880519205483,
              0,
              null
            ],
            [
              108.97510528617164,
              0.5443940761450234,
              0,
              null
            ],
            [
              108.9766769408635,
              0.5464480519409561,
              0,
              null
            ],
            [
              108.97761535694188,
              0.5478699806693433,
              0,
              null
            ],
            [
              108.97761535604357,
              0.5503972764386951,
              0,
              null
            ],
            [
              108.97981262265212,
              0.5532411936576846,
              0,
              null
            ],
            [
              108.9834213258283,
              0.5543481116201499,
              0,
              null
            ],
            [
              108.98624420165861,
              0.5551389450390671,
              0,
              null
            ],
            [
              108.98765564002291,
              0.5570349100450049,
              0,
              null
            ],
            [
              108.9895401006731,
              0.5578252670194135,
              0,
              null
            ],
            [
              108.99141693103327,
              0.5573520668178087,
              0,
              null
            ],
            [
              108.99330139078515,
              0.5573527216586753,
              0,
              null
            ],
            [
              108.99487304727363,
              0.5575112102113788,
              0,
              null
            ],
            [
              108.9951171878083,
              0.5578308695463075,
              0,
              null
            ],
            [
              108.99574279792836,
              0.5577533836436442,
              0,
              null
            ],
            [
              109.0006103516347,
              0.5597959162238316,
              0,
              null
            ],
            [
              109.00358581529913,
              0.5634704825031819,
              0,
              null
            ],
            [
              109.00560760500011,
              0.5664644244829502,
              0,
              null
            ],
            [
              109.00790405190422,
              0.5682340260192317,
              0,
              null
            ],
            [
              109.01101684551773,
              0.5700038677500741,
              0,
              null
            ],
            [
              109.01641845664362,
              0.569869637341741,
              0,
              null
            ],
            [
              109.01966094901786,
              0.5710952882643388,
              0,
              null
            ],
            [
              109.0243911745718,
              0.5719133019759547,
              0,
              null
            ],
            [
              109.02587890685315,
              0.5759956238990367,
              0,
              null
            ],
            [
              109.0285797124161,
              0.5811668633980245,
              0,
              null
            ],
            [
              109.03001403805722,
              0.5823003647735034,
              0,
              null
            ],
            [
              109.03429412860206,
              0.5856707090690997,
              0,
              null
            ],
            [
              109.046409607126,
              0.5880457759034073,
              0,
              null
            ],
            [
              109.0561752321055,
              0.5894054174951565,
              0,
              null
            ],
            [
              109.06256866505178,
              0.5907638667539893,
              0,
              null
            ],
            [
              109.0703125003304,
              0.5904275176519638,
              0,
              null
            ],
            [
              109.07604217529975,
              0.5941590672736005,
              0,
              null
            ],
            [
              109.08647918674957,
              0.6036562921583911,
              0,
              null
            ],
            [
              109.09287261969585,
              0.6080663199873491,
              0,
              null
            ],
            [
              109.09859466527351,
              0.6158667209845232,
              0,
              null
            ],
            [
              109.10431671085117,
              0.6233280300991829,
              0,
              null
            ],
            [
              109.10802459791621,
              0.6273981925410127,
              0,
              null
            ],
            [
              109.11003875732713,
              0.6321456430553795,
              0,
              null
            ],
            [
              109.11306762673352,
              0.6385890240852763,
              0,
              null
            ],
            [
              109.1181182867392,
              0.6416423922234487,
              0,
              null
            ],
            [
              109.12135314882339,
              0.6434279681286829,
              0,
              null
            ],
            [
              109.1256103511931,
              0.6432580948412455,
              0,
              null
            ],
            [
              109.13037109341555,
              0.6458423736025012,
              0,
              null
            ],
            [
              109.13077545117609,
              0.6492574810203078,
              0,
              null
            ],
            [
              109.13433837890034,
              0.665252388329583,
              0,
              null
            ],
            [
              109.13953399645015,
              0.6816612480225916,
              0,
              null
            ],
            [
              109.11709594735201,
              0.681652486475407,
              0,
              null
            ],
            [
              109.09393310514328,
              0.6816433072411918,
              0,
              null
            ],
            [
              109.09394836392669,
              0.6439709663463605,
              0,
              null
            ],
            [
              109.04422760019918,
              0.6439520121927853,
              0,
              null
            ],
            [
              109.04421234141574,
              0.6805911067474474,
              0,
              null
            ],
            [
              109.02683257991833,
              0.6805839539674782,
              0,
              null
            ],
            [
              109.02671050965102,
              0.6369211077486806,
              0,
              null
            ],
            [
              109.02668762237421,
              0.6357772348728489,
              0,
              null
            ],
            [
              108.98932647680697,
              0.635762691145508,
              0,
              null
            ],
            [
              108.98928832984842,
              0.632218718351967,
              0,
              null
            ],
            [
              108.98331451434439,
              0.6322284941220363,
              0,
              null
            ],
            [
              108.98331451434439,
              0.6357603071634818,
              0,
              null
            ]
          ]
        ]
      }
    },
    {
      "type": "Feature",
      "properties": {
        "objectid_1": 824,
        "objectid": 824,
        "po_legalst": " ",
        "po_legal_1": " ",
        "po_hgu": " ",
        "po_area_hg": 0,
        "subgroup": " ",
        "groupid": 99,
        "source": "varies",
        "zsl": 0,
        "group_comp": "No group",
        "shape_leng": 34628.63993,
        "type": " ",
        "area_ha": 6933,
        "country": "IDN",
        "company": "PT. Tri H.M",
        "name": "PT. Tri H.M 1",
        "gfwid": "cfe2d453-493d-4aba-b4ae-5fcf47225ed7",
        "globalid": "{02D2C278-E7AF-4B5D-B0C6-A5A889E4C3AB}",
        "shape_Length": 34628.639582255244,
        "shape_Area": 69795028.5958253,
        "_researchDossierId": "thm1",
        "_researchQueryUrl": "https://gfw-staging.wri.org/arcgis/rest/services/country_data/asia/MapServer/2/query?objectIds=751%2C752%2C753%2C754%2C755%2C756%2C757%2C758%2C759%2C760%2C761%2C762%2C763%2C764%2C765%2C766%2C767%2C768%2C769%2C770%2C771%2C772%2C773%2C774%2C775%2C776%2C777%2C778%2C779%2C780%2C781%2C782%2C783%2C784%2C785%2C786%2C787%2C788%2C789%2C790%2C791%2C792%2C793%2C794%2C795%2C796%2C797%2C798%2C799%2C800%2C801%2C802%2C803%2C804%2C805%2C806%2C807%2C808%2C809%2C810%2C811%2C812%2C813%2C814%2C815%2C816%2C817%2C818%2C819%2C820%2C821%2C822%2C823%2C824%2C825%2C826%2C827%2C828%2C829%2C830%2C831%2C832%2C833%2C834%2C835%2C836%2C837%2C838%2C839%2C840%2C841%2C842%2C843%2C844%2C845%2C846%2C847%2C848%2C849%2C850%2C851%2C852%2C853%2C854%2C855%2C856%2C857%2C858%2C859%2C860%2C861%2C862%2C863%2C864%2C865%2C866%2C867%2C868%2C869%2C870%2C871%2C872%2C873%2C874%2C875%2C876%2C877%2C878%2C879%2C880%2C881%2C882%2C883%2C884%2C885%2C886%2C887%2C888%2C889%2C890%2C891%2C892%2C893%2C894%2C895%2C896%2C897%2C898%2C899%2C900%2C901%2C902%2C903%2C904%2C905%2C906%2C907%2C908%2C909%2C910%2C911%2C912%2C913%2C914%2C915%2C916%2C917%2C918%2C919%2C920%2C921%2C922%2C923%2C924%2C925%2C926%2C927%2C928%2C929%2C930%2C931%2C932%2C933%2C934%2C935%2C936%2C937%2C938%2C939%2C940%2C941%2C942%2C943%2C944%2C945%2C946%2C947%2C948%2C949%2C950%2C951%2C952%2C953%2C954%2C955%2C956%2C957%2C958%2C959%2C960%2C961%2C962%2C963%2C964%2C965%2C966%2C967%2C968%2C969%2C970%2C971%2C972%2C973%2C974%2C975%2C976%2C977%2C978%2C979%2C980%2C981%2C982%2C983%2C984%2C985%2C986%2C987%2C988%2C989%2C990%2C991%2C992%2C993%2C994%2C995%2C996%2C997%2C998%2C999%2C1000&outFields=%2A&returnGeometry=true&outSR=4326&f=geojson"
      },
      "geometry": {
        "type": "Polygon",
        "coordinates": [
          [
            [
              109.37164306662173,
              -0.16166235574309157,
              0,
              null
            ],
            [
              109.37039184548328,
              -0.16240619106149193,
              0,
              null
            ],
            [
              109.362831116504,
              -0.15428808306814906,
              0,
              null
            ],
            [
              109.36831665004038,
              -0.1457504331515666,
              0,
              null
            ],
            [
              109.33372497545977,
              -0.11979826522823132,
              0,
              null
            ],
            [
              109.27761840817772,
              -0.1869595352829757,
              0,
              null
            ],
            [
              109.32636260976658,
              -0.23036102958361224,
              0,
              null
            ],
            [
              109.36941528334465,
              -0.18248072294572637,
              0,
              null
            ],
            [
              109.36706542980028,
              -0.1797823913523096,
              0,
              null
            ],
            [
              109.37175750659904,
              -0.17360582941143177,
              0,
              null
            ],
            [
              109.36592865043578,
              -0.168121621023634,
              0,
              null
            ],
            [
              109.37164306662173,
              -0.16166235574309157,
              0,
              null
            ]
          ]
        ]
      }
    },
    {
      "type": "Feature",
      "properties": {
        "objectid_1": 869,
        "objectid": 869,
        "po_legalst": " ",
        "po_legal_1": " ",
        "po_hgu": " ",
        "po_area_hg": 0,
        "subgroup": " ",
        "groupid": 19,
        "source": "varies",
        "zsl": 0,
        "group_comp": "Ganda Group",
        "shape_leng": 71167.5681096,
        "type": " ",
        "area_ha": 13581,
        "country": "IDN",
        "company": "PT. Sumatra Unggul Makmur",
        "name": "PT. Sumatra Unggul Makmur",
        "gfwid": "ca36af51-edef-47e3-b6d3-4be4452a3c48",
        "globalid": "{928B4592-7666-4F59-A556-E19A4A4F2346}",
        "shape_Length": 71167.56848503715,
        "shape_Area": 136775166.76856583,
        "_researchDossierId": "sum",
        "_researchQueryUrl": "https://gfw-staging.wri.org/arcgis/rest/services/country_data/asia/MapServer/2/query?objectIds=751%2C752%2C753%2C754%2C755%2C756%2C757%2C758%2C759%2C760%2C761%2C762%2C763%2C764%2C765%2C766%2C767%2C768%2C769%2C770%2C771%2C772%2C773%2C774%2C775%2C776%2C777%2C778%2C779%2C780%2C781%2C782%2C783%2C784%2C785%2C786%2C787%2C788%2C789%2C790%2C791%2C792%2C793%2C794%2C795%2C796%2C797%2C798%2C799%2C800%2C801%2C802%2C803%2C804%2C805%2C806%2C807%2C808%2C809%2C810%2C811%2C812%2C813%2C814%2C815%2C816%2C817%2C818%2C819%2C820%2C821%2C822%2C823%2C824%2C825%2C826%2C827%2C828%2C829%2C830%2C831%2C832%2C833%2C834%2C835%2C836%2C837%2C838%2C839%2C840%2C841%2C842%2C843%2C844%2C845%2C846%2C847%2C848%2C849%2C850%2C851%2C852%2C853%2C854%2C855%2C856%2C857%2C858%2C859%2C860%2C861%2C862%2C863%2C864%2C865%2C866%2C867%2C868%2C869%2C870%2C871%2C872%2C873%2C874%2C875%2C876%2C877%2C878%2C879%2C880%2C881%2C882%2C883%2C884%2C885%2C886%2C887%2C888%2C889%2C890%2C891%2C892%2C893%2C894%2C895%2C896%2C897%2C898%2C899%2C900%2C901%2C902%2C903%2C904%2C905%2C906%2C907%2C908%2C909%2C910%2C911%2C912%2C913%2C914%2C915%2C916%2C917%2C918%2C919%2C920%2C921%2C922%2C923%2C924%2C925%2C926%2C927%2C928%2C929%2C930%2C931%2C932%2C933%2C934%2C935%2C936%2C937%2C938%2C939%2C940%2C941%2C942%2C943%2C944%2C945%2C946%2C947%2C948%2C949%2C950%2C951%2C952%2C953%2C954%2C955%2C956%2C957%2C958%2C959%2C960%2C961%2C962%2C963%2C964%2C965%2C966%2C967%2C968%2C969%2C970%2C971%2C972%2C973%2C974%2C975%2C976%2C977%2C978%2C979%2C980%2C981%2C982%2C983%2C984%2C985%2C986%2C987%2C988%2C989%2C990%2C991%2C992%2C993%2C994%2C995%2C996%2C997%2C998%2C999%2C1000&outFields=%2A&returnGeometry=true&outSR=4326&f=geojson"
      },
      "geometry": {
        "type": "Polygon",
        "coordinates": [
          [
            [
              109.21159362808191,
              1.1677845722819944,
              0,
              null
            ],
            [
              109.21154022233998,
              1.1675475839488458,
              0,
              null
            ],
            [
              109.21137237572238,
              1.167772888525644,
              0,
              null
            ],
            [
              109.21072387742721,
              1.1673886771211544,
              0,
              null
            ],
            [
              109.21069335896205,
              1.1674088239469858,
              0,
              null
            ],
            [
              109.1584625244643,
              1.1481484171311431,
              0,
              null
            ],
            [
              109.15875244134918,
              1.1474250555774843,
              0,
              null
            ],
            [
              109.1584625244643,
              1.147300124076787,
              0,
              null
            ],
            [
              109.15928649966705,
              1.1466993092914808,
              0,
              null
            ],
            [
              109.15889739979164,
              1.14657688176066,
              0,
              null
            ],
            [
              109.15959930382877,
              1.1459622382295682,
              0,
              null
            ],
            [
              109.16044616720669,
              1.1453002690962057,
              0,
              null
            ],
            [
              109.16087341314234,
              1.1447327136638654,
              0,
              null
            ],
            [
              109.16115570063553,
              1.1438810821235073,
              0,
              null
            ],
            [
              109.16105651854333,
              1.1431711906416582,
              0,
              null
            ],
            [
              109.16054534840059,
              1.1426030402217071,
              0,
              null
            ],
            [
              109.15946197567634,
              1.141892552959182,
              0,
              null
            ],
            [
              109.15814209001256,
              1.1415604353915407,
              0,
              null
            ],
            [
              109.15489959674001,
              1.1405172347182577,
              0,
              null
            ],
            [
              109.15380096433402,
              1.1405831570983285,
              0,
              null
            ],
            [
              109.10828399633597,
              1.141779422736636,
              0,
              null
            ],
            [
              109.1066055301602,
              1.1380568745083723,
              0,
              null
            ],
            [
              109.10134124718674,
              1.1307173975360705,
              0,
              null
            ],
            [
              109.08824157713245,
              1.1169016362676023,
              0,
              null
            ],
            [
              109.08468627879988,
              1.1105217929477706,
              0,
              null
            ],
            [
              109.08453369096574,
              1.1038511997890166,
              0,
              null
            ],
            [
              109.08169555635203,
              1.098968147903819,
              0,
              null
            ],
            [
              109.0794067379413,
              1.0907472372199258,
              0,
              null
            ],
            [
              109.07963561969254,
              1.090516924861474,
              0,
              null
            ],
            [
              109.09229278592605,
              1.0905250315865953,
              0,
              null
            ],
            [
              109.09185028120699,
              1.0209411382260856,
              0,
              null
            ],
            [
              109.10937499935021,
              1.0209515094259647,
              0,
              null
            ],
            [
              109.10937500024853,
              1.0136458867718108,
              0,
              null
            ],
            [
              109.10989379888468,
              1.0135751968289084,
              0,
              null
            ],
            [
              109.11094665494039,
              1.0133531087493624,
              0,
              null
            ],
            [
              109.11161041291729,
              1.0130749943033055,
              0,
              null
            ],
            [
              109.11260223383934,
              1.01240718325869,
              0,
              null
            ],
            [
              109.11348724327746,
              1.012296437374914,
              0,
              null
            ],
            [
              109.11498260495057,
              1.012464404194289,
              0,
              null
            ],
            [
              109.11658477810755,
              1.0126881602456637,
              0,
              null
            ],
            [
              109.11819457975794,
              1.0130788088519842,
              0,
              null
            ],
            [
              109.1187973017029,
              1.01369178260085,
              0,
              null
            ],
            [
              109.11968231203934,
              1.0141379840819362,
              0,
              null
            ],
            [
              109.1205139157355,
              1.0148067468345017,
              0,
              null
            ],
            [
              109.12139892517365,
              1.015754104211655,
              0,
              null
            ],
            [
              109.12245178212767,
              1.0169242614125247,
              0,
              null
            ],
            [
              109.12377929628487,
              1.0179831982645595,
              0,
              null
            ],
            [
              109.12488555898085,
              1.0185407403155162,
              0,
              null
            ],
            [
              109.12554931605945,
              1.0189311501983587,
              0,
              null
            ],
            [
              109.12582397416094,
              1.0195437671600176,
              0,
              null
            ],
            [
              109.12609863316072,
              1.0201010709250387,
              0,
              null
            ],
            [
              109.12715148921644,
              1.0203243495175496,
              0,
              null
            ],
            [
              109.12770080541941,
              1.0202132464324454,
              0,
              null
            ],
            [
              109.12847900427194,
              1.0192669627835051,
              0,
              null
            ],
            [
              109.12941741945207,
              1.0186548235973791,
              0,
              null
            ],
            [
              109.13024139375652,
              1.0179231167439706,
              0,
              null
            ],
            [
              109.13060760545682,
              1.017370223533182,
              0,
              null
            ],
            [
              109.13102722200075,
              1.0185093886765375,
              0,
              null
            ],
            [
              109.13088989205168,
              1.0206449037984937,
              0,
              null
            ],
            [
              109.1291885377008,
              1.0226372479584676,
              0,
              null
            ],
            [
              109.12734985429917,
              1.0232056382227623,
              0,
              null
            ],
            [
              109.1249465941145,
              1.0239160069037259,
              0,
              null
            ],
            [
              109.12254333482815,
              1.0243417026062864,
              0,
              null
            ],
            [
              109.12084197957897,
              1.0253374578396088,
              0,
              null
            ],
            [
              109.11956787116371,
              1.0273298017775545,
              0,
              null
            ],
            [
              109.11942291272128,
              1.030461907143357,
              0,
              null
            ],
            [
              109.1204147336433,
              1.0327403543548404,
              0,
              null
            ],
            [
              109.12080383262042,
              1.0335265398626803,
              0,
              null
            ],
            [
              109.12253570543648,
              1.0345925092718422,
              0,
              null
            ],
            [
              109.12281799292967,
              1.0347354411628646,
              0,
              null
            ],
            [
              109.12323760947358,
              1.0348777766633843,
              0,
              null
            ],
            [
              109.12818908738706,
              1.0358772272620502,
              0,
              null
            ],
            [
              109.14077758729854,
              1.037166118518601,
              0,
              null
            ],
            [
              109.1482696526508,
              1.0383095734353374,
              0,
              null
            ],
            [
              109.1530838015135,
              1.0388817781147404,
              0,
              null
            ],
            [
              109.15986633343688,
              1.039455294913161,
              0,
              null
            ],
            [
              109.16580963137406,
              1.0394588705178094,
              0,
              null
            ],
            [
              109.16703033494568,
              1.0396238566898555,
              0,
              null
            ],
            [
              109.16726684608862,
              1.0395972736289418,
              0,
              null
            ],
            [
              109.170295715495,
              1.0398132801908093,
              0,
              null
            ],
            [
              109.17231750429764,
              1.0402961968976943,
              0,
              null
            ],
            [
              109.17407226528879,
              1.0408859253544207,
              0,
              null
            ],
            [
              109.17646026579172,
              1.0416368252529429,
              0,
              null
            ],
            [
              109.1831588744063,
              1.04485249530554,
              0,
              null
            ],
            [
              109.18412017865982,
              1.046458959844929,
              0,
              null
            ],
            [
              109.18453979520378,
              1.0483862157485406,
              0,
              null
            ],
            [
              109.18432617223594,
              1.0496708158420114,
              0,
              null
            ],
            [
              109.18384551966005,
              1.0524005890631762,
              0,
              null
            ],
            [
              109.1828384399546,
              1.055237173924021,
              0,
              null
            ],
            [
              109.18264007577015,
              1.0554451947398436,
              0,
              null
            ],
            [
              109.18128967253955,
              1.058348178842162,
              0,
              null
            ],
            [
              109.18060302728581,
              1.0597929960849468,
              0,
              null
            ],
            [
              109.17990875264037,
              1.062683224926393,
              0,
              null
            ],
            [
              109.1802215577004,
              1.0660022496517774,
              0,
              null
            ],
            [
              109.18016815195845,
              1.0691069368608528,
              0,
              null
            ],
            [
              109.1796340936406,
              1.0710872409818193,
              0,
              null
            ],
            [
              109.17878723205932,
              1.0729602570825265,
              0,
              null
            ],
            [
              109.1785125730595,
              1.0732982158711388,
              0,
              null
            ],
            [
              109.17793273928972,
              1.0743052956558488,
              0,
              null
            ],
            [
              109.17681121870862,
              1.0756962294585484,
              0,
              null
            ],
            [
              109.1752700806853,
              1.0764982700548462,
              0,
              null
            ],
            [
              109.17282867444038,
              1.077460407729761,
              0,
              null
            ],
            [
              109.1694183354486,
              1.0784754752395715,
              0,
              null
            ],
            [
              109.1675567629735,
              1.0787420264176966,
              0,
              null
            ],
            [
              109.16606903069214,
              1.079436898255859,
              0,
              null
            ],
            [
              109.16458129841075,
              1.0797572138528915,
              0,
              null
            ],
            [
              109.16229248089836,
              1.080130457729783,
              0,
              null
            ],
            [
              109.1594238278195,
              1.0807710878457542,
              0,
              null
            ],
            [
              109.15804290792036,
              1.0820548526267395,
              0,
              null
            ],
            [
              109.15740203901686,
              1.084035158217733,
              0,
              null
            ],
            [
              109.15756225624271,
              1.0860693454610602,
              0,
              null
            ],
            [
              109.15760803169468,
              1.088424563640024,
              0,
              null
            ],
            [
              109.1574478144688,
              1.0896557562876281,
              0,
              null
            ],
            [
              109.15718078575902,
              1.09067261242151,
              0,
              null
            ],
            [
              109.15711212213195,
              1.0908061263849147,
              0,
              null
            ],
            [
              109.15619659422867,
              1.0932253602210737,
              0,
              null
            ],
            [
              109.15550994897497,
              1.0944026708003658,
              0,
              null
            ],
            [
              109.1548156734312,
              1.0961151118472865,
              0,
              null
            ],
            [
              109.15433502175361,
              1.0978811984371735,
              0,
              null
            ],
            [
              109.15433502175361,
              1.0987377167228591,
              0,
              null
            ],
            [
              109.15496826216368,
              1.100718737033979,
              0,
              null
            ],
            [
              109.1559295655189,
              1.101950526391159,
              0,
              null
            ],
            [
              109.15650939928871,
              1.1030215025944126,
              0,
              null
            ],
            [
              109.1571502681922,
              1.103931785270584,
              0,
              null
            ],
            [
              109.15741729690197,
              1.1051096915919403,
              0,
              null
            ],
            [
              109.15741729780031,
              1.106554985026863,
              0,
              null
            ],
            [
              109.15740966751025,
              1.1083748339065305,
              0,
              null
            ],
            [
              109.15740966840858,
              1.1096469163439548,
              0,
              null
            ],
            [
              109.15747070264393,
              1.1096547841100721,
              0,
              null
            ],
            [
              109.15777587921055,
              1.1111236804103837,
              0,
              null
            ],
            [
              109.15833282480524,
              1.1131577486188693,
              0,
              null
            ],
            [
              109.15866851804041,
              1.1144007443547546,
              0,
              null
            ],
            [
              109.15908050609093,
              1.1155308490252214,
              0,
              null
            ],
            [
              109.16057586686571,
              1.117151140829466,
              0,
              null
            ],
            [
              109.16203308158028,
              1.117415665937976,
              0,
              null
            ],
            [
              109.16330718999549,
              1.1178307532467717,
              0,
              null
            ],
            [
              109.16461181687592,
              1.118170499669883,
              0,
              null
            ],
            [
              109.1650619509867,
              1.1187356712369614,
              0,
              null
            ],
            [
              109.16562652597305,
              1.119903564534301,
              0,
              null
            ],
            [
              109.16637420636046,
              1.120770096133281,
              0,
              null
            ],
            [
              109.16696929981198,
              1.1210341448994416,
              0,
              null
            ],
            [
              109.16790771499207,
              1.1211100820200488,
              0,
              null
            ],
            [
              109.16891479469753,
              1.1212236872683217,
              0,
              null
            ],
            [
              109.17030334488672,
              1.1214128730620867,
              0,
              null
            ],
            [
              109.17115783675803,
              1.1216393704050818,
              0,
              null
            ],
            [
              109.17153167785001,
              1.1220161908335746,
              0,
              null
            ],
            [
              109.17158508269365,
              1.1221811770114092,
              0,
              null
            ],
            [
              109.1718139653432,
              1.1225699184204805,
              0,
              null
            ],
            [
              109.17230224641253,
              1.124043703141992,
              0,
              null
            ],
            [
              109.17297363288284,
              1.1247807744033,
              0,
              null
            ],
            [
              109.1738815304961,
              1.1253951790423955,
              0,
              null
            ],
            [
              109.17479705839938,
              1.1258255246498339,
              0,
              null
            ],
            [
              109.17583465567165,
              1.1261330843359394,
              0,
              null
            ],
            [
              109.17626190250564,
              1.1258263581254855,
              0,
              null
            ],
            [
              109.17656707727564,
              1.1251512759971416,
              0,
              null
            ],
            [
              109.17644500790662,
              1.1245372296654186,
              0,
              null
            ],
            [
              109.17607879620633,
              1.1236776112874234,
              0,
              null
            ],
            [
              109.17613983134001,
              1.1225111484410024,
              0,
              null
            ],
            [
              109.17694091746935,
              1.1211611037453473,
              0,
              null
            ],
            [
              109.17797088624822,
              1.1201794149855966,
              0,
              null
            ],
            [
              109.1795578006218,
              1.118584395034744,
              0,
              null
            ],
            [
              109.18096160959442,
              1.1168662314069107,
              0,
              null
            ],
            [
              109.18181610056742,
              1.1158845421085395,
              0,
              null
            ],
            [
              109.18273162847068,
              1.1152713300079642,
              0,
              null
            ],
            [
              109.18376922664126,
              1.11527192547818,
              0,
              null
            ],
            [
              109.18450164824523,
              1.115640758622804,
              0,
              null
            ],
            [
              109.1852951049829,
              1.1160708667569899,
              0,
              null
            ],
            [
              109.18682098422279,
              1.1165015694000875,
              0,
              null
            ],
            [
              109.1876754760941,
              1.1163793803993922,
              0,
              null
            ],
            [
              109.1891174311269,
              1.1161116353483391,
              0,
              null
            ],
            [
              109.189384460735,
              1.1158812046020083,
              0,
              null
            ],
            [
              109.18999481117334,
              1.1157588961222755,
              0,
              null
            ],
            [
              109.19096374571687,
              1.1159436705806127,
              0,
              null
            ],
            [
              109.19151306191988,
              1.1162509915000356,
              0,
              null
            ],
            [
              109.19224548352386,
              1.1168038849011612,
              0,
              null
            ],
            [
              109.19297790602613,
              1.1168658730471992,
              0,
              null
            ],
            [
              109.19395446816476,
              1.1168049572858316,
              0,
              null
            ],
            [
              109.19499206543705,
              1.1170512438039433,
              0,
              null
            ],
            [
              109.195968628474,
              1.1174814702868228,
              0,
              null
            ],
            [
              109.19645690954331,
              1.117972969906489,
              0,
              null
            ],
            [
              109.19676208431329,
              1.1189553734295452,
              0,
              null
            ],
            [
              109.19748687742388,
              1.1196311710124565,
              0,
              null
            ],
            [
              109.19828033505983,
              1.1199998850546968,
              0,
              null
            ],
            [
              109.19882965126281,
              1.1203685999486643,
              0,
              null
            ],
            [
              109.19931793233214,
              1.1207987073900743,
              0,
              null
            ],
            [
              109.19968414313414,
              1.121167183277367,
              0,
              null
            ],
            [
              109.2002334593371,
              1.1215358971262552,
              0,
              null
            ],
            [
              109.20108795210672,
              1.1214749814618947,
              0,
              null
            ],
            [
              109.20188140884434,
              1.1209843159062953,
              0,
              null
            ],
            [
              109.20230865478001,
              1.1203707456135856,
              0,
              null
            ],
            [
              109.20255279531466,
              1.1198184492518088,
              0,
              null
            ],
            [
              109.20285797098298,
              1.1190819740060671,
              0,
              null
            ],
            [
              109.20334625295058,
              1.118161440089089,
              0,
              null
            ],
            [
              109.20352935835159,
              1.117363332856573,
              0,
              null
            ],
            [
              109.2035522456284,
              1.117180228138173,
              0,
              null
            ],
            [
              109.20346832321792,
              1.1163704402663523,
              0,
              null
            ],
            [
              109.20320892300155,
              1.115444183417621,
              0,
              null
            ],
            [
              109.20320892300155,
              1.114694476497197,
              0,
              null
            ],
            [
              109.2035140995682,
              1.1137685774811974,
              0,
              null
            ],
            [
              109.2039108270387,
              1.113415956529683,
              0,
              null
            ],
            [
              109.20487213129222,
              1.11306381155324,
              0,
              null
            ],
            [
              109.20539855932005,
              1.112843632903311,
              0,
              null
            ],
            [
              109.20579528858721,
              1.1128877399473935,
              0,
              null
            ],
            [
              109.2059097285645,
              1.1130062341211495,
              0,
              null
            ],
            [
              109.2060928348638,
              1.114111304420128,
              0,
              null
            ],
            [
              109.20615386999745,
              1.1161372666059621,
              0,
              null
            ],
            [
              109.20651245140775,
              1.1183836454524159,
              0,
              null
            ],
            [
              109.2064895623343,
              1.1187537912930994,
              0,
              null
            ],
            [
              109.2062759402648,
              1.119194506949158,
              0,
              null
            ],
            [
              109.20578765919548,
              1.1201645138849614,
              0,
              null
            ],
            [
              109.20578765829715,
              1.1209583281280846,
              0,
              null
            ],
            [
              109.20600891065669,
              1.121531725251151,
              0,
              null
            ],
            [
              109.20671081559215,
              1.1219731572074991,
              0,
              null
            ],
            [
              109.20696258462019,
              1.1222120524728676,
              0,
              null
            ],
            [
              109.20706176761072,
              1.1224372384653305,
              0,
              null
            ],
            [
              109.20721435544489,
              1.1226930618889694,
              0,
              null
            ],
            [
              109.20747375476294,
              1.1229184867504018,
              0,
              null
            ],
            [
              109.2076187132054,
              1.1230150460774917,
              0,
              null
            ],
            [
              109.20763397198884,
              1.1230151655304998,
              0,
              null
            ],
            [
              109.2112808230219,
              1.1249966626304682,
              0,
              null
            ],
            [
              109.21502685524885,
              1.1268850570337237,
              0,
              null
            ],
            [
              109.21509551977421,
              1.12800717330784,
              0,
              null
            ],
            [
              109.22960662819277,
              1.1279243233736898,
              0,
              null
            ],
            [
              109.22994232232624,
              1.1557998652930896,
              0,
              null
            ],
            [
              109.21235656725271,
              1.166354655819054,
              0,
              null
            ],
            [
              109.21159362808191,
              1.1677845722819944,
              0,
              null
            ]
          ]
        ]
      }
    },
    {
      "type": "Feature",
      "properties": {
        "objectid_1": 972,
        "objectid": 972,
        "po_legalst": " ",
        "po_legal_1": " ",
        "po_hgu": " ",
        "po_area_hg": 0,
        "subgroup": " ",
        "groupid": 99,
        "source": "varies",
        "zsl": 0,
        "group_comp": "No group",
        "shape_leng": 34628.63993,
        "type": " ",
        "area_ha": 6933,
        "country": "IDN",
        "company": "PT. Tri H.M",
        "name": "PT. Tri H.M 2",
        "gfwid": "7cfc5a65-b668-472a-aec7-2e626612ca32",
        "globalid": "{8DF7D135-EA20-45A7-9116-B111AB2B2FF7}",
        "shape_Length": 34628.639582255244,
        "shape_Area": 69795028.5958253,
        "_researchDossierId": "thm2",
        "_researchQueryUrl": "https://gfw-staging.wri.org/arcgis/rest/services/country_data/asia/MapServer/2/query?objectIds=751%2C752%2C753%2C754%2C755%2C756%2C757%2C758%2C759%2C760%2C761%2C762%2C763%2C764%2C765%2C766%2C767%2C768%2C769%2C770%2C771%2C772%2C773%2C774%2C775%2C776%2C777%2C778%2C779%2C780%2C781%2C782%2C783%2C784%2C785%2C786%2C787%2C788%2C789%2C790%2C791%2C792%2C793%2C794%2C795%2C796%2C797%2C798%2C799%2C800%2C801%2C802%2C803%2C804%2C805%2C806%2C807%2C808%2C809%2C810%2C811%2C812%2C813%2C814%2C815%2C816%2C817%2C818%2C819%2C820%2C821%2C822%2C823%2C824%2C825%2C826%2C827%2C828%2C829%2C830%2C831%2C832%2C833%2C834%2C835%2C836%2C837%2C838%2C839%2C840%2C841%2C842%2C843%2C844%2C845%2C846%2C847%2C848%2C849%2C850%2C851%2C852%2C853%2C854%2C855%2C856%2C857%2C858%2C859%2C860%2C861%2C862%2C863%2C864%2C865%2C866%2C867%2C868%2C869%2C870%2C871%2C872%2C873%2C874%2C875%2C876%2C877%2C878%2C879%2C880%2C881%2C882%2C883%2C884%2C885%2C886%2C887%2C888%2C889%2C890%2C891%2C892%2C893%2C894%2C895%2C896%2C897%2C898%2C899%2C900%2C901%2C902%2C903%2C904%2C905%2C906%2C907%2C908%2C909%2C910%2C911%2C912%2C913%2C914%2C915%2C916%2C917%2C918%2C919%2C920%2C921%2C922%2C923%2C924%2C925%2C926%2C927%2C928%2C929%2C930%2C931%2C932%2C933%2C934%2C935%2C936%2C937%2C938%2C939%2C940%2C941%2C942%2C943%2C944%2C945%2C946%2C947%2C948%2C949%2C950%2C951%2C952%2C953%2C954%2C955%2C956%2C957%2C958%2C959%2C960%2C961%2C962%2C963%2C964%2C965%2C966%2C967%2C968%2C969%2C970%2C971%2C972%2C973%2C974%2C975%2C976%2C977%2C978%2C979%2C980%2C981%2C982%2C983%2C984%2C985%2C986%2C987%2C988%2C989%2C990%2C991%2C992%2C993%2C994%2C995%2C996%2C997%2C998%2C999%2C1000&outFields=%2A&returnGeometry=true&outSR=4326&f=geojson"
      },
      "geometry": {
        "type": "Polygon",
        "coordinates": [
          [
            [
              109.37164306662173,
              -0.16166235574309157,
              0,
              null
            ],
            [
              109.37039184548328,
              -0.16240619106149193,
              0,
              null
            ],
            [
              109.362831116504,
              -0.15428808306814906,
              0,
              null
            ],
            [
              109.36831665004038,
              -0.1457504331515666,
              0,
              null
            ],
            [
              109.33372497545977,
              -0.11979826522823132,
              0,
              null
            ],
            [
              109.27761840817772,
              -0.1869595352829757,
              0,
              null
            ],
            [
              109.32636260976658,
              -0.23036102958361224,
              0,
              null
            ],
            [
              109.36941528334465,
              -0.18248072294572637,
              0,
              null
            ],
            [
              109.36706542980028,
              -0.1797823913523096,
              0,
              null
            ],
            [
              109.37175750659904,
              -0.17360582941143177,
              0,
              null
            ],
            [
              109.36592865043578,
              -0.168121621023634,
              0,
              null
            ],
            [
              109.37164306662173,
              -0.16166235574309157,
              0,
              null
            ]
          ]
        ]
      }
    }
  ]
}
