{"type":"FeatureCollection","name":"meratus-bali-nusra-concession-inventory-forestry-ha","metadata":{"coverageId":"bali-nusra","parentCoverageId":"indonesia","generatedAt":"2026-08-31T08:53:33Z","pipelineVersion":"2","count":1,"sectors":["PBPH"],"qualities":["OFFICIAL"],"geometryNote":"Web-display geometry is simplified; consult source records for authoritative geometry.","evidenceNote":"A public concession record does not imply fire causation, illegality, or wrongdoing."},"features":[{"type":"Feature","properties":{"inventoryId":"big-forestry-ha:214","sector":"PBPH","subtype":"IUPHHK-HA","quality":"OFFICIAL","sourceDataset":"big-forestry-ha","sourceRecordId":"214","source":"BIG Kebijakan Satu Peta","sourceUrl":"https://kspservices.big.go.id/satupeta/rest/services/PUBLIK/PERIZINAN_DAN_PERTANAHAN/MapServer/1","retrievedAt":"2026-08-31T08:53:33Z","geometryProcessing":"web display simplification tolerance 0.00035 degrees","name":"PT AGRO WAHANA BUMI","permitNumber":"SK.102/Menhut-II/2013","permitDate":"2013-02-11","areaHa":28644.0,"provinceCode":"52","region":"bali-nusra"},"geometry":{"type":"Polygon","coordinates":[[[117.98193,-8.10782,0.0,null],[117.97876,-8.1071,0.0,null],[117.97491,-8.10915,0.0,null],[117.97289,-8.10958,0.0,null],[117.96921,-8.10972,0.0,null],[117.96561,-8.10853,0.0,null],[117.96493,-8.10884,0.0,null],[117.96108,-8.11448,0.0,null],[117.9557,-8.11998,0.0,null],[117.95256,-8.1247,0.0,null],[117.95179,-8.1262,0.0,null],[117.95198,-8.12896,0.0,null],[117.95133,-8.1303,0.0,null],[117.94648,-8.13391,0.0,null],[117.94023,-8.13488,0.0,null],[117.93735,-8.13327,0.0,null],[117.93532,-8.13322,0.0,null],[117.93084,-8.12967,0.0,null],[117.92708,-8.13177,0.0,null],[117.91946,-8.13233,0.0,null],[117.91819,-8.13523,0.0,null],[117.91222,-8.13734,0.0,null],[117.907,-8.13756,0.0,null],[117.90498,-8.13608,0.0,null],[117.89848,-8.13859,0.0,null],[117.89412,-8.13948,0.0,null],[117.89065,-8.13913,0.0,null],[117.88767,-8.13984,0.0,null],[117.88403,-8.13948,0.0,null],[117.87511,-8.14182,0.0,null],[117.87005,-8.14396,0.0,null],[117.86849,-8.14514,0.0,null],[117.86289,-8.14471,0.0,null],[117.86082,-8.14517,0.0,null],[117.85933,-8.1473,0.0,null],[117.85746,-8.14799,0.0,null],[117.85281,-8.15259,0.0,null],[117.8529,-8.16041,0.0,null],[117.85092,-8.16042,0.0,null],[117.84904,-8.15903,0.0,null],[117.8467,-8.15837,0.0,null],[117.84476,-8.15993,0.0,null],[117.84131,-8.1585,0.0,null],[117.83787,-8.15819,0.0,null],[117.83591,-8.15722,0.0,null],[117.83502,-8.15408,0.0,null],[117.83224,-8.1547,0.0,null],[117.83138,-8.15423,0.0,null],[117.82944,-8.15666,0.0,null],[117.82769,-8.15664,0.0,null],[117.82574,-8.15761,0.0,null],[117.81967,-8.16218,0.0,null],[117.81978,-8.16403,0.0,null],[117.82175,-8.16572,0.0,null],[117.82361,-8.16612,0.0,null],[117.82787,-8.16962,0.0,null],[117.82947,-8.16912,0.0,null],[117.83329,-8.17009,0.0,null],[117.83473,-8.171,0.0,null],[117.8359,-8.17264,0.0,null],[117.83762,-8.17277,0.0,null],[117.83957,-8.17378,0.0,null],[117.84224,-8.17746,0.0,null],[117.84424,-8.17762,0.0,null],[117.84563,-8.18027,0.0,null],[117.84342,-8.1875,0.0,null],[117.8432,-8.19157,0.0,null],[117.84385,-8.1929,0.0,null],[117.84282,-8.19354,0.0,null],[117.83975,-8.19278,0.0,null],[117.83795,-8.19355,0.0,null],[117.83635,-8.19291,0.0,null],[117.83454,-8.18995,0.0,null],[117.83224,-8.18789,0.0,null],[117.83074,-8.1832,0.0,null],[117.82495,-8.17944,0.0,null],[117.82433,-8.17532,0.0,null],[117.82371,-8.17504,0.0,null],[117.8218,-8.17608,0.0,null],[117.82003,-8.17835,0.0,null],[117.81888,-8.17836,0.0,null],[117.81634,-8.1761,0.0,null],[117.81634,-8.17863,0.0,null],[117.81492,-8.17958,0.0,null],[117.8135,-8.18246,0.0,null],[117.81315,-8.18285,0.0,null],[117.81126,-8.18258,0.0,null],[117.81044,-8.18712,0.0,null],[117.80872,-8.19102,0.0,null],[117.8084,-8.19471,0.0,null],[117.80683,-8.19677,0.0,null],[117.80546,-8.2,0.0,null],[117.80504,-8.20494,0.0,null],[117.80217,-8.20764,0.0,null],[117.79816,-8.20908,0.0,null],[117.79659,-8.20899,0.0,null],[117.79565,-8.21206,0.0,null],[117.79591,-8.21326,0.0,null],[117.79403,-8.21493,0.0,null],[117.79406,-8.21896,0.0,null],[117.79009,-8.22312,0.0,null],[117.79001,-8.22962,0.0,null],[117.79649,-8.23601,0.0,null],[117.79726,-8.23881,0.0,null],[117.79741,-8.24445,0.0,null],[117.79899,-8.24884,0.0,null],[117.8013,-8.2523,0.0,null],[117.80438,-8.26048,0.0,null],[117.81092,-8.26636,0.0,null],[117.81408,-8.27327,0.0,null],[117.81746,-8.28433,0.0,null],[117.81979,-8.28312,0.0,null],[117.82076,-8.2871,0.0,null],[117.82605,-8.29307,0.0,null],[117.83198,-8.30172,0.0,null],[117.83611,-8.30454,0.0,null],[117.83544,-8.30699,0.0,null],[117.83571,-8.30794,0.0,null],[117.8387,-8.30908,0.0,null],[117.84123,-8.30916,0.0,null],[117.84549,-8.31029,0.0,null],[117.85129,-8.31483,0.0,null],[117.85484,-8.31568,0.0,null],[117.85605,-8.31765,0.0,null],[117.85845,-8.31912,0.0,null],[117.86078,-8.3257,0.0,null],[117.86412,-8.32688,0.0,null],[117.86579,-8.32885,0.0,null],[117.86781,-8.33386,0.0,null],[117.86774,-8.33662,0.0,null],[117.86932,-8.33644,0.0,null],[117.87118,-8.33706,0.0,null],[117.87428,-8.33888,0.0,null],[117.87661,-8.34219,0.0,null],[117.87818,-8.3458,0.0,null],[117.87805,-8.34683,0.0,null],[117.8814,-8.3508,0.0,null],[117.8827,-8.35324,0.0,null],[117.88512,-8.34822,0.0,null],[117.88697,-8.34113,0.0,null],[117.88951,-8.336,0.0,null],[117.89063,-8.33196,0.0,null],[117.89357,-8.32578,0.0,null],[117.89432,-8.32302,0.0,null],[117.89333,-8.30375,0.0,null],[117.89252,-8.30106,0.0,null],[117.89112,-8.2997,0.0,null],[117.88853,-8.29088,0.0,null],[117.88769,-8.28546,0.0,null],[117.88876,-8.28242,0.0,null],[117.88793,-8.27935,0.0,null],[117.88879,-8.27821,0.0,null],[117.88916,-8.27362,0.0,null],[117.89166,-8.27013,0.0,null],[117.8928,-8.26622,0.0,null],[117.89337,-8.26594,0.0,null],[117.8934,-8.26508,0.0,null],[117.89422,-8.26486,0.0,null],[117.89501,-8.26289,0.0,null],[117.89592,-8.25517,0.0,null],[117.89671,-8.25352,0.0,null],[117.89913,-8.25101,0.0,null],[117.8995,-8.24704,0.0,null],[117.90189,-8.24386,0.0,null],[117.90305,-8.24006,0.0,null],[117.9037,-8.23989,0.0,null],[117.90448,-8.23572,0.0,null],[117.90605,-8.2338,0.0,null],[117.90646,-8.23038,0.0,null],[117.90871,-8.22587,0.0,null],[117.91506,-8.22507,0.0,null],[117.91598,-8.22383,0.0,null],[117.92051,-8.223,0.0,null],[117.92368,-8.21633,0.0,null],[117.92858,-8.21376,0.0,null],[117.92933,-8.21249,0.0,null],[117.9388,-8.21185,0.0,null],[117.9475,-8.20708,0.0,null],[117.95007,-8.20527,0.0,null],[117.95014,-8.20462,0.0,null],[117.9547,-8.20173,0.0,null],[117.9564,-8.19913,0.0,null],[117.95887,-8.1967,0.0,null],[117.96079,-8.19608,0.0,null],[117.96205,-8.1943,0.0,null],[117.96366,-8.19354,0.0,null],[117.96664,-8.1907,0.0,null],[117.97281,-8.18891,0.0,null],[117.97658,-8.18712,0.0,null],[117.98372,-8.18254,0.0,null],[117.98457,-8.18083,0.0,null],[117.98927,-8.17867,0.0,null],[117.98923,-8.17692,0.0,null],[117.99101,-8.1747,0.0,null],[117.99145,-8.1734,0.0,null],[117.99103,-8.17138,0.0,null],[117.99206,-8.15757,0.0,null],[117.99377,-8.15435,0.0,null],[117.99397,-8.1521,0.0,null],[117.99636,-8.14782,0.0,null],[117.9966,-8.14679,0.0,null],[117.99587,-8.14495,0.0,null],[117.99765,-8.14184,0.0,null],[117.99851,-8.14153,0.0,null],[118.0007,-8.13889,0.0,null],[118.00165,-8.13656,0.0,null],[118.00141,-8.13537,0.0,null],[118.00199,-8.13345,0.0,null],[118.00161,-8.13263,0.0,null],[118.00352,-8.12883,0.0,null],[118.00384,-8.12241,0.0,null],[118.00507,-8.12052,0.0,null],[118.00517,-8.11659,0.0,null],[118.00794,-8.11354,0.0,null],[118.0017,-8.11387,0.0,null],[117.99284,-8.11196,0.0,null],[117.99079,-8.11201,0.0,null],[117.98172,-8.10898,0.0,null],[117.98193,-8.10782,0.0,null]]]}}]}
