{"type":"FeatureCollection","name":"meratus-kalimantan-concession-inventory-forestry-re","metadata":{"coverageId":"kalimantan","parentCoverageId":"indonesia","generatedAt":"2026-08-24T23:55:27Z","pipelineVersion":"2","count":6,"sectors":["PBPH"],"qualities":["OFFICIAL"],"geometryNote":"Web-display geometry is simplified; consult source records for authoritative geometry.","evidenceNote":"A public concession record does not imply fire causation, illegality, or wrongdoing."},"features":[{"type":"Feature","properties":{"inventoryId":"big-forestry-re:3","sector":"PBPH","subtype":"IUPHHK-RE","quality":"OFFICIAL","sourceDataset":"big-forestry-re","sourceRecordId":"3","source":"BIG Kebijakan Satu Peta","sourceUrl":"https://kspservices.big.go.id/satupeta/rest/services/PUBLIK/PERIZINAN_DAN_PERTANAHAN/MapServer/3","retrievedAt":"2026-08-24T23:55:27Z","geometryProcessing":"web display simplification tolerance 0.00035 degrees","name":"PT ALAM SUKSES LESTARI","permitNumber":"13/1/IUPHHK-RE/PMDN/2016","permitDate":"2016-09-05","areaHa":19520.0,"provinceCode":"62","region":"kalimantan"},"geometry":{"type":"MultiPolygon","coordinates":[[[[115.16013,-2.1735,0.0,null],[115.09558,-2.17373,0.0,null],[115.08338,-2.18191,0.0,null],[115.07818,-2.18642,0.0,null],[115.07413,-2.18856,0.0,null],[115.06498,-2.19044,0.0,null],[115.05965,-2.19356,0.0,null],[115.05638,-2.20056,0.0,null],[115.05592,-2.20302,0.0,null],[115.04322,-2.21833,0.0,null],[115.03246,-2.22705,0.0,null],[115.02393,-2.23722,0.0,null],[115.00453,-2.25568,0.0,null],[115.0214,-2.26127,0.0,null],[115.11107,-2.23563,0.0,null],[115.10903,-2.22545,0.0,null],[115.13956,-2.21808,0.0,null],[115.1418,-2.22674,0.0,null],[115.16732,-2.21951,0.0,null],[115.16715,-2.21508,0.0,null],[115.17916,-2.21293,0.0,null],[115.18012,-2.21584,0.0,null],[115.19848,-2.21069,0.0,null],[115.20263,-2.2106,0.0,null],[115.19309,-2.19986,0.0,null],[115.18771,-2.19631,0.0,null],[115.18329,-2.19241,0.0,null],[115.17714,-2.18462,0.0,null],[115.16734,-2.17957,0.0,null],[115.16013,-2.1735,0.0,null]]],[[[115.21722,-2.22697,0.0,null],[115.20287,-2.21087,0.0,null],[115.19862,-2.21099,0.0,null],[115.18386,-2.21528,0.0,null],[115.18502,-2.21923,0.0,null],[115.17829,-2.22147,0.0,null],[115.17411,-2.21809,0.0,null],[115.02205,-2.26149,0.0,null],[115.13254,-2.29774,0.0,null],[115.1335,-2.29424,0.0,null],[115.18684,-2.25791,0.0,null],[115.20114,-2.24953,0.0,null],[115.23175,-2.2272,0.0,null],[115.22648,-2.22439,0.0,null],[115.21954,-2.22939,0.0,null],[115.21722,-2.22697,0.0,null]]]]}},{"type":"Feature","properties":{"inventoryId":"big-forestry-re:2","sector":"PBPH","subtype":"IUPHHK-RE","quality":"OFFICIAL","sourceDataset":"big-forestry-re","sourceRecordId":"2","source":"BIG Kebijakan Satu Peta","sourceUrl":"https://kspservices.big.go.id/satupeta/rest/services/PUBLIK/PERIZINAN_DAN_PERTANAHAN/MapServer/3","retrievedAt":"2026-08-24T23:55:27Z","geometryProcessing":"web display simplification tolerance 0.00035 degrees","name":"PT EKOSISTEM KHATULISTIWA LESTARI","permitNumber":"SK.560/Menhut-II/2011","permitDate":"2011-09-30","areaHa":14080.0,"provinceCode":"61","region":"kalimantan"},"geometry":{"type":"MultiPolygon","coordinates":[[[[109.65545,-0.66652,0.0,null],[109.65324,-0.64834,0.0,null],[109.62558,-0.65395,0.0,null],[109.61405,-0.65866,0.0,null],[109.60702,-0.66664,0.0,null],[109.5417,-0.66563,0.0,null],[109.54228,-0.66784,0.0,null],[109.54474,-0.67125,0.0,null],[109.5481,-0.67192,0.0,null],[109.54985,-0.67165,0.0,null],[109.57513,-0.68704,0.0,null],[109.6007,-0.70842,0.0,null],[109.60718,-0.71351,0.0,null],[109.60838,-0.7138,0.0,null],[109.6098,-0.71633,0.0,null],[109.61079,-0.71644,0.0,null],[109.62385,-0.72691,0.0,null],[109.62713,-0.73224,0.0,null],[109.63023,-0.73589,0.0,null],[109.64475,-0.74827,0.0,null],[109.66159,-0.7689,0.0,null],[109.66483,-0.77093,0.0,null],[109.68125,-0.78574,0.0,null],[109.69612,-0.80466,0.0,null],[109.70736,-0.81425,0.0,null],[109.7091,-0.81399,0.0,null],[109.71147,-0.81495,0.0,null],[109.71119,-0.79894,0.0,null],[109.70922,-0.78314,0.0,null],[109.70624,-0.77047,0.0,null],[109.70603,-0.76213,0.0,null],[109.69843,-0.72872,0.0,null],[109.6983,-0.71709,0.0,null],[109.70601,-0.70568,0.0,null],[109.70245,-0.70472,0.0,null],[109.69545,-0.70425,0.0,null],[109.68811,-0.70681,0.0,null],[109.68652,-0.70683,0.0,null],[109.68353,-0.70581,0.0,null],[109.6792,-0.70244,0.0,null],[109.66916,-0.70212,0.0,null],[109.66529,-0.70081,0.0,null],[109.66541,-0.69939,0.0,null],[109.67073,-0.69876,0.0,null],[109.67338,-0.69777,0.0,null],[109.67444,-0.69685,0.0,null],[109.67442,-0.69542,0.0,null],[109.67146,-0.69129,0.0,null],[109.66972,-0.69117,0.0,null],[109.6689,-0.69057,0.0,null],[109.66819,-0.68806,0.0,null],[109.66699,-0.6866,0.0,null],[109.66652,-0.68359,0.0,null],[109.66369,-0.68241,0.0,null],[109.66751,-0.67754,0.0,null],[109.65545,-0.66652,0.0,null]]],[[[109.38136,-0.51687,0.0,null],[109.36395,-0.52188,0.0,null],[109.35964,-0.52483,0.0,null],[109.35393,-0.53181,0.0,null],[109.34826,-0.54137,0.0,null],[109.34431,-0.54523,0.0,null],[109.34086,-0.55335,0.0,null],[109.34455,-0.56024,0.0,null],[109.34841,-0.56411,0.0,null],[109.35581,-0.56646,0.0,null],[109.36286,-0.56579,0.0,null],[109.36933,-0.56367,0.0,null],[109.37187,-0.56423,0.0,null],[109.37076,-0.5624,0.0,null],[109.37047,-0.5606,0.0,null],[109.37143,-0.55937,0.0,null],[109.37396,-0.55851,0.0,null],[109.37449,-0.55718,0.0,null],[109.3742,-0.55588,0.0,null],[109.36995,-0.55398,0.0,null],[109.36754,-0.55605,0.0,null],[109.36596,-0.55629,0.0,null],[109.36303,-0.55267,0.0,null],[109.36621,-0.54806,0.0,null],[109.36743,-0.54798,0.0,null],[109.36997,-0.549,0.0,null],[109.37184,-0.54801,0.0,null],[109.37188,-0.54639,0.0,null],[109.36977,-0.54495,0.0,null],[109.36999,-0.54318,0.0,null],[109.3712,-0.54133,0.0,null],[109.37367,-0.54255,0.0,null],[109.37464,-0.53993,0.0,null],[109.37334,-0.53615,0.0,null],[109.37641,-0.53445,0.0,null],[109.37957,-0.53628,0.0,null],[109.3835,-0.53224,0.0,null],[109.40314,-0.53222,0.0,null],[109.40327,-0.52986,0.0,null],[109.40477,-0.52848,0.0,null],[109.40768,-0.53141,0.0,null],[109.40954,-0.532,0.0,null],[109.4112,-0.5309,0.0,null],[109.41186,-0.52875,0.0,null],[109.41738,-0.53023,0.0,null],[109.41811,-0.52979,0.0,null],[109.41962,-0.52659,0.0,null],[109.42219,-0.52596,0.0,null],[109.43025,-0.5322,0.0,null],[109.44337,-0.5362,0.0,null],[109.44032,-0.52026,0.0,null],[109.41539,-0.52473,0.0,null],[109.40618,-0.52224,0.0,null],[109.40114,-0.52777,0.0,null],[109.38136,-0.51687,0.0,null]]],[[[109.70184,-0.60944,0.0,null],[109.69215,-0.60991,0.0,null],[109.69026,-0.61085,0.0,null],[109.68888,-0.61668,0.0,null],[109.68532,-0.6204,0.0,null],[109.6899,-0.63003,0.0,null],[109.69534,-0.62742,0.0,null],[109.70202,-0.62594,0.0,null],[109.70152,-0.61709,0.0,null],[109.70184,-0.60944,0.0,null]]]]}},{"type":"Feature","properties":{"inventoryId":"big-forestry-re:8","sector":"PBPH","subtype":"IUPHHK-RE","quality":"OFFICIAL","sourceDataset":"big-forestry-re","sourceRecordId":"8","source":"BIG Kebijakan Satu Peta","sourceUrl":"https://kspservices.big.go.id/satupeta/rest/services/PUBLIK/PERIZINAN_DAN_PERTANAHAN/MapServer/3","retrievedAt":"2026-08-24T23:55:27Z","geometryProcessing":"web display simplification tolerance 0.00035 degrees","name":"PT RESTORASI HABITAT ORANG HUTAN INDONESIA","permitNumber":"SK.464/Menhut-II/2010","permitDate":"2010-08-18","areaHa":86450.0,"provinceCode":"64","region":"kalimantan"},"geometry":{"type":"Polygon","coordinates":[[[116.20673,1.58536,0.0,null],[116.20325,1.59004,0.0,null],[116.20185,1.58895,0.0,null],[116.20185,1.58516,0.0,null],[116.1896,1.58536,0.0,null],[116.18412,1.58206,0.0,null],[116.17874,1.58147,0.0,null],[116.16059,1.57661,0.0,null],[116.15417,1.57639,0.0,null],[116.13594,1.58117,0.0,null],[116.12638,1.58117,0.0,null],[116.12213,1.58221,0.0,null],[116.11436,1.58602,0.0,null],[116.11003,1.58722,0.0,null],[116.10584,1.58684,0.0,null],[116.10203,1.58572,0.0,null],[116.09927,1.58408,0.0,null],[116.0977,1.58094,0.0,null],[116.09397,1.56877,0.0,null],[116.09352,1.56489,0.0,null],[116.09188,1.55891,0.0,null],[116.08695,1.55092,0.0,null],[116.08194,1.54517,0.0,null],[116.0806,1.53755,0.0,null],[116.08142,1.52963,0.0,null],[116.0868,1.52261,0.0,null],[116.08837,1.52201,0.0,null],[116.08971,1.52015,0.0,null],[116.09539,1.52045,0.0,null],[116.09808,1.52194,0.0,null],[116.09957,1.52358,0.0,null],[116.10286,1.52523,0.0,null],[116.10495,1.5256,0.0,null],[116.11137,1.52508,0.0,null],[116.11593,1.52183,0.0,null],[116.12291,1.52488,0.0,null],[116.12978,1.52508,0.0,null],[116.13207,1.52316,0.0,null],[116.13398,1.52239,0.0,null],[116.13589,1.52392,0.0,null],[116.13684,1.52354,0.0,null],[116.13761,1.52239,0.0,null],[116.14334,1.49838,0.0,null],[116.14777,1.48736,0.0,null],[116.14901,1.48736,0.0,null],[116.15842,1.4772,0.0,null],[116.16126,1.47503,0.0,null],[116.16283,1.47227,0.0,null],[116.16126,1.46361,0.0,null],[116.16156,1.45278,0.0,null],[116.16081,1.44957,0.0,null],[116.15551,1.43896,0.0,null],[116.15245,1.4285,0.0,null],[116.15058,1.41805,0.0,null],[116.15013,1.40326,0.0,null],[116.15103,1.3996,0.0,null],[116.15424,1.39437,0.0,null],[116.15424,1.38653,0.0,null],[116.15596,1.3801,0.0,null],[116.15738,1.37883,0.0,null],[116.15783,1.37704,0.0,null],[116.15947,1.37495,0.0,null],[116.16126,1.3689,0.0,null],[116.1632,1.36561,0.0,null],[116.16462,1.36136,0.0,null],[116.16694,1.35822,0.0,null],[116.17418,1.34306,0.0,null],[116.17889,1.33469,0.0,null],[116.18651,1.32536,0.0,null],[116.19749,1.31662,0.0,null],[116.19913,1.31393,0.0,null],[116.20428,1.30235,0.0,null],[116.20466,1.29414,0.0,null],[116.20239,1.29025,0.0,null],[116.19928,1.28951,0.0,null],[116.19525,1.2913,0.0,null],[116.18823,1.29742,0.0,null],[116.17725,1.30146,0.0,null],[116.17239,1.30071,0.0,null],[116.16873,1.29936,0.0,null],[116.16358,1.29466,0.0,null],[116.16149,1.28898,0.0,null],[116.16156,1.28256,0.0,null],[116.16291,1.27681,0.0,null],[116.16477,1.27218,0.0,null],[116.1703,1.26523,0.0,null],[116.17224,1.26038,0.0,null],[116.18128,1.24529,0.0,null],[116.18203,1.23924,0.0,null],[116.18091,1.23633,0.0,null],[116.17896,1.23416,0.0,null],[116.17598,1.23267,0.0,null],[116.17097,1.2314,0.0,null],[116.16866,1.22781,0.0,null],[116.16574,1.22647,0.0,null],[116.16179,1.22587,0.0,null],[116.15372,1.22225,0.0,null],[116.1517,1.22243,0.0,null],[116.14924,1.22154,0.0,null],[116.14603,1.219,0.0,null],[116.14074,1.21612,0.0,null],[116.13684,1.21609,0.0,null],[116.13221,1.21287,0.0,null],[116.12646,1.20518,0.0,null],[116.12302,1.20167,0.0,null],[116.12295,1.20025,0.0,null],[116.12115,1.19764,0.0,null],[116.11839,1.19622,0.0,null],[116.11032,1.18867,0.0,null],[116.10427,1.18554,0.0,null],[116.09875,1.18606,0.0,null],[116.09285,1.19091,0.0,null],[116.08799,1.19898,0.0,null],[116.08717,1.20346,0.0,null],[116.08291,1.21452,0.0,null],[116.08285,1.21632,0.0,null],[116.07825,1.20835,0.0,null],[116.07213,1.20387,0.0,null],[116.06795,1.20331,0.0,null],[116.06267,1.19911,0.0,null],[116.06323,1.18819,0.0,null],[116.06657,1.18175,0.0,null],[116.0624,1.17839,0.0,null],[116.05847,1.17846,0.0,null],[116.0595,1.17108,0.0,null],[116.05212,1.15942,0.0,null],[116.03523,1.14991,0.0,null],[116.04848,1.11309,0.0,null],[116.0614,1.11517,0.0,null],[116.06579,1.11624,0.0,null],[116.06857,1.11787,0.0,null],[116.07455,1.11921,0.0,null],[116.08993,1.12706,0.0,null],[116.0933,1.12982,0.0,null],[116.10084,1.13303,0.0,null],[116.10554,1.13691,0.0,null],[116.11003,1.13901,0.0,null],[116.14461,1.15036,0.0,null],[116.15514,1.15305,0.0,null],[116.16627,1.15424,0.0,null],[116.17642,1.15462,0.0,null],[116.17989,1.15532,0.0,null],[116.20593,1.15596,0.0,null],[116.20914,1.15648,0.0,null],[116.22027,1.15633,0.0,null],[116.23192,1.15835,0.0,null],[116.23834,1.15513,0.0,null],[116.28555,1.182,0.0,null],[116.28885,1.23232,0.0,null],[116.25628,1.25674,0.0,null],[116.25033,1.27102,0.0,null],[116.24795,1.28863,0.0,null],[116.24795,1.29505,0.0,null],[116.24224,1.31242,0.0,null],[116.24224,1.31885,0.0,null],[116.24367,1.33074,0.0,null],[116.30649,1.37048,0.0,null],[116.32291,1.36905,0.0,null],[116.33457,1.35597,0.0,null],[116.33599,1.32836,0.0,null],[116.31053,1.29029,0.0,null],[116.31184,1.26762,0.0,null],[116.31326,1.26799,0.0,null],[116.31602,1.26658,0.0,null],[116.31684,1.26687,0.0,null],[116.3202,1.26411,0.0,null],[116.3217,1.26187,0.0,null],[116.3214,1.26,0.0,null],[116.32095,1.25985,0.0,null],[116.3217,1.25814,0.0,null],[116.32289,1.25619,0.0,null],[116.32513,1.2541,0.0,null],[116.32558,1.24417,0.0,null],[116.32536,1.2429,0.0,null],[116.32356,1.24096,0.0,null],[116.32356,1.24021,0.0,null],[116.32453,1.23827,0.0,null],[116.32461,1.2367,0.0,null],[116.32408,1.23661,0.0,null],[116.32634,1.23507,0.0,null],[116.3272,1.23193,0.0,null],[116.32672,1.23133,0.0,null],[116.32531,1.23218,0.0,null],[116.32527,1.23043,0.0,null],[116.32126,1.22658,0.0,null],[116.31954,1.22633,0.0,null],[116.31702,1.22476,0.0,null],[116.31717,1.22346,0.0,null],[116.31563,1.22272,0.0,null],[116.31549,1.22161,0.0,null],[116.31428,1.22059,0.0,null],[116.31361,1.21809,0.0,null],[116.31266,1.217,0.0,null],[116.31121,1.21696,0.0,null],[116.3057,1.21082,0.0,null],[116.30558,1.20863,0.0,null],[116.30647,1.20694,0.0,null],[116.30519,1.2007,0.0,null],[116.3054,1.19749,0.0,null],[116.30654,1.19602,0.0,null],[116.30637,1.19219,0.0,null],[116.30455,1.19087,0.0,null],[116.3038,1.18391,0.0,null],[116.30541,1.18294,0.0,null],[116.30718,1.17999,0.0,null],[116.30952,1.17966,0.0,null],[116.31015,1.1786,0.0,null],[116.31292,1.1776,0.0,null],[116.31516,1.17508,0.0,null],[116.31627,1.17482,0.0,null],[116.31649,1.17014,0.0,null],[116.318,1.16858,0.0,null],[116.31831,1.16675,0.0,null],[116.3213,1.16615,0.0,null],[116.32722,1.16084,0.0,null],[116.32746,1.1629,0.0,null],[116.32794,1.16186,0.0,null],[116.33005,1.16406,0.0,null],[116.33097,1.16391,0.0,null],[116.33096,1.16169,0.0,null],[116.33161,1.16139,0.0,null],[116.33409,1.1622,0.0,null],[116.338,1.16519,0.0,null],[116.33925,1.16481,0.0,null],[116.34146,1.15924,0.0,null],[116.34219,1.15582,0.0,null],[116.34415,1.1551,0.0,null],[116.34745,1.15237,0.0,null],[116.34702,1.14994,0.0,null],[116.34852,1.14796,0.0,null],[116.34751,1.14201,0.0,null],[116.34878,1.14216,0.0,null],[116.35064,1.14094,0.0,null],[116.35269,1.14105,0.0,null],[116.35351,1.13958,0.0,null],[116.35542,1.13957,0.0,null],[116.35623,1.13867,0.0,null],[116.35898,1.13762,0.0,null],[116.36105,1.13754,0.0,null],[116.36294,1.13628,0.0,null],[116.37004,1.13606,0.0,null],[116.37183,1.13669,0.0,null],[116.37503,1.13591,0.0,null],[116.37692,1.137,0.0,null],[116.37995,1.137,0.0,null],[116.38713,1.13616,0.0,null],[116.38762,1.13652,0.0,null],[116.36106,1.253,0.0,null],[116.34772,1.30842,0.0,null],[116.4155,1.31917,0.0,null],[116.48068,1.32874,0.0,null],[116.48101,1.33128,0.0,null],[116.47956,1.33378,0.0,null],[116.47853,1.33417,0.0,null],[116.47791,1.33516,0.0,null],[116.47656,1.33502,0.0,null],[116.47351,1.33224,0.0,null],[116.47187,1.33213,0.0,null],[116.47116,1.3329,0.0,null],[116.47016,1.33759,0.0,null],[116.46637,1.3383,0.0,null],[116.4656,1.33764,0.0,null],[116.46476,1.33512,0.0,null],[116.46332,1.33514,0.0,null],[116.46177,1.33611,0.0,null],[116.46114,1.33776,0.0,null],[116.45419,1.34134,0.0,null],[116.45283,1.34144,0.0,null],[116.4515,1.34372,0.0,null],[116.4486,1.34496,0.0,null],[116.4477,1.34706,0.0,null],[116.44634,1.34839,0.0,null],[116.44729,1.3503,0.0,null],[116.44462,1.35053,0.0,null],[116.44501,1.35227,0.0,null],[116.44464,1.35284,0.0,null],[116.44579,1.35327,0.0,null],[116.4472,1.35286,0.0,null],[116.44836,1.35424,0.0,null],[116.44762,1.35563,0.0,null],[116.44588,1.35692,0.0,null],[116.44521,1.36003,0.0,null],[116.44446,1.36067,0.0,null],[116.44175,1.36073,0.0,null],[116.44055,1.36349,0.0,null],[116.43946,1.36441,0.0,null],[116.43832,1.36386,0.0,null],[116.43818,1.36307,0.0,null],[116.43712,1.36346,0.0,null],[116.43594,1.36536,0.0,null],[116.43568,1.36723,0.0,null],[116.43379,1.36957,0.0,null],[116.43091,1.37079,0.0,null],[116.4292,1.37236,0.0,null],[116.4273,1.37828,0.0,null],[116.42419,1.37921,0.0,null],[116.42445,1.38162,0.0,null],[116.4238,1.38393,0.0,null],[116.42248,1.38504,0.0,null],[116.42155,1.38696,0.0,null],[116.41902,1.38563,0.0,null],[116.41728,1.38695,0.0,null],[116.41703,1.38832,0.0,null],[116.41598,1.38944,0.0,null],[116.41331,1.38909,0.0,null],[116.41302,1.3899,0.0,null],[116.41082,1.39047,0.0,null],[116.40917,1.39199,0.0,null],[116.40664,1.39202,0.0,null],[116.40562,1.39375,0.0,null],[116.40546,1.39549,0.0,null],[116.40329,1.39379,0.0,null],[116.40125,1.39503,0.0,null],[116.40074,1.39602,0.0,null],[116.39927,1.39575,0.0,null],[116.39842,1.39615,0.0,null],[116.3975,1.39802,0.0,null],[116.39747,1.40004,0.0,null],[116.39516,1.40196,0.0,null],[116.39432,1.40378,0.0,null],[116.39004,1.40541,0.0,null],[116.38839,1.40492,0.0,null],[116.38694,1.40609,0.0,null],[116.38244,1.40297,0.0,null],[116.38079,1.40261,0.0,null],[116.37743,1.4054,0.0,null],[116.3736,1.40549,0.0,null],[116.37333,1.40732,0.0,null],[116.37117,1.4078,0.0,null],[116.37035,1.4087,0.0,null],[116.36552,1.40588,0.0,null],[116.36453,1.40774,0.0,null],[116.3635,1.40679,0.0,null],[116.36107,1.40712,0.0,null],[116.36018,1.40911,0.0,null],[116.36009,1.41317,0.0,null],[116.35563,1.41217,0.0,null],[116.35401,1.41386,0.0,null],[116.3533,1.41394,0.0,null],[116.35293,1.41223,0.0,null],[116.35211,1.41167,0.0,null],[116.3498,1.41312,0.0,null],[116.34863,1.4152,0.0,null],[116.34524,1.41751,0.0,null],[116.3448,1.4186,0.0,null],[116.34619,1.42191,0.0,null],[116.34447,1.42359,0.0,null],[116.34047,1.42361,0.0,null],[116.34018,1.42487,0.0,null],[116.34105,1.42582,0.0,null],[116.34069,1.42724,0.0,null],[116.3368,1.42606,0.0,null],[116.33596,1.42631,0.0,null],[116.33564,1.42722,0.0,null],[116.33439,1.42501,0.0,null],[116.33197,1.42473,0.0,null],[116.33264,1.42358,0.0,null],[116.3326,1.42217,0.0,null],[116.33412,1.42149,0.0,null],[116.33403,1.42011,0.0,null],[116.3346,1.4196,0.0,null],[116.33445,1.41863,0.0,null],[116.33325,1.41823,0.0,null],[116.32905,1.41844,0.0,null],[116.32887,1.42238,0.0,null],[116.32822,1.42317,0.0,null],[116.32645,1.42392,0.0,null],[116.32411,1.42336,0.0,null],[116.3238,1.42452,0.0,null],[116.32233,1.42464,0.0,null],[116.32122,1.42551,0.0,null],[116.31989,1.42472,0.0,null],[116.31634,1.42547,0.0,null],[116.3117,1.42426,0.0,null],[116.31022,1.42519,0.0,null],[116.30892,1.42523,0.0,null],[116.30602,1.42418,0.0,null],[116.30468,1.42235,0.0,null],[116.30298,1.42241,0.0,null],[116.30118,1.42146,0.0,null],[116.29877,1.41918,0.0,null],[116.29729,1.42061,0.0,null],[116.29552,1.42092,0.0,null],[116.29219,1.41948,0.0,null],[116.28928,1.42148,0.0,null],[116.28476,1.4203,0.0,null],[116.28339,1.42144,0.0,null],[116.28038,1.42216,0.0,null],[116.27941,1.42352,0.0,null],[116.2788,1.42888,0.0,null],[116.27675,1.43105,0.0,null],[116.2747,1.43081,0.0,null],[116.2719,1.43212,0.0,null],[116.26993,1.43113,0.0,null],[116.2678,1.43127,0.0,null],[116.26734,1.43253,0.0,null],[116.26947,1.43452,0.0,null],[116.26886,1.437,0.0,null],[116.27029,1.4381,0.0,null],[116.26908,1.4403,0.0,null],[116.26734,1.44677,0.0,null],[116.26556,1.44938,0.0,null],[116.2659,1.45004,0.0,null],[116.2639,1.44935,0.0,null],[116.2629,1.45086,0.0,null],[116.26239,1.45405,0.0,null],[116.26078,1.4541,0.0,null],[116.26077,1.4576,0.0,null],[116.26238,1.45849,0.0,null],[116.26156,1.45989,0.0,null],[116.26199,1.46187,0.0,null],[116.26054,1.46362,0.0,null],[116.26179,1.46599,0.0,null],[116.26063,1.46981,0.0,null],[116.26089,1.47085,0.0,null],[116.26601,1.47321,0.0,null],[116.2677,1.47683,0.0,null],[116.26964,1.47722,0.0,null],[116.26995,1.47777,0.0,null],[116.269,1.48081,0.0,null],[116.27009,1.48276,0.0,null],[116.26852,1.484,0.0,null],[116.26867,1.48569,0.0,null],[116.2698,1.48686,0.0,null],[116.26977,1.48748,0.0,null],[116.26799,1.48915,0.0,null],[116.26692,1.48901,0.0,null],[116.26512,1.49222,0.0,null],[116.26355,1.49339,0.0,null],[116.26326,1.49625,0.0,null],[116.264,1.49904,0.0,null],[116.26487,1.50016,0.0,null],[116.26631,1.50037,0.0,null],[116.2644,1.50165,0.0,null],[116.26413,1.50292,0.0,null],[116.26713,1.50452,0.0,null],[116.26606,1.50614,0.0,null],[116.26643,1.50752,0.0,null],[116.27031,1.51021,0.0,null],[116.27457,1.51036,0.0,null],[116.27509,1.51118,0.0,null],[116.27396,1.51314,0.0,null],[116.27516,1.51574,0.0,null],[116.27516,1.51873,0.0,null],[116.27375,1.52142,0.0,null],[116.27419,1.52403,0.0,null],[116.2724,1.52687,0.0,null],[116.27158,1.53172,0.0,null],[116.26987,1.53306,0.0,null],[116.27007,1.53549,0.0,null],[116.27263,1.53747,0.0,null],[116.2715,1.54069,0.0,null],[116.26919,1.54181,0.0,null],[116.26934,1.54756,0.0,null],[116.26986,1.5486,0.0,null],[116.26934,1.5498,0.0,null],[116.26941,1.55226,0.0,null],[116.26628,1.55667,0.0,null],[116.26023,1.55787,0.0,null],[116.25821,1.55884,0.0,null],[116.25761,1.55831,0.0,null],[116.25522,1.55801,0.0,null],[116.25298,1.55906,0.0,null],[116.25216,1.55801,0.0,null],[116.25179,1.55458,0.0,null],[116.25067,1.55383,0.0,null],[116.2485,1.55465,0.0,null],[116.24723,1.55689,0.0,null],[116.24357,1.55861,0.0,null],[116.242,1.55742,0.0,null],[116.23879,1.55712,0.0,null],[116.23976,1.55482,0.0,null],[116.23805,1.55373,0.0,null],[116.23692,1.55398,0.0,null],[116.23528,1.55555,0.0,null],[116.23573,1.55787,0.0,null],[116.23446,1.55876,0.0,null],[116.23453,1.56048,0.0,null],[116.23558,1.56227,0.0,null],[116.23132,1.56847,0.0,null],[116.22908,1.57041,0.0,null],[116.22721,1.57026,0.0,null],[116.22393,1.57377,0.0,null],[116.22213,1.57265,0.0,null],[116.22087,1.57265,0.0,null],[116.21915,1.5743,0.0,null],[116.21779,1.5743,0.0,null],[116.21685,1.5752,0.0,null],[116.21653,1.57699,0.0,null],[116.21519,1.57721,0.0,null],[116.21526,1.57923,0.0,null],[116.21414,1.58102,0.0,null],[116.2134,1.58124,0.0,null],[116.21289,1.58031,0.0,null],[116.21203,1.58031,0.0,null],[116.21019,1.58166,0.0,null],[116.21031,1.58375,0.0,null],[116.20822,1.58344,0.0,null],[116.20653,1.5839,0.0,null],[116.20673,1.58536,0.0,null]],[[116.19119,1.50268,0.0,null],[116.20013,1.52102,0.0,null],[116.222,1.5222,0.0,null],[116.23493,1.49468,0.0,null],[116.24152,1.46623,0.0,null],[116.26409,1.43001,0.0,null],[116.27726,1.39685,0.0,null],[116.25092,1.38062,0.0,null],[116.22788,1.36275,0.0,null],[116.21663,1.36625,0.0,null],[116.21588,1.36534,0.0,null],[116.20201,1.36393,0.0,null],[116.19944,1.37032,0.0,null],[116.19519,1.38486,0.0,null],[116.2093,1.43236,0.0,null],[116.20671,1.45188,0.0,null],[116.21424,1.4634,0.0,null],[116.19119,1.50268,0.0,null]]]}},{"type":"Feature","properties":{"inventoryId":"big-forestry-re:12","sector":"PBPH","subtype":"IUPHHK-RE","quality":"OFFICIAL","sourceDataset":"big-forestry-re","sourceRecordId":"12","source":"BIG Kebijakan Satu Peta","sourceUrl":"https://kspservices.big.go.id/satupeta/rest/services/PUBLIK/PERIZINAN_DAN_PERTANAHAN/MapServer/3","retrievedAt":"2026-08-24T23:55:27Z","geometryProcessing":"web display simplification tolerance 0.00035 degrees","name":"PT RIMBA MAKMUR UTAMA","permitNumber":"SK.734/Menhut-II/2013","permitDate":"2013-10-25","areaHa":108255.0,"provinceCode":"62","region":"kalimantan"},"geometry":{"type":"Polygon","coordinates":[[[113.28436,-2.34724,0.0,null],[113.28322,-2.34633,0.0,null],[113.2809,-2.34002,0.0,null],[113.28143,-2.33853,0.0,null],[113.28024,-2.3374,0.0,null],[113.28048,-2.33663,0.0,null],[113.28327,-2.33514,0.0,null],[113.28429,-2.33348,0.0,null],[113.28262,-2.3308,0.0,null],[113.28399,-2.32771,0.0,null],[113.28357,-2.32586,0.0,null],[113.28488,-2.32449,0.0,null],[113.28405,-2.32372,0.0,null],[113.28506,-2.3211,0.0,null],[113.28387,-2.3214,0.0,null],[113.28352,-2.32009,0.0,null],[113.28446,-2.31789,0.0,null],[113.28643,-2.31581,0.0,null],[113.28648,-2.31456,0.0,null],[113.28726,-2.31408,0.0,null],[113.29035,-2.31421,0.0,null],[113.29154,-2.31539,0.0,null],[113.29351,-2.31569,0.0,null],[113.29237,-2.31349,0.0,null],[113.29065,-2.31266,0.0,null],[113.28999,-2.30957,0.0,null],[113.28696,-2.30641,0.0,null],[113.28736,-2.30402,0.0,null],[113.28628,-2.3036,0.0,null],[113.28753,-2.2519,0.0,null],[113.29066,-2.21516,0.0,null],[113.28565,-2.19972,0.0,null],[113.28669,-2.19074,0.0,null],[113.30318,-2.15568,0.0,null],[113.30715,-2.13585,0.0,null],[113.31593,-2.10263,0.0,null],[113.31425,-2.0701,0.0,null],[113.30248,-2.05828,0.0,null],[113.28973,-2.05436,0.0,null],[113.27211,-2.05502,0.0,null],[113.2673,-2.05878,0.0,null],[113.25665,-2.06518,0.0,null],[113.25364,-2.06608,0.0,null],[113.24802,-2.07012,0.0,null],[113.24113,-2.07771,0.0,null],[113.23551,-2.08539,0.0,null],[113.23209,-2.09173,0.0,null],[113.2303,-2.0977,0.0,null],[113.22931,-2.1046,0.0,null],[113.22896,-2.11465,0.0,null],[113.23109,-2.1243,0.0,null],[113.23473,-2.13317,0.0,null],[113.24178,-2.14711,0.0,null],[113.24363,-2.15323,0.0,null],[113.2445,-2.15981,0.0,null],[113.24449,-2.1667,0.0,null],[113.24415,-2.17052,0.0,null],[113.24158,-2.17981,0.0,null],[113.23695,-2.18812,0.0,null],[113.2231,-2.20433,0.0,null],[113.2001,-2.22774,0.0,null],[113.18313,-2.24242,0.0,null],[113.17622,-2.24955,0.0,null],[113.17031,-2.25776,0.0,null],[113.16736,-2.26386,0.0,null],[113.16405,-2.27402,0.0,null],[113.16248,-2.28406,0.0,null],[113.16316,-2.30107,0.0,null],[113.16529,-2.3142,0.0,null],[113.16737,-2.31655,0.0,null],[113.16875,-2.3192,0.0,null],[113.18015,-2.35652,0.0,null],[113.18575,-2.37703,0.0,null],[113.19044,-2.38968,0.0,null],[113.19934,-2.41052,0.0,null],[113.20605,-2.42843,0.0,null],[113.20784,-2.43514,0.0,null],[113.20882,-2.44805,0.0,null],[113.2083,-2.45884,0.0,null],[113.20625,-2.47601,0.0,null],[113.20324,-2.4899,0.0,null],[113.20027,-2.4996,0.0,null],[113.19865,-2.50304,0.0,null],[113.1881,-2.52324,0.0,null],[113.17162,-2.55156,0.0,null],[113.16465,-2.56234,0.0,null],[113.15536,-2.57438,0.0,null],[113.14776,-2.58551,0.0,null],[113.12368,-2.62191,0.0,null],[113.11758,-2.62979,0.0,null],[113.10714,-2.64497,0.0,null],[113.09838,-2.65808,0.0,null],[113.08926,-2.67307,0.0,null],[113.07927,-2.69271,0.0,null],[113.07509,-2.70523,0.0,null],[113.07304,-2.71441,0.0,null],[113.0724,-2.72358,0.0,null],[113.07585,-2.75334,0.0,null],[113.07687,-2.78445,0.0,null],[113.08091,-2.80776,0.0,null],[113.08566,-2.82573,0.0,null],[113.0904,-2.83958,0.0,null],[113.09556,-2.85173,0.0,null],[113.11636,-2.89137,0.0,null],[113.12424,-2.91113,0.0,null],[113.13177,-2.93363,0.0,null],[113.14029,-2.95431,0.0,null],[113.15009,-2.97192,0.0,null],[113.16211,-2.99578,0.0,null],[113.16477,-3.00286,0.0,null],[113.16663,-3.01028,0.0,null],[113.16715,-3.01331,0.0,null],[113.16706,-3.0225,0.0,null],[113.17335,-3.02815,0.0,null],[113.183,-3.02851,0.0,null],[113.19316,-2.8834,0.0,null],[113.21316,-2.8202,0.0,null],[113.23726,-2.7613,0.0,null],[113.25486,-2.7234,0.0,null],[113.25766,-2.69938,0.0,null],[113.26136,-2.6771,0.0,null],[113.22238,-2.62263,0.0,null],[113.22539,-2.58908,0.0,null],[113.22819,-2.57258,0.0,null],[113.23089,-2.53528,0.0,null],[113.23099,-2.52338,0.0,null],[113.22989,-2.49895,0.0,null],[113.23019,-2.46675,0.0,null],[113.23296,-2.4618,0.0,null],[113.26556,-2.4208,0.0,null],[113.28516,-2.401,0.0,null],[113.30474,-2.37761,0.0,null],[113.30413,-2.37076,0.0,null],[113.3016,-2.36905,0.0,null],[113.3001,-2.36464,0.0,null],[113.30026,-2.35612,0.0,null],[113.29859,-2.35452,0.0,null],[113.29758,-2.35228,0.0,null],[113.29418,-2.34991,0.0,null],[113.29353,-2.34759,0.0,null],[113.29137,-2.34681,0.0,null],[113.28853,-2.34807,0.0,null],[113.28689,-2.34699,0.0,null],[113.28515,-2.34752,0.0,null],[113.28436,-2.34724,0.0,null]]]}},{"type":"Feature","properties":{"inventoryId":"big-forestry-re:4","sector":"PBPH","subtype":"IUPHHK-RE","quality":"OFFICIAL","sourceDataset":"big-forestry-re","sourceRecordId":"4","source":"BIG Kebijakan Satu Peta","sourceUrl":"https://kspservices.big.go.id/satupeta/rest/services/PUBLIK/PERIZINAN_DAN_PERTANAHAN/MapServer/3","retrievedAt":"2026-08-24T23:55:27Z","geometryProcessing":"web display simplification tolerance 0.00035 degrees","name":"PT RIMBA MAKMUR UTAMA","permitNumber":"SK.23/1/IUPHHK-RE/PMDN/2016","permitDate":"2016-11-15","areaHa":49620.0,"provinceCode":"62","region":"kalimantan"},"geometry":{"type":"Polygon","coordinates":[[[113.20405,-2.423,0.0,null],[113.18575,-2.37703,0.0,null],[113.17454,-2.33762,0.0,null],[113.1713,-2.3285,0.0,null],[113.16875,-2.3192,0.0,null],[113.16737,-2.31655,0.0,null],[113.16529,-2.3142,0.0,null],[113.16402,-2.30772,0.0,null],[113.16253,-2.29124,0.0,null],[113.16248,-2.28406,0.0,null],[113.16334,-2.27728,0.0,null],[113.16497,-2.27038,0.0,null],[113.16869,-2.26079,0.0,null],[113.17443,-2.25194,0.0,null],[113.10435,-2.29215,0.0,null],[113.14212,-2.39644,0.0,null],[113.14003,-2.39649,0.0,null],[113.15044,-2.42405,0.0,null],[113.12784,-2.42405,0.0,null],[113.05952,-2.55996,0.0,null],[113.02061,-2.76536,0.0,null],[113.10499,-2.91723,0.0,null],[113.12606,-2.91718,0.0,null],[113.12313,-2.90812,0.0,null],[113.11636,-2.89137,0.0,null],[113.10535,-2.86979,0.0,null],[113.09857,-2.85793,0.0,null],[113.09167,-2.8427,0.0,null],[113.08566,-2.82573,0.0,null],[113.08183,-2.81159,0.0,null],[113.07658,-2.78149,0.0,null],[113.07585,-2.75334,0.0,null],[113.0724,-2.72358,0.0,null],[113.07368,-2.71115,0.0,null],[113.07695,-2.69923,0.0,null],[113.08067,-2.68934,0.0,null],[113.09147,-2.66928,0.0,null],[113.10714,-2.64497,0.0,null],[113.11758,-2.62979,0.0,null],[113.12368,-2.62191,0.0,null],[113.15536,-2.57438,0.0,null],[113.16262,-2.56516,0.0,null],[113.16992,-2.55424,0.0,null],[113.17909,-2.53938,0.0,null],[113.1881,-2.52324,0.0,null],[113.20027,-2.4996,0.0,null],[113.20324,-2.4899,0.0,null],[113.20625,-2.47601,0.0,null],[113.20888,-2.45176,0.0,null],[113.20784,-2.43514,0.0,null],[113.20405,-2.423,0.0,null]]]}},{"type":"Feature","properties":{"inventoryId":"big-forestry-re:10","sector":"PBPH","subtype":"IUPHHK-RE","quality":"OFFICIAL","sourceDataset":"big-forestry-re","sourceRecordId":"10","source":"BIG Kebijakan Satu Peta","sourceUrl":"https://kspservices.big.go.id/satupeta/rest/services/PUBLIK/PERIZINAN_DAN_PERTANAHAN/MapServer/3","retrievedAt":"2026-08-24T23:55:27Z","geometryProcessing":"web display simplification tolerance 0.00035 degrees","name":"PT RIMBA RAYA CONSERVATION","permitNumber":"SK.735/Menhut-II/2013","permitDate":"2013-10-25","areaHa":37151.0,"provinceCode":"62","region":"kalimantan"},"geometry":{"type":"MultiPolygon","coordinates":[[[[112.42248,-3.28936,0.0,null],[112.41158,-3.28056,0.0,null],[112.39318,-3.26866,0.0,null],[112.38248,-3.26456,0.0,null],[112.34948,-3.24806,0.0,null],[112.34488,-3.24546,0.0,null],[112.33758,-3.23986,0.0,null],[112.32888,-3.23416,0.0,null],[112.31508,-3.22716,0.0,null],[112.30704,-3.22101,0.0,null],[112.23728,-3.22123,0.0,null],[112.2,-3.30096,0.0,null],[112.22629,-3.29118,0.0,null],[112.24353,-3.28996,0.0,null],[112.24423,-3.30457,0.0,null],[112.27649,-3.29755,0.0,null],[112.32416,-3.29873,0.0,null],[112.37035,-3.32258,0.0,null],[112.40516,-3.31978,0.0,null],[112.41629,-3.32438,0.0,null],[112.42719,-3.33088,0.0,null],[112.42919,-3.33298,0.0,null],[112.43189,-3.34078,0.0,null],[112.43459,-3.34468,0.0,null],[112.44229,-3.35258,0.0,null],[112.45389,-3.36928,0.0,null],[112.46342,-3.38001,0.0,null],[112.46671,-3.38236,0.0,null],[112.4663,-3.38282,0.0,null],[112.49038,-3.37961,0.0,null],[112.4917,-3.3783,0.0,null],[112.49211,-3.37885,0.0,null],[112.49653,-3.37473,0.0,null],[112.50085,-3.36375,0.0,null],[112.50521,-3.35707,0.0,null],[112.50994,-3.35142,0.0,null],[112.50656,-3.3433,0.0,null],[112.48428,-3.31336,0.0,null],[112.48148,-3.31086,0.0,null],[112.46838,-3.31126,0.0,null],[112.45968,-3.30606,0.0,null],[112.44548,-3.30166,0.0,null],[112.43378,-3.29916,0.0,null],[112.42248,-3.28936,0.0,null]]],[[[112.28268,-3.16766,0.0,null],[112.30691,-3.16748,0.0,null],[112.30536,-3.16516,0.0,null],[112.29297,-3.12928,0.0,null],[112.27426,-2.9972,0.0,null],[112.25179,-2.95083,0.0,null],[112.24923,-2.94126,0.0,null],[112.24601,-2.9228,0.0,null],[112.24164,-2.8889,0.0,null],[112.25986,-2.83576,0.0,null],[112.20599,-2.79386,0.0,null],[112.18625,-2.75203,0.0,null],[112.15698,-2.75525,0.0,null],[112.16686,-2.7741,0.0,null],[112.18306,-2.7861,0.0,null],[112.18916,-2.7918,0.0,null],[112.19286,-2.7973,0.0,null],[112.19896,-2.8096,0.0,null],[112.20186,-2.8192,0.0,null],[112.20616,-2.8298,0.0,null],[112.20906,-2.8459,0.0,null],[112.21246,-2.8531,0.0,null],[112.21796,-2.8734,0.0,null],[112.21966,-2.9031,0.0,null],[112.22256,-2.9269,0.0,null],[112.23276,-2.9544,0.0,null],[112.22886,-2.9553,0.0,null],[112.23196,-2.974,0.0,null],[112.24016,-2.9963,0.0,null],[112.25896,-3.0431,0.0,null],[112.26376,-3.0581,0.0,null],[112.26596,-3.0707,0.0,null],[112.26656,-3.081,0.0,null],[112.26816,-3.0887,0.0,null],[112.26776,-3.1484,0.0,null],[112.27716,-3.1756,0.0,null],[112.28308,-3.17517,0.0,null],[112.28325,-3.17661,0.0,null],[112.28268,-3.16766,0.0,null]]],[[[112.36596,-3.22485,0.0,null],[112.3537,-3.20356,0.0,null],[112.35238,-3.20326,0.0,null],[112.36598,-3.22686,0.0,null],[112.42778,-3.26966,0.0,null],[112.45308,-3.26996,0.0,null],[112.46774,-3.27571,0.0,null],[112.4593,-3.25984,0.0,null],[112.42796,-3.26204,0.0,null],[112.36596,-3.22485,0.0,null]]]]}}]}
