{"type":"FeatureCollection","name":"meratus-sumatra-concession-inventory-forestry-re","metadata":{"coverageId":"sumatra","parentCoverageId":"indonesia","generatedAt":"2026-08-24T23:55:27Z","pipelineVersion":"2","count":10,"sectors":["PBPH"],"qualities":["OFFICIAL"],"geometryNote":"Web-display geometry is simplified; consult source records for authoritative geometry.","evidenceNote":"A public concession record does not imply fire causation, illegality, or wrongdoing."},"features":[{"type":"Feature","properties":{"inventoryId":"big-forestry-re:1","sector":"PBPH","subtype":"IUPHHK-RE","quality":"OFFICIAL","sourceDataset":"big-forestry-re","sourceRecordId":"1","source":"BIG Kebijakan Satu Peta","sourceUrl":"https://kspservices.big.go.id/satupeta/rest/services/PUBLIK/PERIZINAN_DAN_PERTANAHAN/MapServer/3","retrievedAt":"2026-08-24T23:55:27Z","geometryProcessing":"web display simplification tolerance 0.00035 degrees","name":"PT ALAM BUKIT TIGA PULUH","permitNumber":"7/1/IUPHHK-RE/PMDN/2015","permitDate":"2015-07-24","areaHa":38665.0,"provinceCode":"15","region":"sumatra"},"geometry":{"type":"MultiPolygon","coordinates":[[[[102.48796,-1.15896,0.0,null],[102.48674,-1.15903,0.0,null],[102.48974,-1.16253,0.0,null],[102.49694,-1.16513,0.0,null],[102.50214,-1.17083,0.0,null],[102.50766,-1.18051,0.0,null],[102.5395,-1.18013,0.0,null],[102.53914,-1.24256,0.0,null],[102.541,-1.24439,0.0,null],[102.54099,-1.23643,0.0,null],[102.58163,-1.2364,0.0,null],[102.58159,-1.24616,0.0,null],[102.61509,-1.24613,0.0,null],[102.61509,-1.26263,0.0,null],[102.58254,-1.26267,0.0,null],[102.58265,-1.26503,0.0,null],[102.58372,-1.26526,0.0,null],[102.5905,-1.27532,0.0,null],[102.5974,-1.28941,0.0,null],[102.60052,-1.2914,0.0,null],[102.62288,-1.2914,0.0,null],[102.62318,-1.29924,0.0,null],[102.64051,-1.29909,0.0,null],[102.64083,-1.31297,0.0,null],[102.65332,-1.278,0.0,null],[102.65572,-1.27546,0.0,null],[102.65726,-1.27626,0.0,null],[102.6781,-1.24959,0.0,null],[102.68164,-1.24165,0.0,null],[102.68147,-1.23588,0.0,null],[102.68199,-1.23302,0.0,null],[102.68284,-1.23171,0.0,null],[102.68598,-1.2212,0.0,null],[102.68273,-1.2103,0.0,null],[102.6801,-1.20361,0.0,null],[102.67365,-1.19333,0.0,null],[102.66697,-1.17891,0.0,null],[102.66011,-1.16065,0.0,null],[102.64024,-1.14295,0.0,null],[102.63141,-1.1318,0.0,null],[102.62546,-1.12636,0.0,null],[102.622,-1.12595,0.0,null],[102.6205,-1.12493,0.0,null],[102.62009,-1.12368,0.0,null],[102.61554,-1.12187,0.0,null],[102.60217,-1.11966,0.0,null],[102.5983,-1.12025,0.0,null],[102.59648,-1.11994,0.0,null],[102.58969,-1.12291,0.0,null],[102.58779,-1.12521,0.0,null],[102.5863,-1.12613,0.0,null],[102.58294,-1.12751,0.0,null],[102.5812,-1.12734,0.0,null],[102.57983,-1.12838,0.0,null],[102.57896,-1.1309,0.0,null],[102.57778,-1.13194,0.0,null],[102.57635,-1.1323,0.0,null],[102.57568,-1.13482,0.0,null],[102.57383,-1.13712,0.0,null],[102.56974,-1.1383,0.0,null],[102.56688,-1.14186,0.0,null],[102.56525,-1.1429,0.0,null],[102.56365,-1.14576,0.0,null],[102.56332,-1.14747,0.0,null],[102.55765,-1.15105,0.0,null],[102.55426,-1.15086,0.0,null],[102.55118,-1.15243,0.0,null],[102.54967,-1.15217,0.0,null],[102.54535,-1.15327,0.0,null],[102.54118,-1.15315,0.0,null],[102.53763,-1.15518,0.0,null],[102.5351,-1.15366,0.0,null],[102.52202,-1.15315,0.0,null],[102.52042,-1.15214,0.0,null],[102.51612,-1.15155,0.0,null],[102.51198,-1.14995,0.0,null],[102.51175,-1.15271,0.0,null],[102.51234,-1.15573,0.0,null],[102.51194,-1.15753,0.0,null],[102.48796,-1.15896,0.0,null]]],[[[102.27917,-0.92696,0.0,null],[102.27372,-0.92688,0.0,null],[102.26572,-0.92824,0.0,null],[102.24682,-0.93433,0.0,null],[102.20972,-0.95415,0.0,null],[102.20279,-0.95493,0.0,null],[102.19532,-0.95489,0.0,null],[102.1871,-0.95118,0.0,null],[102.18602,-0.94947,0.0,null],[102.1849,-0.95005,0.0,null],[102.18276,-0.95903,0.0,null],[102.18257,-0.97086,0.0,null],[102.19769,-0.98565,0.0,null],[102.19786,-0.99468,0.0,null],[102.19318,-1.00124,0.0,null],[102.18793,-1.012,0.0,null],[102.18914,-1.01551,0.0,null],[102.19596,-1.02403,0.0,null],[102.20094,-1.0275,0.0,null],[102.20367,-1.02625,0.0,null],[102.20458,-1.02653,0.0,null],[102.20695,-1.02848,0.0,null],[102.20855,-1.03116,0.0,null],[102.21127,-1.03239,0.0,null],[102.21378,-1.03106,0.0,null],[102.21726,-1.03189,0.0,null],[102.21991,-1.03043,0.0,null],[102.22221,-1.02806,0.0,null],[102.22305,-1.02513,0.0,null],[102.22612,-1.02583,0.0,null],[102.23082,-1.0251,0.0,null],[102.22692,-1.03583,0.0,null],[102.22699,-1.03751,0.0,null],[102.2361,-1.04348,0.0,null],[102.24512,-1.04362,0.0,null],[102.25217,-1.03605,0.0,null],[102.25078,-1.03416,0.0,null],[102.25069,-1.03168,0.0,null],[102.25139,-1.0308,0.0,null],[102.25595,-1.03062,0.0,null],[102.25774,-1.03163,0.0,null],[102.26408,-1.02775,0.0,null],[102.26566,-1.02862,0.0,null],[102.26621,-1.02739,0.0,null],[102.27152,-1.02368,0.0,null],[102.27165,-1.02275,0.0,null],[102.26975,-1.01974,0.0,null],[102.26975,-1.01806,0.0,null],[102.2705,-1.01727,0.0,null],[102.27262,-1.01669,0.0,null],[102.27479,-1.01727,0.0,null],[102.27536,-1.01835,0.0,null],[102.27745,-1.01433,0.0,null],[102.27847,-1.01045,0.0,null],[102.28816,-1.01139,0.0,null],[102.28882,-1.00976,0.0,null],[102.29117,-1.00967,0.0,null],[102.29069,-1.00709,0.0,null],[102.29136,-1.00634,0.0,null],[102.29418,-1.00536,0.0,null],[102.29603,-1.00339,0.0,null],[102.29913,-1.00378,0.0,null],[102.29887,-1.00408,0.0,null],[102.30423,-1.004,0.0,null],[102.3104,-1.00776,0.0,null],[102.32545,-1.02313,0.0,null],[102.33085,-1.04744,0.0,null],[102.33593,-1.06121,0.0,null],[102.34535,-1.0688,0.0,null],[102.36837,-1.07725,0.0,null],[102.37101,-1.06273,0.0,null],[102.36868,-1.04944,0.0,null],[102.36432,-1.04165,0.0,null],[102.36256,-1.03656,0.0,null],[102.35494,-1.02031,0.0,null],[102.35381,-1.0143,0.0,null],[102.35384,-1.01177,0.0,null],[102.35255,-1.00914,0.0,null],[102.35202,-1.0057,0.0,null],[102.34648,-0.99291,0.0,null],[102.33702,-0.98329,0.0,null],[102.32993,-0.97856,0.0,null],[102.32646,-0.975,0.0,null],[102.32351,-0.97058,0.0,null],[102.32221,-0.97024,0.0,null],[102.31443,-0.96393,0.0,null],[102.30702,-0.95599,0.0,null],[102.30142,-0.94886,0.0,null],[102.29892,-0.94474,0.0,null],[102.29612,-0.93343,0.0,null],[102.29272,-0.92937,0.0,null],[102.28932,-0.92809,0.0,null],[102.28292,-0.92701,0.0,null],[102.27917,-0.92696,0.0,null]]]]}},{"type":"Feature","properties":{"inventoryId":"big-forestry-re:15","sector":"PBPH","subtype":"IUPHHK-RE","quality":"OFFICIAL","sourceDataset":"big-forestry-re","sourceRecordId":"15","source":"BIG Kebijakan Satu Peta","sourceUrl":"https://kspservices.big.go.id/satupeta/rest/services/PUBLIK/PERIZINAN_DAN_PERTANAHAN/MapServer/3","retrievedAt":"2026-08-24T23:55:27Z","geometryProcessing":"web display simplification tolerance 0.00035 degrees","name":"PT GEMILANG CIPTA NUSANTARA (KEP. MERANTI)","permitNumber":"SK.825/Menhut-II/2013","permitDate":"2013-11-19","areaHa":20450.0,"provinceCode":"14","region":"sumatra"},"geometry":{"type":"Polygon","coordinates":[[[102.33494,1.27685,0.0,null],[102.3342,1.27747,0.0,null],[102.32423,1.28038,0.0,null],[102.32265,1.28152,0.0,null],[102.31943,1.28257,0.0,null],[102.31943,1.28069,0.0,null],[102.31603,1.27189,0.0,null],[102.30783,1.26739,0.0,null],[102.29473,1.26399,0.0,null],[102.26751,1.26364,0.0,null],[102.2674,1.25988,0.0,null],[102.26876,1.25703,0.0,null],[102.27006,1.25494,0.0,null],[102.27378,1.25165,0.0,null],[102.28221,1.23925,0.0,null],[102.29174,1.2238,0.0,null],[102.29623,1.21337,0.0,null],[102.29723,1.21266,0.0,null],[102.30024,1.20626,0.0,null],[102.30297,1.19815,0.0,null],[102.30369,1.1943,0.0,null],[102.30457,1.17914,0.0,null],[102.30772,1.16996,0.0,null],[102.30844,1.1691,0.0,null],[102.31074,1.16142,0.0,null],[102.31084,1.15403,0.0,null],[102.3087,1.14768,0.0,null],[102.3047,1.14496,0.0,null],[102.29671,1.14489,0.0,null],[102.28579,1.14225,0.0,null],[102.28422,1.13668,0.0,null],[102.28144,1.13131,0.0,null],[102.28137,1.12007,0.0,null],[102.27943,1.11121,0.0,null],[102.27946,1.09668,0.0,null],[102.28662,1.0826,0.0,null],[102.28748,1.08246,0.0,null],[102.29004,1.0836,0.0,null],[102.29304,1.0856,0.0,null],[102.29663,1.08671,0.0,null],[102.3033,1.09033,0.0,null],[102.31588,1.09247,0.0,null],[102.31956,1.09378,0.0,null],[102.32426,1.09693,0.0,null],[102.33624,1.10707,0.0,null],[102.35335,1.11579,0.0,null],[102.36389,1.12422,0.0,null],[102.37115,1.1315,0.0,null],[102.37443,1.13949,0.0,null],[102.38182,1.15418,0.0,null],[102.39037,1.16189,0.0,null],[102.39536,1.16737,0.0,null],[102.40524,1.18002,0.0,null],[102.40931,1.20658,0.0,null],[102.40773,1.21975,0.0,null],[102.40395,1.23049,0.0,null],[102.38692,1.24863,0.0,null],[102.37665,1.25672,0.0,null],[102.37417,1.25954,0.0,null],[102.3678,1.26497,0.0,null],[102.35322,1.27241,0.0,null],[102.33944,1.27533,0.0,null],[102.33494,1.27685,0.0,null]]]}},{"type":"Feature","properties":{"inventoryId":"big-forestry-re:9","sector":"PBPH","subtype":"IUPHHK-RE","quality":"OFFICIAL","sourceDataset":"big-forestry-re","sourceRecordId":"9","source":"BIG Kebijakan Satu Peta","sourceUrl":"https://kspservices.big.go.id/satupeta/rest/services/PUBLIK/PERIZINAN_DAN_PERTANAHAN/MapServer/3","retrievedAt":"2026-08-24T23:55:27Z","geometryProcessing":"web display simplification tolerance 0.00035 degrees","name":"PT GEMILANG CIPTA NUSANTARA (PELALAWAN)","permitNumber":"SK.395/Menhut-II/2012","permitDate":"2012-07-24","areaHa":20265.0,"provinceCode":"14","region":"sumatra"},"geometry":{"type":"Polygon","coordinates":[[[102.92027,0.40051,0.0,null],[102.9442,0.41725,0.0,null],[103.0095,0.46677,0.0,null],[102.9344,0.5367,0.0,null],[102.91908,0.50345,0.0,null],[102.92306,0.50136,0.0,null],[102.92437,0.49862,0.0,null],[102.92461,0.49339,0.0,null],[102.92128,0.48958,0.0,null],[102.8518,0.45091,0.0,null],[102.75283,0.39715,0.0,null],[102.73347,0.38721,0.0,null],[102.72435,0.37319,0.0,null],[102.72348,0.37274,0.0,null],[102.72381,0.37204,0.0,null],[102.74974,0.35658,0.0,null],[102.7959,0.37781,0.0,null],[102.79837,0.40013,0.0,null],[102.82588,0.39131,0.0,null],[102.90397,0.38939,0.0,null],[102.92027,0.40051,0.0,null]]]}},{"type":"Feature","properties":{"inventoryId":"big-forestry-re:14","sector":"PBPH","subtype":"IUPHHK-RE","quality":"OFFICIAL","sourceDataset":"big-forestry-re","sourceRecordId":"14","source":"BIG Kebijakan Satu Peta","sourceUrl":"https://kspservices.big.go.id/satupeta/rest/services/PUBLIK/PERIZINAN_DAN_PERTANAHAN/MapServer/3","retrievedAt":"2026-08-24T23:55:27Z","geometryProcessing":"web display simplification tolerance 0.00035 degrees","name":"PT GLOBAL ALAM NUSANTARA","permitNumber":"SK.230/Menhut-II/2014","permitDate":"2014-03-14","areaHa":36850.0,"provinceCode":"14","region":"sumatra"},"geometry":{"type":"Polygon","coordinates":[[[102.6434,0.49631,0.0,null],[102.58873,0.52085,0.0,null],[102.58984,0.52401,0.0,null],[102.48309,0.56244,0.0,null],[102.39692,0.56212,0.0,null],[102.39505,0.42547,0.0,null],[102.42792,0.35931,0.0,null],[102.6434,0.49631,0.0,null]]]}},{"type":"Feature","properties":{"inventoryId":"big-forestry-re:16","sector":"PBPH","subtype":"IUPHHK-RE","quality":"OFFICIAL","sourceDataset":"big-forestry-re","sourceRecordId":"16","source":"BIG Kebijakan Satu Peta","sourceUrl":"https://kspservices.big.go.id/satupeta/rest/services/PUBLIK/PERIZINAN_DAN_PERTANAHAN/MapServer/3","retrievedAt":"2026-08-24T23:55:27Z","geometryProcessing":"web display simplification tolerance 0.00035 degrees","name":"PT KARAWANG EKAWANA NUGRAHA","permitNumber":"SK.142/Menhut-II/2014","permitDate":"2014-02-11","areaHa":8300.0,"provinceCode":"16","region":"sumatra"},"geometry":{"type":"Polygon","coordinates":[[[105.46653,-2.55592,0.0,null],[105.56738,-2.55581,0.0,null],[105.56188,-2.52816,0.0,null],[105.55041,-2.50245,0.0,null],[105.53802,-2.48094,0.0,null],[105.53812,-2.48139,0.0,null],[105.51412,-2.48156,0.0,null],[105.5146,-2.483,0.0,null],[105.51396,-2.48535,0.0,null],[105.51299,-2.48717,0.0,null],[105.51139,-2.48696,0.0,null],[105.51022,-2.48867,0.0,null],[105.50989,-2.49209,0.0,null],[105.50808,-2.4954,0.0,null],[105.50658,-2.49615,0.0,null],[105.50391,-2.49615,0.0,null],[105.49995,-2.49358,0.0,null],[105.49718,-2.4939,0.0,null],[105.49333,-2.49583,0.0,null],[105.49055,-2.49829,0.0,null],[105.48884,-2.50085,0.0,null],[105.48798,-2.50395,0.0,null],[105.47901,-2.51389,0.0,null],[105.47334,-2.51528,0.0,null],[105.46522,-2.51549,0.0,null],[105.46084,-2.51977,0.0,null],[105.45154,-2.52479,0.0,null],[105.44427,-2.53056,0.0,null],[105.43251,-2.53206,0.0,null],[105.40825,-2.53163,0.0,null],[105.4059,-2.53324,0.0,null],[105.40366,-2.53366,0.0,null],[105.40202,-2.53478,0.0,null],[105.40095,-2.53301,0.0,null],[105.39967,-2.53443,0.0,null],[105.39771,-2.53493,0.0,null],[105.38937,-2.54077,0.0,null],[105.45102,-2.54077,0.0,null],[105.45322,-2.54573,0.0,null],[105.46652,-2.54345,0.0,null],[105.46653,-2.55592,0.0,null]]]}},{"type":"Feature","properties":{"inventoryId":"big-forestry-re:6","sector":"PBPH","subtype":"IUPHHK-RE","quality":"OFFICIAL","sourceDataset":"big-forestry-re","sourceRecordId":"6","source":"BIG Kebijakan Satu Peta","sourceUrl":"https://kspservices.big.go.id/satupeta/rest/services/PUBLIK/PERIZINAN_DAN_PERTANAHAN/MapServer/3","retrievedAt":"2026-08-24T23:55:27Z","geometryProcessing":"web display simplification tolerance 0.00035 degrees","name":"PT RESTORASI EKOSISTEM INDONESIA","permitNumber":"SK.293/Menhut-II/2007","permitDate":"2007-08-28","areaHa":52170.0,"provinceCode":"16","region":"sumatra"},"geometry":{"type":"Polygon","coordinates":[[[103.26247,-2.15523,0.0,null],[103.26187,-2.15434,0.0,null],[103.26174,-2.15188,0.0,null],[103.26006,-2.1488,0.0,null],[103.26071,-2.14332,0.0,null],[103.26034,-2.13408,0.0,null],[103.25636,-2.13189,0.0,null],[103.25416,-2.13221,0.0,null],[103.25284,-2.133,0.0,null],[103.25037,-2.13664,0.0,null],[103.23844,-2.14008,0.0,null],[103.22626,-2.14283,0.0,null],[103.21637,-2.14403,0.0,null],[103.20519,-2.1465,0.0,null],[103.19222,-2.16229,0.0,null],[103.18646,-2.17308,0.0,null],[103.18348,-2.18182,0.0,null],[103.18238,-2.19622,0.0,null],[103.18314,-2.21726,0.0,null],[103.18232,-2.23226,0.0,null],[103.18151,-2.23981,0.0,null],[103.17962,-2.24771,0.0,null],[103.18079,-2.25024,0.0,null],[103.18889,-2.25179,0.0,null],[103.19222,-2.2532,0.0,null],[103.1946,-2.25605,0.0,null],[103.20583,-2.2779,0.0,null],[103.20654,-2.28023,0.0,null],[103.20614,-2.28546,0.0,null],[103.20422,-2.29082,0.0,null],[103.20407,-2.29298,0.0,null],[103.20574,-2.29888,0.0,null],[103.20582,-2.30232,0.0,null],[103.2068,-2.30481,0.0,null],[103.20821,-2.30647,0.0,null],[103.20943,-2.31033,0.0,null],[103.212,-2.31155,0.0,null],[103.21202,-2.31355,0.0,null],[103.21123,-2.31493,0.0,null],[103.21151,-2.31811,0.0,null],[103.21006,-2.31826,0.0,null],[103.20873,-2.31722,0.0,null],[103.20689,-2.31709,0.0,null],[103.20297,-2.31912,0.0,null],[103.19572,-2.3208,0.0,null],[103.18543,-2.3282,0.0,null],[103.18011,-2.3303,0.0,null],[103.17229,-2.33245,0.0,null],[103.16935,-2.33415,0.0,null],[103.16106,-2.33967,0.0,null],[103.15277,-2.34608,0.0,null],[103.14808,-2.35162,0.0,null],[103.14238,-2.36173,0.0,null],[103.15522,-2.37834,0.0,null],[103.18011,-2.38617,0.0,null],[103.20634,-2.38337,0.0,null],[103.24614,-2.39695,0.0,null],[103.27113,-2.39455,0.0,null],[103.29322,-2.39871,0.0,null],[103.31403,-2.38991,0.0,null],[103.32271,-2.38892,0.0,null],[103.32933,-2.38708,0.0,null],[103.3373,-2.38672,0.0,null],[103.35521,-2.38344,0.0,null],[103.36033,-2.38216,0.0,null],[103.3755,-2.37689,0.0,null],[103.38414,-2.37528,0.0,null],[103.38936,-2.37492,0.0,null],[103.39724,-2.3747,0.0,null],[103.41395,-2.38615,0.0,null],[103.44405,-2.35413,0.0,null],[103.43507,-2.33947,0.0,null],[103.4331,-2.33666,0.0,null],[103.43012,-2.33586,0.0,null],[103.42304,-2.33594,0.0,null],[103.42004,-2.33539,0.0,null],[103.4137,-2.33649,0.0,null],[103.40981,-2.33423,0.0,null],[103.40929,-2.33155,0.0,null],[103.41227,-2.32646,0.0,null],[103.41266,-2.32307,0.0,null],[103.41152,-2.32067,0.0,null],[103.40995,-2.31899,0.0,null],[103.40059,-2.31457,0.0,null],[103.4,-2.31228,0.0,null],[103.40037,-2.30664,0.0,null],[103.3992,-2.30415,0.0,null],[103.39639,-2.30442,0.0,null],[103.39478,-2.30324,0.0,null],[103.39454,-2.29983,0.0,null],[103.39321,-2.29589,0.0,null],[103.38567,-2.29609,0.0,null],[103.38398,-2.29372,0.0,null],[103.38072,-2.28623,0.0,null],[103.378,-2.28384,0.0,null],[103.36774,-2.28452,0.0,null],[103.36567,-2.283,0.0,null],[103.36268,-2.2786,0.0,null],[103.35689,-2.27681,0.0,null],[103.35515,-2.27416,0.0,null],[103.35412,-2.2708,0.0,null],[103.35233,-2.27031,0.0,null],[103.34742,-2.26629,0.0,null],[103.34471,-2.26219,0.0,null],[103.34098,-2.25399,0.0,null],[103.33871,-2.25052,0.0,null],[103.3372,-2.24457,0.0,null],[103.33444,-2.23717,0.0,null],[103.32751,-2.22379,0.0,null],[103.3248,-2.22115,0.0,null],[103.314,-2.21878,0.0,null],[103.30946,-2.21572,0.0,null],[103.30652,-2.21446,0.0,null],[103.30451,-2.21202,0.0,null],[103.30237,-2.20745,0.0,null],[103.29967,-2.20495,0.0,null],[103.29721,-2.20353,0.0,null],[103.29501,-2.19777,0.0,null],[103.29428,-2.18989,0.0,null],[103.29367,-2.18808,0.0,null],[103.29534,-2.1844,0.0,null],[103.29508,-2.18296,0.0,null],[103.29217,-2.17776,0.0,null],[103.29179,-2.1734,0.0,null],[103.2909,-2.1735,0.0,null],[103.28988,-2.17477,0.0,null],[103.28862,-2.17769,0.0,null],[103.28741,-2.17756,0.0,null],[103.28603,-2.17427,0.0,null],[103.28136,-2.16853,0.0,null],[103.28005,-2.16776,0.0,null],[103.27897,-2.16472,0.0,null],[103.27665,-2.1636,0.0,null],[103.27568,-2.16241,0.0,null],[103.27489,-2.15912,0.0,null],[103.27395,-2.15812,0.0,null],[103.2694,-2.15664,0.0,null],[103.26753,-2.15477,0.0,null],[103.26362,-2.15549,0.0,null],[103.26247,-2.15523,0.0,null]]]}},{"type":"Feature","properties":{"inventoryId":"big-forestry-re:7","sector":"PBPH","subtype":"IUPHHK-RE","quality":"OFFICIAL","sourceDataset":"big-forestry-re","sourceRecordId":"7","source":"BIG Kebijakan Satu Peta","sourceUrl":"https://kspservices.big.go.id/satupeta/rest/services/PUBLIK/PERIZINAN_DAN_PERTANAHAN/MapServer/3","retrievedAt":"2026-08-24T23:55:27Z","geometryProcessing":"web display simplification tolerance 0.00035 degrees","name":"PT RESTORASI EKOSISTEM INDONESIA","permitNumber":"SK.327/Menhut-II/2010","permitDate":"2010-10-25","areaHa":46385.0,"provinceCode":"15","region":"sumatra"},"geometry":{"type":"MultiPolygon","coordinates":[[[[103.32211,-2.03917,0.0,null],[103.32163,-2.03916,0.0,null],[103.32159,-2.03833,0.0,null],[103.2937,-2.03871,0.0,null],[103.27681,-2.03962,0.0,null],[103.26453,-2.03923,0.0,null],[103.2613,-2.04095,0.0,null],[103.25944,-2.04337,0.0,null],[103.25896,-2.04556,0.0,null],[103.26125,-2.0527,0.0,null],[103.26192,-2.0607,0.0,null],[103.25901,-2.09058,0.0,null],[103.25835,-2.10282,0.0,null],[103.25729,-2.10638,0.0,null],[103.24995,-2.1156,0.0,null],[103.25309,-2.13285,0.0,null],[103.25636,-2.13189,0.0,null],[103.26034,-2.13408,0.0,null],[103.26071,-2.14332,0.0,null],[103.26006,-2.1488,0.0,null],[103.26174,-2.15188,0.0,null],[103.26187,-2.15434,0.0,null],[103.26247,-2.15523,0.0,null],[103.26362,-2.15549,0.0,null],[103.26753,-2.15477,0.0,null],[103.2694,-2.15664,0.0,null],[103.27395,-2.15812,0.0,null],[103.27489,-2.15912,0.0,null],[103.27568,-2.16241,0.0,null],[103.27665,-2.1636,0.0,null],[103.27897,-2.16472,0.0,null],[103.28005,-2.16776,0.0,null],[103.28136,-2.16853,0.0,null],[103.28603,-2.17427,0.0,null],[103.28741,-2.17756,0.0,null],[103.28862,-2.17769,0.0,null],[103.28988,-2.17477,0.0,null],[103.2909,-2.1735,0.0,null],[103.29179,-2.1734,0.0,null],[103.29217,-2.17776,0.0,null],[103.29508,-2.18296,0.0,null],[103.29534,-2.1844,0.0,null],[103.29367,-2.18808,0.0,null],[103.29428,-2.18989,0.0,null],[103.29501,-2.19777,0.0,null],[103.29721,-2.20353,0.0,null],[103.29967,-2.20495,0.0,null],[103.30237,-2.20745,0.0,null],[103.30451,-2.21202,0.0,null],[103.30652,-2.21446,0.0,null],[103.30946,-2.21572,0.0,null],[103.314,-2.21878,0.0,null],[103.3248,-2.22115,0.0,null],[103.32751,-2.22379,0.0,null],[103.33444,-2.23717,0.0,null],[103.3372,-2.24457,0.0,null],[103.33871,-2.25052,0.0,null],[103.34098,-2.25399,0.0,null],[103.34471,-2.26219,0.0,null],[103.34742,-2.26629,0.0,null],[103.35233,-2.27031,0.0,null],[103.35412,-2.2708,0.0,null],[103.35515,-2.27416,0.0,null],[103.35689,-2.27681,0.0,null],[103.36268,-2.2786,0.0,null],[103.36567,-2.283,0.0,null],[103.36774,-2.28452,0.0,null],[103.378,-2.28384,0.0,null],[103.38072,-2.28623,0.0,null],[103.38398,-2.29372,0.0,null],[103.38567,-2.29609,0.0,null],[103.39321,-2.29589,0.0,null],[103.39454,-2.29983,0.0,null],[103.39478,-2.30324,0.0,null],[103.39639,-2.30442,0.0,null],[103.3992,-2.30415,0.0,null],[103.40037,-2.30664,0.0,null],[103.4,-2.31228,0.0,null],[103.40059,-2.31457,0.0,null],[103.40995,-2.31899,0.0,null],[103.41152,-2.32067,0.0,null],[103.41266,-2.32307,0.0,null],[103.41227,-2.32646,0.0,null],[103.40929,-2.33155,0.0,null],[103.40981,-2.33423,0.0,null],[103.4137,-2.33649,0.0,null],[103.42004,-2.33539,0.0,null],[103.42304,-2.33594,0.0,null],[103.43012,-2.33586,0.0,null],[103.4331,-2.33666,0.0,null],[103.44399,-2.35404,0.0,null],[103.44641,-2.34953,0.0,null],[103.44405,-2.34473,0.0,null],[103.44437,-2.34246,0.0,null],[103.44649,-2.3401,0.0,null],[103.44546,-2.33605,0.0,null],[103.44561,-2.33462,0.0,null],[103.44694,-2.33253,0.0,null],[103.4477,-2.32977,0.0,null],[103.4487,-2.32144,0.0,null],[103.44813,-2.31706,0.0,null],[103.44328,-2.31221,0.0,null],[103.4428,-2.30926,0.0,null],[103.44413,-2.30659,0.0,null],[103.44794,-2.30345,0.0,null],[103.44737,-2.29983,0.0,null],[103.44875,-2.29684,0.0,null],[103.45522,-2.29284,0.0,null],[103.45627,-2.29131,0.0,null],[103.45513,-2.27875,0.0,null],[103.45698,-2.27528,0.0,null],[103.45698,-2.27223,0.0,null],[103.45489,-2.26804,0.0,null],[103.45879,-2.261,0.0,null],[103.46117,-2.25519,0.0,null],[103.46127,-2.25082,0.0,null],[103.4597,-2.24477,0.0,null],[103.45551,-2.23735,0.0,null],[103.45524,-2.23258,0.0,null],[103.45457,-2.23154,0.0,null],[103.45445,-2.22983,0.0,null],[103.45553,-2.22858,0.0,null],[103.45353,-2.22733,0.0,null],[103.45395,-2.22679,0.0,null],[103.45357,-2.22624,0.0,null],[103.45128,-2.22516,0.0,null],[103.45261,-2.22408,0.0,null],[103.45249,-2.22333,0.0,null],[103.45003,-2.22395,0.0,null],[103.45099,-2.22199,0.0,null],[103.44924,-2.2207,0.0,null],[103.44924,-2.21941,0.0,null],[103.45103,-2.21828,0.0,null],[103.45153,-2.21641,0.0,null],[103.44986,-2.21541,0.0,null],[103.44966,-2.21428,0.0,null],[103.44678,-2.21291,0.0,null],[103.44641,-2.21228,0.0,null],[103.44686,-2.21128,0.0,null],[103.44591,-2.20991,0.0,null],[103.44657,-2.20949,0.0,null],[103.44585,-2.20751,0.0,null],[103.44742,-2.18557,0.0,null],[103.45161,-2.17938,0.0,null],[103.43495,-2.17977,0.0,null],[103.43376,-2.12175,0.0,null],[103.43163,-2.12253,0.0,null],[103.42948,-2.12148,0.0,null],[103.42748,-2.11448,0.0,null],[103.42552,-2.11404,0.0,null],[103.41929,-2.116,0.0,null],[103.41648,-2.11602,0.0,null],[103.41481,-2.11674,0.0,null],[103.4122,-2.11918,0.0,null],[103.41065,-2.12176,0.0,null],[103.40501,-2.12522,0.0,null],[103.40213,-2.12439,0.0,null],[103.39777,-2.125,0.0,null],[103.39402,-2.12821,0.0,null],[103.38969,-2.12858,0.0,null],[103.38681,-2.13022,0.0,null],[103.3841,-2.13016,0.0,null],[103.37668,-2.12846,0.0,null],[103.37273,-2.12652,0.0,null],[103.37103,-2.1244,0.0,null],[103.36541,-2.12694,0.0,null],[103.36228,-2.12578,0.0,null],[103.36077,-2.12366,0.0,null],[103.36131,-2.12188,0.0,null],[103.36114,-2.11851,0.0,null],[103.36264,-2.1146,0.0,null],[103.36384,-2.11294,0.0,null],[103.36422,-2.11019,0.0,null],[103.36696,-2.10699,0.0,null],[103.3672,-2.10517,0.0,null],[103.36634,-2.10353,0.0,null],[103.36235,-2.10258,0.0,null],[103.35816,-2.0975,0.0,null],[103.35832,-2.09286,0.0,null],[103.35663,-2.09235,0.0,null],[103.35453,-2.08946,0.0,null],[103.35179,-2.0892,0.0,null],[103.35272,-2.08657,0.0,null],[103.35197,-2.08196,0.0,null],[103.34288,-2.07365,0.0,null],[103.33964,-2.07422,0.0,null],[103.32967,-2.07825,0.0,null],[103.32509,-2.08441,0.0,null],[103.32479,-2.08463,0.0,null],[103.32383,-2.08349,0.0,null],[103.32334,-2.07754,0.0,null],[103.32339,-2.06278,0.0,null],[103.32268,-2.06271,0.0,null],[103.32194,-2.04586,0.0,null],[103.32211,-2.03917,0.0,null]]],[[[103.19114,-2.16439,0.0,null],[103.18001,-2.16516,0.0,null],[103.17402,-2.1663,0.0,null],[103.17202,-2.17058,0.0,null],[103.16298,-2.17696,0.0,null],[103.1478,-2.17777,0.0,null],[103.14637,-2.18015,0.0,null],[103.14047,-2.18329,0.0,null],[103.13742,-2.19566,0.0,null],[103.13457,-2.19623,0.0,null],[103.13228,-2.1988,0.0,null],[103.15541,-2.23944,0.0,null],[103.15412,-2.25481,0.0,null],[103.15441,-2.25795,0.0,null],[103.15755,-2.26519,0.0,null],[103.15754,-2.27414,0.0,null],[103.16521,-2.28322,0.0,null],[103.17368,-2.2956,0.0,null],[103.19372,-2.32216,0.0,null],[103.19572,-2.3208,0.0,null],[103.20297,-2.31912,0.0,null],[103.20689,-2.31709,0.0,null],[103.20873,-2.31722,0.0,null],[103.21006,-2.31826,0.0,null],[103.21151,-2.31811,0.0,null],[103.21123,-2.31493,0.0,null],[103.21202,-2.31355,0.0,null],[103.212,-2.31155,0.0,null],[103.20943,-2.31033,0.0,null],[103.20821,-2.30647,0.0,null],[103.2068,-2.30481,0.0,null],[103.20582,-2.30232,0.0,null],[103.20574,-2.29888,0.0,null],[103.20407,-2.29298,0.0,null],[103.20422,-2.29082,0.0,null],[103.20614,-2.28546,0.0,null],[103.20654,-2.28023,0.0,null],[103.20208,-2.26986,0.0,null],[103.19737,-2.26208,0.0,null],[103.1946,-2.25605,0.0,null],[103.19222,-2.2532,0.0,null],[103.18889,-2.25179,0.0,null],[103.18079,-2.25024,0.0,null],[103.17962,-2.24771,0.0,null],[103.18151,-2.23981,0.0,null],[103.18232,-2.23226,0.0,null],[103.18314,-2.21726,0.0,null],[103.18238,-2.19622,0.0,null],[103.18348,-2.18182,0.0,null],[103.18646,-2.17308,0.0,null],[103.19114,-2.16439,0.0,null]]]]}},{"type":"Feature","properties":{"inventoryId":"big-forestry-re:13","sector":"PBPH","subtype":"IUPHHK-RE","quality":"OFFICIAL","sourceDataset":"big-forestry-re","sourceRecordId":"13","source":"BIG Kebijakan Satu Peta","sourceUrl":"https://kspservices.big.go.id/satupeta/rest/services/PUBLIK/PERIZINAN_DAN_PERTANAHAN/MapServer/3","retrievedAt":"2026-08-24T23:55:27Z","geometryProcessing":"web display simplification tolerance 0.00035 degrees","name":"PT SINAR MUTIARA NUSANTARA","permitNumber":"SK.162/Menhut-II/2014","permitDate":"2014-11-18","areaHa":32830.0,"provinceCode":"14","region":"sumatra"},"geometry":{"type":"Polygon","coordinates":[[[102.66072,0.54646,0.0,null],[102.63505,0.57627,0.0,null],[102.65116,0.59725,0.0,null],[102.6196,0.60846,0.0,null],[102.59102,0.52359,0.0,null],[102.58984,0.52401,0.0,null],[102.58873,0.52085,0.0,null],[102.6434,0.49631,0.0,null],[102.66351,0.50909,0.0,null],[102.67843,0.48546,0.0,null],[102.72044,0.49489,0.0,null],[102.75734,0.42149,0.0,null],[102.74479,0.41247,0.0,null],[102.75283,0.39715,0.0,null],[102.8518,0.45091,0.0,null],[102.92128,0.48958,0.0,null],[102.92461,0.49339,0.0,null],[102.92484,0.49493,0.0,null],[102.92389,0.50005,0.0,null],[102.92139,0.50255,0.0,null],[102.91908,0.50345,0.0,null],[102.91794,0.50082,0.0,null],[102.7087,0.57741,0.0,null],[102.69356,0.54186,0.0,null],[102.66072,0.54646,0.0,null]]]}},{"type":"Feature","properties":{"inventoryId":"big-forestry-re:11","sector":"PBPH","subtype":"IUPHHK-RE","quality":"OFFICIAL","sourceDataset":"big-forestry-re","sourceRecordId":"11","source":"BIG Kebijakan Satu Peta","sourceUrl":"https://kspservices.big.go.id/satupeta/rest/services/PUBLIK/PERIZINAN_DAN_PERTANAHAN/MapServer/3","retrievedAt":"2026-08-24T23:55:27Z","geometryProcessing":"web display simplification tolerance 0.00035 degrees","name":"PT SIPEF BIODIVERSITY INDONESIA","permitNumber":"SK.622/Menhut-II/2013","permitDate":"2013-09-17","areaHa":12672.0,"provinceCode":"17","region":"sumatra"},"geometry":{"type":"MultiPolygon","coordinates":[[[[101.30686,-2.39466,0.0,null],[101.3083,-2.3969,0.0,null],[101.30958,-2.39754,0.0,null],[101.31117,-2.40042,0.0,null],[101.31286,-2.4085,0.0,null],[101.31238,-2.40931,0.0,null],[101.3084,-2.41139,0.0,null],[101.30809,-2.41316,0.0,null],[101.30873,-2.41476,0.0,null],[101.31573,-2.41394,0.0,null],[101.32163,-2.41537,0.0,null],[101.32322,-2.41441,0.0,null],[101.32401,-2.41457,0.0,null],[101.32402,-2.41745,0.0,null],[101.32578,-2.42129,0.0,null],[101.32673,-2.42273,0.0,null],[101.32865,-2.42401,0.0,null],[101.32929,-2.42625,0.0,null],[101.32897,-2.42737,0.0,null],[101.32738,-2.42786,0.0,null],[101.32738,-2.43106,0.0,null],[101.32579,-2.43186,0.0,null],[101.32484,-2.4317,0.0,null],[101.32418,-2.43249,0.0,null],[101.32559,-2.43346,0.0,null],[101.32595,-2.43495,0.0,null],[101.32939,-2.43483,0.0,null],[101.33083,-2.43561,0.0,null],[101.33134,-2.43654,0.0,null],[101.33313,-2.43665,0.0,null],[101.33487,-2.43457,0.0,null],[101.34124,-2.43312,0.0,null],[101.34299,-2.43183,0.0,null],[101.34458,-2.43215,0.0,null],[101.34792,-2.4299,0.0,null],[101.3511,-2.42685,0.0,null],[101.35348,-2.42589,0.0,null],[101.35603,-2.42508,0.0,null],[101.35906,-2.42684,0.0,null],[101.36319,-2.42267,0.0,null],[101.36478,-2.42251,0.0,null],[101.36609,-2.42341,0.0,null],[101.36908,-2.4233,0.0,null],[101.36806,-2.42628,0.0,null],[101.37153,-2.42516,0.0,null],[101.37288,-2.42539,0.0,null],[101.37377,-2.43163,0.0,null],[101.37057,-2.43042,0.0,null],[101.36979,-2.43196,0.0,null],[101.36979,-2.43387,0.0,null],[101.36452,-2.43366,0.0,null],[101.36343,-2.43538,0.0,null],[101.36328,-2.437,0.0,null],[101.36128,-2.43855,0.0,null],[101.36019,-2.43875,0.0,null],[101.35762,-2.43792,0.0,null],[101.35653,-2.43869,0.0,null],[101.35782,-2.44926,0.0,null],[101.35735,-2.45374,0.0,null],[101.35879,-2.45566,0.0,null],[101.35801,-2.46159,0.0,null],[101.35896,-2.46319,0.0,null],[101.35897,-2.46495,0.0,null],[101.35785,-2.46591,0.0,null],[101.35738,-2.4672,0.0,null],[101.35754,-2.47104,0.0,null],[101.35786,-2.47152,0.0,null],[101.36041,-2.47183,0.0,null],[101.36225,-2.47479,0.0,null],[101.3632,-2.47543,0.0,null],[101.36543,-2.47623,0.0,null],[101.36989,-2.47318,0.0,null],[101.37004,-2.46741,0.0,null],[101.37306,-2.46661,0.0,null],[101.37369,-2.46548,0.0,null],[101.37656,-2.46468,0.0,null],[101.38198,-2.46787,0.0,null],[101.38564,-2.46819,0.0,null],[101.38787,-2.46722,0.0,null],[101.39041,-2.46497,0.0,null],[101.39184,-2.46449,0.0,null],[101.3955,-2.46096,0.0,null],[101.39629,-2.46096,0.0,null],[101.40028,-2.46544,0.0,null],[101.40522,-2.46783,0.0,null],[101.40713,-2.46735,0.0,null],[101.40776,-2.46574,0.0,null],[101.4076,-2.4611,0.0,null],[101.41929,-2.4608,0.0,null],[101.41908,-2.45873,0.0,null],[101.4148,-2.45245,0.0,null],[101.41522,-2.45088,0.0,null],[101.41736,-2.44996,0.0,null],[101.41743,-2.44841,0.0,null],[101.37453,-2.41442,0.0,null],[101.37004,-2.4117,0.0,null],[101.36179,-2.40523,0.0,null],[101.33244,-2.37799,0.0,null],[101.29183,-2.34362,0.0,null],[101.26334,-2.31772,0.0,null],[101.25528,-2.31187,0.0,null],[101.25348,-2.31427,0.0,null],[101.24695,-2.31623,0.0,null],[101.2366,-2.32036,0.0,null],[101.23566,-2.32441,0.0,null],[101.23595,-2.32932,0.0,null],[101.23746,-2.33482,0.0,null],[101.2377,-2.3415,0.0,null],[101.23694,-2.34297,0.0,null],[101.2345,-2.34235,0.0,null],[101.23059,-2.34257,0.0,null],[101.22638,-2.3473,0.0,null],[101.22085,-2.35019,0.0,null],[101.21729,-2.35342,0.0,null],[101.2093,-2.35821,0.0,null],[101.20357,-2.36357,0.0,null],[101.20405,-2.36737,0.0,null],[101.20644,-2.36832,0.0,null],[101.21091,-2.37408,0.0,null],[101.21807,-2.37471,0.0,null],[101.21823,-2.37135,0.0,null],[101.21902,-2.37071,0.0,null],[101.22109,-2.37166,0.0,null],[101.22109,-2.36926,0.0,null],[101.22236,-2.3699,0.0,null],[101.22347,-2.36862,0.0,null],[101.22618,-2.36829,0.0,null],[101.22666,-2.36637,0.0,null],[101.22777,-2.36589,0.0,null],[101.23159,-2.36716,0.0,null],[101.23302,-2.36668,0.0,null],[101.23445,-2.36443,0.0,null],[101.23732,-2.36203,0.0,null],[101.23859,-2.36235,0.0,null],[101.23923,-2.36619,0.0,null],[101.24035,-2.36811,0.0,null],[101.25165,-2.36809,0.0,null],[101.25381,-2.36897,0.0,null],[101.25445,-2.37089,0.0,null],[101.25588,-2.37233,0.0,null],[101.25875,-2.37296,0.0,null],[101.26242,-2.37744,0.0,null],[101.26735,-2.37759,0.0,null],[101.26895,-2.37855,0.0,null],[101.27102,-2.38095,0.0,null],[101.27579,-2.37982,0.0,null],[101.27818,-2.3787,0.0,null],[101.28041,-2.37677,0.0,null],[101.28184,-2.37757,0.0,null],[101.28312,-2.38045,0.0,null],[101.28186,-2.3891,0.0,null],[101.2825,-2.3899,0.0,null],[101.28632,-2.38925,0.0,null],[101.28887,-2.39005,0.0,null],[101.29109,-2.38892,0.0,null],[101.29524,-2.39084,0.0,null],[101.29842,-2.38939,0.0,null],[101.30016,-2.38667,0.0,null],[101.30303,-2.38602,0.0,null],[101.30366,-2.38426,0.0,null],[101.30509,-2.38313,0.0,null],[101.30669,-2.38345,0.0,null],[101.30956,-2.38649,0.0,null],[101.31036,-2.39113,0.0,null],[101.30989,-2.39354,0.0,null],[101.30925,-2.39402,0.0,null],[101.30766,-2.39354,0.0,null],[101.3067,-2.39386,0.0,null],[101.30686,-2.39466,0.0,null]]],[[[101.45572,-2.54356,0.0,null],[101.45072,-2.52431,0.0,null],[101.44924,-2.52301,0.0,null],[101.4384,-2.49364,0.0,null],[101.43442,-2.49459,0.0,null],[101.43349,-2.49727,0.0,null],[101.4335,-2.49913,0.0,null],[101.41906,-2.50683,0.0,null],[101.40633,-2.51633,0.0,null],[101.4221,-2.53513,0.0,null],[101.41838,-2.5451,0.0,null],[101.42516,-2.54369,0.0,null],[101.42798,-2.54544,0.0,null],[101.4288,-2.54802,0.0,null],[101.43094,-2.54852,0.0,null],[101.43546,-2.54676,0.0,null],[101.43938,-2.54689,0.0,null],[101.43951,-2.54435,0.0,null],[101.44279,-2.54431,0.0,null],[101.44276,-2.5461,0.0,null],[101.43787,-2.55662,0.0,null],[101.4504,-2.55565,0.0,null],[101.45201,-2.54513,0.0,null],[101.45585,-2.54408,0.0,null],[101.45572,-2.54356,0.0,null]]]]}},{"type":"Feature","properties":{"inventoryId":"big-forestry-re:5","sector":"PBPH","subtype":"IUPHHK-RE","quality":"OFFICIAL","sourceDataset":"big-forestry-re","sourceRecordId":"5","source":"BIG Kebijakan Satu Peta","sourceUrl":"https://kspservices.big.go.id/satupeta/rest/services/PUBLIK/PERIZINAN_DAN_PERTANAHAN/MapServer/3","retrievedAt":"2026-08-24T23:55:27Z","geometryProcessing":"web display simplification tolerance 0.00035 degrees","name":"PT THE BEST ONE UNITIMBER","permitNumber":"SK.747/Menhut-II/2014","permitDate":"2014-09-17","areaHa":39412.0,"provinceCode":"14","region":"sumatra"},"geometry":{"type":"Polygon","coordinates":[[[102.64023,0.32872,0.0,null],[102.72382,0.37216,0.0,null],[102.71149,0.39313,0.0,null],[102.70032,0.40332,0.0,null],[102.67828,0.42511,0.0,null],[102.67572,0.44611,0.0,null],[102.66351,0.48212,0.0,null],[102.67843,0.48546,0.0,null],[102.66351,0.50909,0.0,null],[102.42792,0.35931,0.0,null],[102.3847,0.33331,0.0,null],[102.38716,0.32912,0.0,null],[102.3894,0.32684,0.0,null],[102.38915,0.32614,0.0,null],[102.38983,0.32449,0.0,null],[102.39112,0.32389,0.0,null],[102.39112,0.323,0.0,null],[102.39217,0.32326,0.0,null],[102.39635,0.3212,0.0,null],[102.40008,0.32155,0.0,null],[102.40388,0.32078,0.0,null],[102.40672,0.31879,0.0,null],[102.41148,0.31235,0.0,null],[102.41947,0.3062,0.0,null],[102.4214,0.30341,0.0,null],[102.44688,0.31425,0.0,null],[102.60677,0.31134,0.0,null],[102.64023,0.32872,0.0,null]]]}}]}
