{"type":"FeatureCollection","name":"meratus-maluku-concession-inventory-forestry-hti","metadata":{"coverageId":"maluku","parentCoverageId":"indonesia","generatedAt":"2026-08-28T07:51:21Z","pipelineVersion":"2","count":7,"sectors":["PBPH"],"qualities":["OFFICIAL"],"geometryNote":"Web-display geometry is simplified; consult source records for authoritative geometry.","evidenceNote":"A public concession record does not imply fire causation, illegality, or wrongdoing."},"features":[{"type":"Feature","properties":{"inventoryId":"big-forestry-hti:238","sector":"PBPH","subtype":"IUPHHK-HTI","quality":"OFFICIAL","sourceDataset":"big-forestry-hti","sourceRecordId":"238","source":"BIG Kebijakan Satu Peta","sourceUrl":"https://kspservices.big.go.id/satupeta/rest/services/PUBLIK/PERIZINAN_DAN_PERTANAHAN/MapServer/2","retrievedAt":"2026-08-28T07:51:21Z","geometryProcessing":"web display simplification tolerance 0.00035 degrees","name":"PT KALPIKA WANATAMA UNIT I","permitNumber":"SK.612/Menhut-II/2009","permitDate":"2009-10-15","areaHa":11780.0,"provinceCode":"82","region":"maluku"},"geometry":{"type":"Polygon","coordinates":[[[125.15472,-1.78916,0.0,null],[125.15702,-1.80877,0.0,null],[125.16831,-1.84875,0.0,null],[125.17969,-1.84982,0.0,null],[125.20493,-1.85629,0.0,null],[125.22852,-1.86054,0.0,null],[125.23409,-1.863,0.0,null],[125.23854,-1.86339,0.0,null],[125.24953,-1.86634,0.0,null],[125.27476,-1.86662,0.0,null],[125.28386,-1.86078,0.0,null],[125.28582,-1.85829,0.0,null],[125.28732,-1.85454,0.0,null],[125.28663,-1.85008,0.0,null],[125.27979,-1.82976,0.0,null],[125.27778,-1.8264,0.0,null],[125.27658,-1.82255,0.0,null],[125.27505,-1.81578,0.0,null],[125.27479,-1.80722,0.0,null],[125.26623,-1.80759,0.0,null],[125.26288,-1.80698,0.0,null],[125.26043,-1.8045,0.0,null],[125.25886,-1.80113,0.0,null],[125.26001,-1.79314,0.0,null],[125.25764,-1.78976,0.0,null],[125.2582,-1.7859,0.0,null],[125.25747,-1.78397,0.0,null],[125.2575,-1.78171,0.0,null],[125.25863,-1.78111,0.0,null],[125.26251,-1.78133,0.0,null],[125.26476,-1.77875,0.0,null],[125.26996,-1.77812,0.0,null],[125.27721,-1.7621,0.0,null],[125.27712,-1.76101,0.0,null],[125.27034,-1.74938,0.0,null],[125.26601,-1.73601,0.0,null],[125.24519,-1.736,0.0,null],[125.24365,-1.73841,0.0,null],[125.23261,-1.75948,0.0,null],[125.23231,-1.76781,0.0,null],[125.23463,-1.76795,0.0,null],[125.23545,-1.78897,0.0,null],[125.23374,-1.78926,0.0,null],[125.2321,-1.79048,0.0,null],[125.23114,-1.79455,0.0,null],[125.2287,-1.79767,0.0,null],[125.22463,-1.79769,0.0,null],[125.22725,-1.79966,0.0,null],[125.22744,-1.80044,0.0,null],[125.17439,-1.79951,0.0,null],[125.17422,-1.78769,0.0,null],[125.17543,-1.7809,0.0,null],[125.15908,-1.78096,0.0,null],[125.15796,-1.78869,0.0,null],[125.15472,-1.78916,0.0,null]]]}},{"type":"Feature","properties":{"inventoryId":"big-forestry-hti:239","sector":"PBPH","subtype":"IUPHHK-HTI","quality":"OFFICIAL","sourceDataset":"big-forestry-hti","sourceRecordId":"239","source":"BIG Kebijakan Satu Peta","sourceUrl":"https://kspservices.big.go.id/satupeta/rest/services/PUBLIK/PERIZINAN_DAN_PERTANAHAN/MapServer/2","retrievedAt":"2026-08-28T07:51:21Z","geometryProcessing":"web display simplification tolerance 0.00035 degrees","name":"PT KALPIKA WANATAMA UNIT II","permitNumber":"189/Kpts-II/1998","permitDate":"1998-02-27","areaHa":11242.0,"provinceCode":"82","region":"maluku"},"geometry":{"type":"Polygon","coordinates":[[[125.37265,-1.84565,0.0,null],[125.37349,-1.84668,0.0,null],[125.37371,-1.84805,0.0,null],[125.37463,-1.84861,0.0,null],[125.37641,-1.8527,0.0,null],[125.37769,-1.85375,0.0,null],[125.38366,-1.85509,0.0,null],[125.39038,-1.85564,0.0,null],[125.39862,-1.86394,0.0,null],[125.41512,-1.87229,0.0,null],[125.42032,-1.87309,0.0,null],[125.42647,-1.87317,0.0,null],[125.43223,-1.87227,0.0,null],[125.43654,-1.87035,0.0,null],[125.44198,-1.87414,0.0,null],[125.4451,-1.87557,0.0,null],[125.45361,-1.88201,0.0,null],[125.45707,-1.88729,0.0,null],[125.46651,-1.88766,0.0,null],[125.46803,-1.88955,0.0,null],[125.47067,-1.88816,0.0,null],[125.47238,-1.88897,0.0,null],[125.474,-1.88739,0.0,null],[125.47739,-1.88614,0.0,null],[125.47809,-1.88939,0.0,null],[125.47693,-1.89305,0.0,null],[125.48616,-1.90411,0.0,null],[125.48743,-1.90488,0.0,null],[125.48921,-1.90423,0.0,null],[125.49056,-1.90293,0.0,null],[125.49453,-1.90219,0.0,null],[125.49664,-1.8996,0.0,null],[125.50142,-1.89847,0.0,null],[125.5025,-1.89447,0.0,null],[125.50369,-1.89266,0.0,null],[125.50575,-1.88677,0.0,null],[125.50902,-1.8826,0.0,null],[125.50942,-1.88119,0.0,null],[125.51396,-1.87987,0.0,null],[125.51827,-1.88367,0.0,null],[125.52055,-1.88479,0.0,null],[125.52634,-1.88354,0.0,null],[125.53127,-1.88422,0.0,null],[125.5346,-1.88331,0.0,null],[125.53534,-1.88747,0.0,null],[125.53641,-1.88797,0.0,null],[125.54028,-1.88794,0.0,null],[125.54475,-1.88963,0.0,null],[125.54913,-1.89204,0.0,null],[125.55082,-1.89486,0.0,null],[125.55379,-1.89533,0.0,null],[125.558,-1.8938,0.0,null],[125.55952,-1.89233,0.0,null],[125.55992,-1.89099,0.0,null],[125.56503,-1.89154,0.0,null],[125.57035,-1.88866,0.0,null],[125.57714,-1.88114,0.0,null],[125.57901,-1.87636,0.0,null],[125.57696,-1.87483,0.0,null],[125.5782,-1.86363,0.0,null],[125.57653,-1.85847,0.0,null],[125.57059,-1.85542,0.0,null],[125.56761,-1.85287,0.0,null],[125.56487,-1.84943,0.0,null],[125.56388,-1.85022,0.0,null],[125.56331,-1.85225,0.0,null],[125.56407,-1.85387,0.0,null],[125.56422,-1.85792,0.0,null],[125.56185,-1.85943,0.0,null],[125.56075,-1.85948,0.0,null],[125.55911,-1.85764,0.0,null],[125.55559,-1.85688,0.0,null],[125.55235,-1.85071,0.0,null],[125.55056,-1.84153,0.0,null],[125.5496,-1.83991,0.0,null],[125.54708,-1.83788,0.0,null],[125.5467,-1.83671,0.0,null],[125.54501,-1.83678,0.0,null],[125.54428,-1.83908,0.0,null],[125.54259,-1.83927,0.0,null],[125.54178,-1.83705,0.0,null],[125.52674,-1.83956,0.0,null],[125.52543,-1.8414,0.0,null],[125.52133,-1.84344,0.0,null],[125.5189,-1.84581,0.0,null],[125.51318,-1.84762,0.0,null],[125.50961,-1.84807,0.0,null],[125.5016,-1.84755,0.0,null],[125.49469,-1.84795,0.0,null],[125.47906,-1.85184,0.0,null],[125.48036,-1.85067,0.0,null],[125.48072,-1.84895,0.0,null],[125.48021,-1.84701,0.0,null],[125.47888,-1.84553,0.0,null],[125.47662,-1.8451,0.0,null],[125.47384,-1.84238,0.0,null],[125.46866,-1.84201,0.0,null],[125.46725,-1.84086,0.0,null],[125.4624,-1.84008,0.0,null],[125.46143,-1.83869,0.0,null],[125.4566,-1.83639,0.0,null],[125.45666,-1.83266,0.0,null],[125.45595,-1.83151,0.0,null],[125.45474,-1.83087,0.0,null],[125.45374,-1.83087,0.0,null],[125.45075,-1.83346,0.0,null],[125.4474,-1.83533,0.0,null],[125.44412,-1.8349,0.0,null],[125.44191,-1.83569,0.0,null],[125.43606,-1.83233,0.0,null],[125.4352,-1.82882,0.0,null],[125.43634,-1.82731,0.0,null],[125.4364,-1.82587,0.0,null],[125.43533,-1.82372,0.0,null],[125.43262,-1.82193,0.0,null],[125.42927,-1.82208,0.0,null],[125.42984,-1.82402,0.0,null],[125.42913,-1.82524,0.0,null],[125.42471,-1.8261,0.0,null],[125.41615,-1.82619,0.0,null],[125.41323,-1.82375,0.0,null],[125.4123,-1.82375,0.0,null],[125.39232,-1.81216,0.0,null],[125.36733,-1.84201,0.0,null],[125.37265,-1.84565,0.0,null]]]}},{"type":"Feature","properties":{"inventoryId":"big-forestry-hti:282","sector":"PBPH","subtype":"IUPHHK-HTI","quality":"OFFICIAL","sourceDataset":"big-forestry-hti","sourceRecordId":"282","source":"BIG Kebijakan Satu Peta","sourceUrl":"https://kspservices.big.go.id/satupeta/rest/services/PUBLIK/PERIZINAN_DAN_PERTANAHAN/MapServer/2","retrievedAt":"2026-08-28T07:51:21Z","geometryProcessing":"web display simplification tolerance 0.00035 degrees","name":"PT KIRANA CAKRAWALA","permitNumber":"184/Kpts-II/1997","permitDate":"1997-03-31","areaHa":21265.0,"provinceCode":"82","region":"maluku"},"geometry":{"type":"Polygon","coordinates":[[[128.45366,1.00602,0.0,null],[128.45415,1.0068,0.0,null],[128.45519,1.00611,0.0,null],[128.45591,1.00401,0.0,null],[128.4585,1.00628,0.0,null],[128.46002,1.00432,0.0,null],[128.4613,1.00536,0.0,null],[128.4613,1.00629,0.0,null],[128.47412,1.0061,0.0,null],[128.47693,1.00513,0.0,null],[128.49127,1.00531,0.0,null],[128.50409,1.00629,0.0,null],[128.5083,1.00629,0.0,null],[128.50909,1.00568,0.0,null],[128.51532,1.00848,0.0,null],[128.51648,1.01031,0.0,null],[128.5163,1.01111,0.0,null],[128.51727,1.01251,0.0,null],[128.51727,1.01367,0.0,null],[128.51849,1.0155,0.0,null],[128.51971,1.0163,0.0,null],[128.51947,1.01813,0.0,null],[128.52173,1.0199,0.0,null],[128.52551,1.0177,0.0,null],[128.52631,1.01868,0.0,null],[128.5271,1.01788,0.0,null],[128.52728,1.01971,0.0,null],[128.52911,1.0199,0.0,null],[128.52972,1.02112,0.0,null],[128.53052,1.02051,0.0,null],[128.53552,1.02087,0.0,null],[128.53693,1.02411,0.0,null],[128.53571,1.02429,0.0,null],[128.5351,1.02631,0.0,null],[128.53748,1.02753,0.0,null],[128.53888,1.03131,0.0,null],[128.53693,1.03247,0.0,null],[128.53693,1.03528,0.0,null],[128.53809,1.03632,0.0,null],[128.54089,1.03552,0.0,null],[128.54108,1.03607,0.0,null],[128.53992,1.03668,0.0,null],[128.53992,1.03851,0.0,null],[128.54187,1.03888,0.0,null],[128.54169,1.04169,0.0,null],[128.5459,1.04132,0.0,null],[128.54688,1.04028,0.0,null],[128.54688,1.03912,0.0,null],[128.54828,1.03809,0.0,null],[128.54932,1.03851,0.0,null],[128.55133,1.03748,0.0,null],[128.55231,1.0343,0.0,null],[128.5517,1.03387,0.0,null],[128.55072,1.03412,0.0,null],[128.55048,1.03528,0.0,null],[128.54968,1.03473,0.0,null],[128.54828,1.0365,0.0,null],[128.54749,1.0365,0.0,null],[128.5481,1.03491,0.0,null],[128.54773,1.0343,0.0,null],[128.54608,1.03491,0.0,null],[128.54547,1.0343,0.0,null],[128.54608,1.03229,0.0,null],[128.54669,1.03271,0.0,null],[128.54791,1.03168,0.0,null],[128.54993,1.03113,0.0,null],[128.55048,1.03027,0.0,null],[128.54993,1.02832,0.0,null],[128.55133,1.0257,0.0,null],[128.55212,1.02588,0.0,null],[128.55267,1.02509,0.0,null],[128.55469,1.0257,0.0,null],[128.55609,1.02551,0.0,null],[128.5589,1.02667,0.0,null],[128.55847,1.02771,0.0,null],[128.55988,1.02911,0.0,null],[128.56189,1.02948,0.0,null],[128.56207,1.03027,0.0,null],[128.5603,1.03149,0.0,null],[128.5603,1.03308,0.0,null],[128.55829,1.0329,0.0,null],[128.55768,1.03229,0.0,null],[128.55688,1.03247,0.0,null],[128.55688,1.03351,0.0,null],[128.55487,1.0343,0.0,null],[128.55609,1.03589,0.0,null],[128.55811,1.03607,0.0,null],[128.55811,1.03729,0.0,null],[128.55688,1.03729,0.0,null],[128.55652,1.03809,0.0,null],[128.5567,1.03949,0.0,null],[128.5589,1.04187,0.0,null],[128.5589,1.04291,0.0,null],[128.55688,1.04327,0.0,null],[128.55713,1.04431,0.0,null],[128.55591,1.04608,0.0,null],[128.55829,1.04852,0.0,null],[128.55829,1.05029,0.0,null],[128.55713,1.05212,0.0,null],[128.55731,1.05267,0.0,null],[128.55951,1.05249,0.0,null],[128.56128,1.0531,0.0,null],[128.56152,1.05511,0.0,null],[128.5625,1.05652,0.0,null],[128.56567,1.05933,0.0,null],[128.5661,1.0589,0.0,null],[128.56873,1.06152,0.0,null],[128.56653,1.06348,0.0,null],[128.56488,1.06689,0.0,null],[128.56451,1.06848,0.0,null],[128.56531,1.07312,0.0,null],[128.5639,1.07428,0.0,null],[128.5639,1.07928,0.0,null],[128.57288,1.07867,0.0,null],[128.57288,1.07727,0.0,null],[128.58485,1.07789,0.0,null],[128.58462,1.07922,0.0,null],[128.58588,1.08008,0.0,null],[128.58948,1.08112,0.0,null],[128.5921,1.08112,0.0,null],[128.59229,1.08252,0.0,null],[128.59747,1.08252,0.0,null],[128.59668,1.06927,0.0,null],[128.5993,1.06549,0.0,null],[128.60229,1.06451,0.0,null],[128.60248,1.06049,0.0,null],[128.60352,1.05811,0.0,null],[128.60449,1.05829,0.0,null],[128.60492,1.0611,0.0,null],[128.6059,1.0625,0.0,null],[128.60651,1.06232,0.0,null],[128.60712,1.06189,0.0,null],[128.60913,1.05609,0.0,null],[128.60968,1.0575,0.0,null],[128.61029,1.05768,0.0,null],[128.6109,1.05988,0.0,null],[128.60992,1.06207,0.0,null],[128.61029,1.06409,0.0,null],[128.61249,1.06848,0.0,null],[128.61572,1.06927,0.0,null],[128.61591,1.0733,0.0,null],[128.61749,1.0733,0.0,null],[128.61731,1.07648,0.0,null],[128.62189,1.07672,0.0,null],[128.62207,1.07349,0.0,null],[128.62531,1.07391,0.0,null],[128.62549,1.0733,0.0,null],[128.62653,1.07568,0.0,null],[128.62909,1.07611,0.0,null],[128.63251,1.08368,0.0,null],[128.6398,1.08417,0.0,null],[128.64065,1.08243,0.0,null],[128.63935,1.08142,0.0,null],[128.63901,1.08019,0.0,null],[128.64025,1.07882,0.0,null],[128.64037,1.07746,0.0,null],[128.63975,1.07615,0.0,null],[128.64059,1.07628,0.0,null],[128.64034,1.07445,0.0,null],[128.64205,1.07188,0.0,null],[128.64111,1.07197,0.0,null],[128.64045,1.07071,0.0,null],[128.64089,1.07028,0.0,null],[128.64368,1.07031,0.0,null],[128.64392,1.06787,0.0,null],[128.64349,1.06671,0.0,null],[128.64587,1.06567,0.0,null],[128.64728,1.06848,0.0,null],[128.64972,1.07068,0.0,null],[128.65131,1.07391,0.0,null],[128.65167,1.07648,0.0,null],[128.65308,1.0769,0.0,null],[128.65393,1.07971,0.0,null],[128.66431,1.08008,0.0,null],[128.66351,1.1001,0.0,null],[128.65973,1.09912,0.0,null],[128.65747,1.09967,0.0,null],[128.65692,1.1001,0.0,null],[128.65631,1.10388,0.0,null],[128.65771,1.10608,0.0,null],[128.65887,1.10608,0.0,null],[128.6593,1.10669,0.0,null],[128.65912,1.10889,0.0,null],[128.65833,1.10852,0.0,null],[128.6579,1.10889,0.0,null],[128.65851,1.1095,0.0,null],[128.66748,1.11151,0.0,null],[128.66669,1.13849,0.0,null],[128.66608,1.13867,0.0,null],[128.6665,1.14032,0.0,null],[128.66571,1.14093,0.0,null],[128.6651,1.14569,0.0,null],[128.6637,1.14648,0.0,null],[128.66071,1.15088,0.0,null],[128.66052,1.1571,0.0,null],[128.65887,1.15747,0.0,null],[128.65833,1.16388,0.0,null],[128.65851,1.16553,0.0,null],[128.66089,1.17108,0.0,null],[128.66193,1.17572,0.0,null],[128.66412,1.19647,0.0,null],[128.66388,1.20587,0.0,null],[128.66333,1.20728,0.0,null],[128.66412,1.21252,0.0,null],[128.66528,1.21429,0.0,null],[128.6665,1.21509,0.0,null],[128.66748,1.21991,0.0,null],[128.67468,1.22931,0.0,null],[128.68109,1.23633,0.0,null],[128.68188,1.2439,0.0,null],[128.67511,1.25311,0.0,null],[128.67468,1.25348,0.0,null],[128.67371,1.25293,0.0,null],[128.6709,1.24969,0.0,null],[128.6579,1.2395,0.0,null],[128.64868,1.23688,0.0,null],[128.64648,1.23547,0.0,null],[128.64392,1.23651,0.0,null],[128.64368,1.23731,0.0,null],[128.64465,1.23735,0.0,null],[128.64495,1.2382,0.0,null],[128.64305,1.23862,0.0,null],[128.64347,1.23973,0.0,null],[128.64403,1.23922,0.0,null],[128.64482,1.23963,0.0,null],[128.64467,1.24061,0.0,null],[128.64533,1.24124,0.0,null],[128.6436,1.24244,0.0,null],[128.63996,1.24357,0.0,null],[128.63861,1.24212,0.0,null],[128.63687,1.24423,0.0,null],[128.63626,1.24407,0.0,null],[128.63622,1.24347,0.0,null],[128.63736,1.2416,0.0,null],[128.63559,1.24076,0.0,null],[128.63765,1.24049,0.0,null],[128.63712,1.23863,0.0,null],[128.6384,1.23739,0.0,null],[128.63813,1.23651,0.0,null],[128.63606,1.2369,0.0,null],[128.63389,1.23941,0.0,null],[128.63214,1.23898,0.0,null],[128.63069,1.24057,0.0,null],[128.62862,1.2403,0.0,null],[128.62745,1.24072,0.0,null],[128.62707,1.23997,0.0,null],[128.62506,1.24144,0.0,null],[128.62446,1.24094,0.0,null],[128.6254,1.24027,0.0,null],[128.62443,1.23937,0.0,null],[128.62313,1.23998,0.0,null],[128.62172,1.23897,0.0,null],[128.6217,1.23511,0.0,null],[128.62268,1.23132,0.0,null],[128.62512,1.20813,0.0,null],[128.62464,1.20032,0.0,null],[128.62289,1.20004,0.0,null],[128.62275,1.19847,0.0,null],[128.62378,1.19783,0.0,null],[128.62444,1.19546,0.0,null],[128.62606,1.19659,0.0,null],[128.62706,1.19525,0.0,null],[128.62644,1.19319,0.0,null],[128.62759,1.19171,0.0,null],[128.62682,1.19069,0.0,null],[128.62616,1.19168,0.0,null],[128.62578,1.19095,0.0,null],[128.6269,1.18919,0.0,null],[128.62835,1.18876,0.0,null],[128.62757,1.18769,0.0,null],[128.62801,1.1859,0.0,null],[128.62499,1.18667,0.0,null],[128.62311,1.18617,0.0,null],[128.62273,1.18481,0.0,null],[128.62143,1.18501,0.0,null],[128.62036,1.18342,0.0,null],[128.62055,1.18194,0.0,null],[128.61874,1.18148,0.0,null],[128.61896,1.17977,0.0,null],[128.61787,1.17715,0.0,null],[128.61455,1.1752,0.0,null],[128.6145,1.17293,0.0,null],[128.61247,1.17147,0.0,null],[128.61241,1.16887,0.0,null],[128.61083,1.16707,0.0,null],[128.61136,1.16459,0.0,null],[128.61017,1.16481,0.0,null],[128.60877,1.16394,0.0,null],[128.60945,1.16333,0.0,null],[128.60881,1.16245,0.0,null],[128.60678,1.16232,0.0,null],[128.6074,1.15979,0.0,null],[128.61008,1.15842,0.0,null],[128.60886,1.15751,0.0,null],[128.60837,1.15638,0.0,null],[128.60874,1.15259,0.0,null],[128.60768,1.15134,0.0,null],[128.60785,1.15009,0.0,null],[128.60555,1.15078,0.0,null],[128.60396,1.15028,0.0,null],[128.60256,1.15109,0.0,null],[128.59896,1.14916,0.0,null],[128.59765,1.14713,0.0,null],[128.59671,1.14713,0.0,null],[128.59574,1.14867,0.0,null],[128.59363,1.14878,0.0,null],[128.59038,1.15293,0.0,null],[128.58948,1.1531,0.0,null],[128.5871,1.14752,0.0,null],[128.58521,1.14617,0.0,null],[128.58502,1.14416,0.0,null],[128.58173,1.14093,0.0,null],[128.58007,1.14006,0.0,null],[128.58007,1.13834,0.0,null],[128.57598,1.13429,0.0,null],[128.55429,1.10731,0.0,null],[128.54449,1.10992,0.0,null],[128.53491,1.10913,0.0,null],[128.52551,1.11151,0.0,null],[128.5249,1.06787,0.0,null],[128.50989,1.0683,0.0,null],[128.49591,1.06769,0.0,null],[128.48029,1.06329,0.0,null],[128.46628,1.04829,0.0,null],[128.43761,1.01964,0.0,null],[128.43966,1.01969,0.0,null],[128.44126,1.01838,0.0,null],[128.44263,1.01803,0.0,null],[128.44303,1.01473,0.0,null],[128.44445,1.01488,0.0,null],[128.4458,1.01259,0.0,null],[128.44605,1.01061,0.0,null],[128.4466,1.01122,0.0,null],[128.44678,1.01324,0.0,null],[128.44819,1.0117,0.0,null],[128.45133,1.01364,0.0,null],[128.45116,1.01218,0.0,null],[128.45241,1.01282,0.0,null],[128.45295,1.01167,0.0,null],[128.45239,1.0096,0.0,null],[128.45267,1.00608,0.0,null],[128.45315,1.00541,0.0,null],[128.45366,1.00602,0.0,null]],[[128.55509,1.05562,0.0,null],[128.55445,1.05636,0.0,null],[128.55545,1.05598,0.0,null],[128.55509,1.05562,0.0,null]]]}},{"type":"Feature","properties":{"inventoryId":"big-forestry-hti:279","sector":"PBPH","subtype":"IUPHHK-HTI","quality":"OFFICIAL","sourceDataset":"big-forestry-hti","sourceRecordId":"279","source":"BIG Kebijakan Satu Peta","sourceUrl":"https://kspservices.big.go.id/satupeta/rest/services/PUBLIK/PERIZINAN_DAN_PERTANAHAN/MapServer/2","retrievedAt":"2026-08-28T07:51:21Z","geometryProcessing":"web display simplification tolerance 0.00035 degrees","name":"PT MANGOLE TIMBER PRODUCERS","permitNumber":"191/Kpts-II/1998","permitDate":"1998-02-27","areaHa":14851.0,"provinceCode":"82","region":"maluku"},"geometry":{"type":"MultiPolygon","coordinates":[[[[125.15526,-1.79435,0.0,null],[125.15472,-1.78916,0.0,null],[125.15796,-1.78869,0.0,null],[125.15944,-1.7795,0.0,null],[125.15999,-1.76271,0.0,null],[125.15864,-1.76027,0.0,null],[125.17845,-1.75451,0.0,null],[125.17828,-1.72982,0.0,null],[125.16916,-1.73399,0.0,null],[125.15533,-1.7419,0.0,null],[125.14657,-1.7488,0.0,null],[125.13418,-1.76267,0.0,null],[125.13126,-1.76504,0.0,null],[125.12726,-1.76648,0.0,null],[125.12441,-1.76835,0.0,null],[125.1118,-1.77913,0.0,null],[125.10774,-1.78157,0.0,null],[125.08115,-1.79373,0.0,null],[125.07103,-1.79503,0.0,null],[125.04327,-1.78781,0.0,null],[125.03928,-1.78516,0.0,null],[125.03107,-1.77821,0.0,null],[125.02201,-1.76746,0.0,null],[125.01664,-1.76215,0.0,null],[125.01658,-1.76962,0.0,null],[125.00281,-1.76999,0.0,null],[125.00016,-1.77399,0.0,null],[124.9974,-1.77516,0.0,null],[124.9959,-1.7743,0.0,null],[124.99269,-1.76971,0.0,null],[124.9919,-1.7672,0.0,null],[124.99218,-1.76584,0.0,null],[124.99168,-1.76376,0.0,null],[124.98854,-1.75737,0.0,null],[124.98832,-1.75565,0.0,null],[124.9854,-1.75565,0.0,null],[124.98495,-1.73405,0.0,null],[124.97004,-1.73263,0.0,null],[124.96048,-1.73264,0.0,null],[124.96049,-1.74269,0.0,null],[124.97033,-1.7429,0.0,null],[124.97049,-1.7561,0.0,null],[124.95772,-1.75597,0.0,null],[124.95951,-1.75927,0.0,null],[124.96372,-1.76486,0.0,null],[124.96515,-1.76845,0.0,null],[124.96651,-1.76996,0.0,null],[124.96794,-1.77046,0.0,null],[124.97186,-1.77017,0.0,null],[124.9735,-1.77153,0.0,null],[124.97779,-1.77849,0.0,null],[124.98065,-1.78666,0.0,null],[125.01531,-1.78684,0.0,null],[125.01548,-1.80744,0.0,null],[125.07125,-1.80709,0.0,null],[125.07247,-1.80809,0.0,null],[125.07097,-1.81276,0.0,null],[125.08018,-1.81347,0.0,null],[125.08125,-1.8144,0.0,null],[125.08111,-1.81741,0.0,null],[125.08996,-1.82845,0.0,null],[125.09432,-1.83031,0.0,null],[125.09517,-1.83146,0.0,null],[125.09539,-1.83304,0.0,null],[125.08106,-1.83607,0.0,null],[125.06829,-1.8368,0.0,null],[125.07537,-1.84878,0.0,null],[125.08115,-1.85602,0.0,null],[125.08572,-1.85896,0.0,null],[125.10618,-1.85499,0.0,null],[125.11752,-1.85418,0.0,null],[125.11701,-1.84026,0.0,null],[125.11801,-1.84033,0.0,null],[125.11751,-1.8389,0.0,null],[125.11865,-1.83818,0.0,null],[125.11936,-1.83681,0.0,null],[125.11821,-1.83244,0.0,null],[125.11885,-1.831,0.0,null],[125.1212,-1.82956,0.0,null],[125.12562,-1.8254,0.0,null],[125.12954,-1.82661,0.0,null],[125.13268,-1.82553,0.0,null],[125.13318,-1.82639,0.0,null],[125.13355,-1.83515,0.0,null],[125.13555,-1.83995,0.0,null],[125.12792,-1.84204,0.0,null],[125.12472,-1.84528,0.0,null],[125.12443,-1.8465,0.0,null],[125.12279,-1.84765,0.0,null],[125.12309,-1.85403,0.0,null],[125.16288,-1.85571,0.0,null],[125.15526,-1.79435,0.0,null]]],[[[125.84108,-1.81478,0.0,null],[125.82799,-1.81466,0.0,null],[125.82799,-1.81918,0.0,null],[125.7854,-1.81918,0.0,null],[125.7855,-1.82358,0.0,null],[125.78052,-1.8237,0.0,null],[125.78052,-1.81918,0.0,null],[125.74804,-1.81906,0.0,null],[125.74792,-1.82775,0.0,null],[125.739,-1.82798,0.0,null],[125.739,-1.83239,0.0,null],[125.70295,-1.8325,0.0,null],[125.70307,-1.83667,0.0,null],[125.69843,-1.83679,0.0,null],[125.69855,-1.85559,0.0,null],[125.79384,-1.85451,0.0,null],[125.79396,-1.84595,0.0,null],[125.82537,-1.84542,0.0,null],[125.82525,-1.83691,0.0,null],[125.84405,-1.83667,0.0,null],[125.84381,-1.84583,0.0,null],[125.85238,-1.84571,0.0,null],[125.8525,-1.83679,0.0,null],[125.8638,-1.83679,0.0,null],[125.8638,-1.81894,0.0,null],[125.84108,-1.81918,0.0,null],[125.84108,-1.81478,0.0,null]]]]}},{"type":"Feature","properties":{"inventoryId":"big-forestry-hti:281","sector":"PBPH","subtype":"IUPHHK-HTI","quality":"OFFICIAL","sourceDataset":"big-forestry-hti","sourceRecordId":"281","source":"BIG Kebijakan Satu Peta","sourceUrl":"https://kspservices.big.go.id/satupeta/rest/services/PUBLIK/PERIZINAN_DAN_PERTANAHAN/MapServer/2","retrievedAt":"2026-08-28T07:51:21Z","geometryProcessing":"web display simplification tolerance 0.00035 degrees","name":"PT NNE PLANTATION","permitNumber":"SK.312/Menhut-II/2011","permitDate":"2011-06-15","areaHa":6770.0,"provinceCode":"82","region":"maluku"},"geometry":{"type":"MultiPolygon","coordinates":[[[[127.70494,0.81865,0.0,null],[127.68639,0.81865,0.0,null],[127.68107,0.80277,0.0,null],[127.71566,0.73176,0.0,null],[127.71789,0.73651,0.0,null],[127.71848,0.7488,0.0,null],[127.7175,0.7545,0.0,null],[127.71819,0.76196,0.0,null],[127.7203,0.76663,0.0,null],[127.72492,0.77041,0.0,null],[127.73066,0.77199,0.0,null],[127.73533,0.7712,0.0,null],[127.74815,0.76236,0.0,null],[127.75312,0.76128,0.0,null],[127.76014,0.75823,0.0,null],[127.76501,0.7568,0.0,null],[127.79214,0.75301,0.0,null],[127.79703,0.75106,0.0,null],[127.80101,0.74681,0.0,null],[127.8005,0.75345,0.0,null],[127.79878,0.75919,0.0,null],[127.80172,0.76203,0.0,null],[127.80172,0.76393,0.0,null],[127.80007,0.76613,0.0,null],[127.79667,0.76852,0.0,null],[127.7862,0.77394,0.0,null],[127.76766,0.77981,0.0,null],[127.75636,0.78936,0.0,null],[127.75416,0.79616,0.0,null],[127.73341,0.81847,0.0,null],[127.72891,0.81838,0.0,null],[127.72891,0.81186,0.0,null],[127.70494,0.81186,0.0,null],[127.70494,0.81865,0.0,null]]],[[[127.82485,0.7515,0.0,null],[127.82209,0.74587,0.0,null],[127.81187,0.73508,0.0,null],[127.80928,0.7358,0.0,null],[127.81078,0.73332,0.0,null],[127.81587,0.72782,0.0,null],[127.81806,0.72651,0.0,null],[127.82111,0.72249,0.0,null],[127.82895,0.71591,0.0,null],[127.83953,0.71605,0.0,null],[127.84805,0.71812,0.0,null],[127.8579,0.72698,0.0,null],[127.84428,0.74675,0.0,null],[127.83562,0.75054,0.0,null],[127.82898,0.75035,0.0,null],[127.82485,0.7515,0.0,null]]]]}},{"type":"Feature","properties":{"inventoryId":"big-forestry-hti:280","sector":"PBPH","subtype":"IUPHHK-HTI","quality":"OFFICIAL","sourceDataset":"big-forestry-hti","sourceRecordId":"280","source":"BIG Kebijakan Satu Peta","sourceUrl":"https://kspservices.big.go.id/satupeta/rest/services/PUBLIK/PERIZINAN_DAN_PERTANAHAN/MapServer/2","retrievedAt":"2026-08-28T07:51:21Z","geometryProcessing":"web display simplification tolerance 0.00035 degrees","name":"PT SENTOSA PRATAMA","permitNumber":"SK.677/Menhut-II/2011","permitDate":"2011-12-06","areaHa":32960.0,"provinceCode":"81","region":"maluku"},"geometry":{"type":"Polygon","coordinates":[[[126.70377,-3.47398,0.0,null],[126.7122,-3.47922,0.0,null],[126.71404,-3.4817,0.0,null],[126.7205,-3.48419,0.0,null],[126.72981,-3.4898,0.0,null],[126.73276,-3.49433,0.0,null],[126.73648,-3.49561,0.0,null],[126.73778,-3.49957,0.0,null],[126.74194,-3.49957,0.0,null],[126.74464,-3.50348,0.0,null],[126.74782,-3.51083,0.0,null],[126.75258,-3.51365,0.0,null],[126.75439,-3.51592,0.0,null],[126.75578,-3.52053,0.0,null],[126.75841,-3.52166,0.0,null],[126.75975,-3.52512,0.0,null],[126.78302,-3.51855,0.0,null],[126.80004,-3.51034,0.0,null],[126.80942,-3.50337,0.0,null],[126.82114,-3.50257,0.0,null],[126.82059,-3.4935,0.0,null],[126.82336,-3.48845,0.0,null],[126.83249,-3.46452,0.0,null],[126.83098,-3.46324,0.0,null],[126.82659,-3.46135,0.0,null],[126.82557,-3.45776,0.0,null],[126.8274,-3.45527,0.0,null],[126.82781,-3.45333,0.0,null],[126.82747,-3.45261,0.0,null],[126.82854,-3.44983,0.0,null],[126.83988,-3.42391,0.0,null],[126.84216,-3.41756,0.0,null],[126.84326,-3.41633,0.0,null],[126.84961,-3.4132,0.0,null],[126.85986,-3.40595,0.0,null],[126.87958,-3.39332,0.0,null],[126.87801,-3.38422,0.0,null],[126.87695,-3.38071,0.0,null],[126.87508,-3.37737,0.0,null],[126.87444,-3.37282,0.0,null],[126.88735,-3.36016,0.0,null],[126.8931,-3.34727,0.0,null],[126.89399,-3.33794,0.0,null],[126.89004,-3.33868,0.0,null],[126.88702,-3.3409,0.0,null],[126.88498,-3.34516,0.0,null],[126.88375,-3.34442,0.0,null],[126.88424,-3.33893,0.0,null],[126.88622,-3.33405,0.0,null],[126.88393,-3.33257,0.0,null],[126.87943,-3.34133,0.0,null],[126.87807,-3.34127,0.0,null],[126.87758,-3.33553,0.0,null],[126.87561,-3.33375,0.0,null],[126.85655,-3.3385,0.0,null],[126.85513,-3.33584,0.0,null],[126.86037,-3.33103,0.0,null],[126.85957,-3.32887,0.0,null],[126.85574,-3.32597,0.0,null],[126.85136,-3.32585,0.0,null],[126.85038,-3.32277,0.0,null],[126.84544,-3.31777,0.0,null],[126.84847,-3.31339,0.0,null],[126.84847,-3.31018,0.0,null],[126.84396,-3.31031,0.0,null],[126.84193,-3.30876,0.0,null],[126.83983,-3.30023,0.0,null],[126.83995,-3.29643,0.0,null],[126.84217,-3.29248,0.0,null],[126.83749,-3.27953,0.0,null],[126.83434,-3.27398,0.0,null],[126.8281,-3.26788,0.0,null],[126.82237,-3.26367,0.0,null],[126.81218,-3.25194,0.0,null],[126.78769,-3.27835,0.0,null],[126.78023,-3.28791,0.0,null],[126.79372,-3.30259,0.0,null],[126.77897,-3.32129,0.0,null],[126.75926,-3.3498,0.0,null],[126.73289,-3.37874,0.0,null],[126.72792,-3.3858,0.0,null],[126.7092,-3.41616,0.0,null],[126.70218,-3.43673,0.0,null],[126.69999,-3.45391,0.0,null],[126.69993,-3.45486,0.0,null],[126.70502,-3.45944,0.0,null],[126.70676,-3.4723,0.0,null],[126.70377,-3.47398,0.0,null]]]}},{"type":"Feature","properties":{"inventoryId":"big-forestry-hti:240","sector":"PBPH","subtype":"IUPHHK-HTI","quality":"OFFICIAL","sourceDataset":"big-forestry-hti","sourceRecordId":"240","source":"BIG Kebijakan Satu Peta","sourceUrl":"https://kspservices.big.go.id/satupeta/rest/services/PUBLIK/PERIZINAN_DAN_PERTANAHAN/MapServer/2","retrievedAt":"2026-08-28T07:51:21Z","geometryProcessing":"web display simplification tolerance 0.00035 degrees","name":"PT WAENIBE WOOD INDUSTRIES","permitNumber":"SK.155/MENHUT-II/2009","permitDate":"2009-04-03","areaHa":33245.0,"provinceCode":"81","region":"maluku"},"geometry":{"type":"Polygon","coordinates":[[[127.15434,-3.41292,0.0,null],[127.15547,-3.40847,0.0,null],[127.15525,-3.40769,0.0,null],[127.15349,-3.40666,0.0,null],[127.1536,-3.40574,0.0,null],[127.1478,-3.39901,0.0,null],[127.14418,-3.39623,0.0,null],[127.14073,-3.39147,0.0,null],[127.13629,-3.39425,0.0,null],[127.13331,-3.40013,0.0,null],[127.1328,-3.40239,0.0,null],[127.1317,-3.40324,0.0,null],[127.12221,-3.41905,0.0,null],[127.11784,-3.42164,0.0,null],[127.1088,-3.42433,0.0,null],[127.09656,-3.42451,0.0,null],[127.09376,-3.42146,0.0,null],[127.08907,-3.41295,0.0,null],[127.08688,-3.41337,0.0,null],[127.08389,-3.41525,0.0,null],[127.08276,-3.41685,0.0,null],[127.08308,-3.42034,0.0,null],[127.081,-3.42267,0.0,null],[127.08026,-3.42467,0.0,null],[127.0782,-3.42572,0.0,null],[127.07787,-3.42651,0.0,null],[127.07664,-3.42676,0.0,null],[127.07745,-3.43014,0.0,null],[127.07611,-3.43225,0.0,null],[127.07322,-3.43203,0.0,null],[127.07183,-3.43401,0.0,null],[127.0712,-3.43629,0.0,null],[127.06789,-3.43697,0.0,null],[127.06747,-3.43926,0.0,null],[127.06184,-3.43898,0.0,null],[127.06087,-3.43824,0.0,null],[127.05756,-3.43982,0.0,null],[127.0575,-3.44089,0.0,null],[127.05664,-3.44206,0.0,null],[127.0516,-3.44275,0.0,null],[127.05054,-3.44338,0.0,null],[127.04834,-3.44694,0.0,null],[127.04705,-3.44636,0.0,null],[127.04458,-3.44725,0.0,null],[127.0425,-3.44712,0.0,null],[127.03894,-3.44569,0.0,null],[127.03452,-3.4421,0.0,null],[127.03334,-3.44219,0.0,null],[127.02959,-3.44569,0.0,null],[127.02908,-3.44968,0.0,null],[127.02834,-3.45063,0.0,null],[127.02735,-3.45049,0.0,null],[127.02667,-3.44955,0.0,null],[127.02435,-3.4483,0.0,null],[127.02231,-3.44836,0.0,null],[127.01985,-3.44938,0.0,null],[127.01918,-3.4491,0.0,null],[127.01706,-3.44679,0.0,null],[127.01656,-3.44503,0.0,null],[127.01455,-3.44333,0.0,null],[127.01242,-3.44245,0.0,null],[127.00829,-3.44337,0.0,null],[127.0031,-3.44749,0.0,null],[126.98949,-3.46027,0.0,null],[126.96888,-3.47017,0.0,null],[126.96459,-3.47346,0.0,null],[126.95707,-3.47746,0.0,null],[126.95095,-3.48203,0.0,null],[126.94512,-3.48547,0.0,null],[126.94202,-3.4889,0.0,null],[126.93758,-3.4925,0.0,null],[126.93303,-3.49755,0.0,null],[126.93258,-3.50363,0.0,null],[126.93307,-3.50658,0.0,null],[126.93431,-3.51119,0.0,null],[126.93601,-3.5137,0.0,null],[126.93683,-3.51625,0.0,null],[126.939,-3.5263,0.0,null],[126.9319,-3.52793,0.0,null],[126.92805,-3.52718,0.0,null],[126.92127,-3.52726,0.0,null],[126.91951,-3.52796,0.0,null],[126.89355,-3.52737,0.0,null],[126.87852,-3.52925,0.0,null],[126.87674,-3.52889,0.0,null],[126.87425,-3.52718,0.0,null],[126.87356,-3.52767,0.0,null],[126.87692,-3.53673,0.0,null],[126.87908,-3.54478,0.0,null],[126.89203,-3.55492,0.0,null],[126.89131,-3.56481,0.0,null],[126.87432,-3.58202,0.0,null],[126.87784,-3.58533,0.0,null],[126.87882,-3.58976,0.0,null],[126.88366,-3.59624,0.0,null],[126.8859,-3.60308,0.0,null],[126.89728,-3.62977,0.0,null],[126.9022,-3.62839,0.0,null],[126.90423,-3.62652,0.0,null],[126.90568,-3.62386,0.0,null],[126.90723,-3.61526,0.0,null],[126.90828,-3.61406,0.0,null],[126.91018,-3.61407,0.0,null],[126.91092,-3.61465,0.0,null],[126.91335,-3.6141,0.0,null],[126.91519,-3.61582,0.0,null],[126.91622,-3.61556,0.0,null],[126.91986,-3.6141,0.0,null],[126.92246,-3.61189,0.0,null],[126.92626,-3.61139,0.0,null],[126.92824,-3.61024,0.0,null],[126.93092,-3.61015,0.0,null],[126.93225,-3.60785,0.0,null],[126.93335,-3.6072,0.0,null],[126.94171,-3.60663,0.0,null],[126.94524,-3.60754,0.0,null],[126.94876,-3.60752,0.0,null],[126.96374,-3.60521,0.0,null],[126.96781,-3.60393,0.0,null],[126.97228,-3.60447,0.0,null],[126.97781,-3.60387,0.0,null],[126.98084,-3.60251,0.0,null],[126.98275,-3.60251,0.0,null],[126.98718,-3.59708,0.0,null],[126.98866,-3.59645,0.0,null],[126.9956,-3.58672,0.0,null],[127.00279,-3.58489,0.0,null],[127.00477,-3.58315,0.0,null],[127.00469,-3.55177,0.0,null],[127.00994,-3.54963,0.0,null],[127.01065,-3.54998,0.0,null],[127.01187,-3.55262,0.0,null],[127.02375,-3.57111,0.0,null],[127.04353,-3.5664,0.0,null],[127.05426,-3.55818,0.0,null],[127.05769,-3.55495,0.0,null],[127.0597,-3.5503,0.0,null],[127.06431,-3.54261,0.0,null],[127.07577,-3.52754,0.0,null],[127.08677,-3.53359,0.0,null],[127.09724,-3.53751,0.0,null],[127.0933,-3.55674,0.0,null],[127.09595,-3.55538,0.0,null],[127.1014,-3.55604,0.0,null],[127.10704,-3.55917,0.0,null],[127.10765,-3.5557,0.0,null],[127.11119,-3.54872,0.0,null],[127.11473,-3.53998,0.0,null],[127.11574,-3.53478,0.0,null],[127.1156,-3.53217,0.0,null],[127.11429,-3.53008,0.0,null],[127.10557,-3.52243,0.0,null],[127.09992,-3.51952,0.0,null],[127.09218,-3.51836,0.0,null],[127.08568,-3.51496,0.0,null],[127.08106,-3.51077,0.0,null],[127.0734,-3.50832,0.0,null],[127.06743,-3.50097,0.0,null],[127.06382,-3.49521,0.0,null],[127.06187,-3.4889,0.0,null],[127.06224,-3.48592,0.0,null],[127.0627,-3.48379,0.0,null],[127.06595,-3.47895,0.0,null],[127.06846,-3.4723,0.0,null],[127.06855,-3.46793,0.0,null],[127.06964,-3.46362,0.0,null],[127.06948,-3.45038,0.0,null],[127.07022,-3.44778,0.0,null],[127.07292,-3.44211,0.0,null],[127.07516,-3.44044,0.0,null],[127.08072,-3.43821,0.0,null],[127.08444,-3.43803,0.0,null],[127.08993,-3.44068,0.0,null],[127.09251,-3.44089,0.0,null],[127.09614,-3.44007,0.0,null],[127.09901,-3.44022,0.0,null],[127.10301,-3.4384,0.0,null],[127.11044,-3.43691,0.0,null],[127.11397,-3.43691,0.0,null],[127.12028,-3.43911,0.0,null],[127.12409,-3.43911,0.0,null],[127.12521,-3.43558,0.0,null],[127.12744,-3.43419,0.0,null],[127.13823,-3.43384,0.0,null],[127.13224,-3.44009,0.0,null],[127.13313,-3.44174,0.0,null],[127.13238,-3.44312,0.0,null],[127.13335,-3.44391,0.0,null],[127.13303,-3.44461,0.0,null],[127.13381,-3.44557,0.0,null],[127.13272,-3.44706,0.0,null],[127.13336,-3.44824,0.0,null],[127.1327,-3.45172,0.0,null],[127.13346,-3.45344,0.0,null],[127.13262,-3.45506,0.0,null],[127.13311,-3.45872,0.0,null],[127.13245,-3.46,0.0,null],[127.13242,-3.46181,0.0,null],[127.13317,-3.46388,0.0,null],[127.13272,-3.46568,0.0,null],[127.13413,-3.4686,0.0,null],[127.13621,-3.47059,0.0,null],[127.13715,-3.47312,0.0,null],[127.13833,-3.47319,0.0,null],[127.13852,-3.47429,0.0,null],[127.13969,-3.4747,0.0,null],[127.13969,-3.47717,0.0,null],[127.14125,-3.47813,0.0,null],[127.15102,-3.47869,0.0,null],[127.15939,-3.47805,0.0,null],[127.1599,-3.47757,0.0,null],[127.16237,-3.4779,0.0,null],[127.16303,-3.47854,0.0,null],[127.16479,-3.4719,0.0,null],[127.16479,-3.47024,0.0,null],[127.16405,-3.46887,0.0,null],[127.16421,-3.46606,0.0,null],[127.16347,-3.46568,0.0,null],[127.16418,-3.46332,0.0,null],[127.16342,-3.46276,0.0,null],[127.1638,-3.4587,0.0,null],[127.16286,-3.45604,0.0,null],[127.16126,-3.45545,0.0,null],[127.16096,-3.45231,0.0,null],[127.15944,-3.44898,0.0,null],[127.14792,-3.43414,0.0,null],[127.14746,-3.42341,0.0,null],[127.14691,-3.42123,0.0,null],[127.14548,-3.42029,0.0,null],[127.14533,-3.41738,0.0,null],[127.14452,-3.417,0.0,null],[127.14495,-3.41555,0.0,null],[127.14675,-3.41466,0.0,null],[127.148,-3.41324,0.0,null],[127.15096,-3.41367,0.0,null],[127.15434,-3.41292,0.0,null]]]}}]}
